npa,nxx,npanxx,city,state,stateISO,country,countryISO,zipCode,gmtOffset,gmtOffsetDST,dstObserved,latitude,longitude
403,201,403201,Calgary,Alberta,AB,Canada,CA,T2E6M4,-7,-6,1,51.0478,-114.0585
403,201,403201,Calgary,Alberta,AB,Canada,CA,T2G2B3,-7,-6,1,51.0478,-114.0585
403,201,403201,Calgary,Alberta,AB,Canada,CA,T2J5X9,-7,-6,1,51.0478,-114.0585
403,201,403201,Calgary,Alberta,AB,Canada,CA,T2W1J6,-7,-6,1,51.0478,-114.0585
403,201,403201,Calgary,Alberta,AB,Canada,CA,T2X2B5,-7,-6,1,51.0478,-114.0585
403,201,403201,Calgary,Alberta,AB,Canada,CA,T0L1T0,-7,-6,1,51.0478,-114.0585
403,202,403202,Calgary,Alberta,AB,Canada,CA,T3B5R4,-7,-6,1,51.0478,-114.0585
403,202,403202,Calgary,Alberta,AB,Canada,CA,T2G1P4,-7,-6,1,51.0478,-114.0585
403,202,403202,Calgary,Alberta,AB,Canada,CA,T2V3T1,-7,-6,1,51.0478,-114.0585
403,202,403202,Calgary,Alberta,AB,Canada,CA,T2P2E6,-7,-6,1,51.0478,-114.0585
403,202,403202,Calgary,Alberta,AB,Canada,CA,T2N1Z7,-7,-6,1,51.0478,-114.0585
403,202,403202,Calgary,Alberta,AB,Canada,CA,T2H0J3,-7,-6,1,51.0478,-114.0585
403,205,403205,Calgary,Alberta,AB,Canada,CA,T2G2Z4,-7,-6,1,51.0478,-114.0585
403,205,403205,Calgary,Alberta,AB,Canada,CA,T2E7S8,-7,-6,1,51.0478,-114.0585
403,205,403205,Calgary,Alberta,AB,Canada,CA,T2G2H8,-7,-6,1,51.0478,-114.0585
403,205,403205,Calgary,Alberta,AB,Canada,CA,T2S0B4,-7,-6,1,51.0478,-114.0585
403,205,403205,Calgary,Alberta,AB,Canada,CA,T2R1R2,-7,-6,1,51.0478,-114.0585
403,205,403205,Calgary,Alberta,AB,Canada,CA,T2R1M1,-7,-6,1,51.0478,-114.0585
403,205,403205,Calgary,Alberta,AB,Canada,CA,T2R1K1,-7,-6,1,51.0478,-114.0585
403,205,403205,Calgary,Alberta,AB,Canada,CA,T2R0X7,-7,-6,1,51.0478,-114.0585
403,205,403205,Calgary,Alberta,AB,Canada,CA,T2R0E4,-7,-6,1,51.0478,-114.0585
403,205,403205,Calgary,Alberta,AB,Canada,CA,T2P5A6,-7,-6,1,51.0478,-114.0585
403,205,403205,Calgary,Alberta,AB,Canada,CA,T2P4J8,-7,-6,1,51.0478,-114.0585
403,205,403205,Calgary,Alberta,AB,Canada,CA,T2P4H2,-7,-6,1,51.0478,-114.0585
403,205,403205,Calgary,Alberta,AB,Canada,CA,T2P3S8,-7,-6,1,51.0478,-114.0585
403,205,403205,Calgary,Alberta,AB,Canada,CA,T2P3P8,-7,-6,1,51.0478,-114.0585
403,205,403205,Calgary,Alberta,AB,Canada,CA,T2P2T9,-7,-6,1,51.0478,-114.0585
403,205,403205,Calgary,Alberta,AB,Canada,CA,T2P1M7,-7,-6,1,51.0478,-114.0585
403,205,403205,Calgary,Alberta,AB,Canada,CA,T2G3W5,-7,-6,1,51.0478,-114.0585
403,205,403205,Calgary,Alberta,AB,Canada,CA,T2P5A2,-7,-6,1,51.0478,-114.0585
403,205,403205,Calgary,Alberta,AB,Canada,CA,T3C3P6,-7,-6,1,51.0478,-114.0585
403,205,403205,Calgary,Alberta,AB,Canada,CA,T2P0S8,-7,-6,1,51.0478,-114.0585
403,207,403207,Calgary,Alberta,AB,Canada,CA,T2A0J9,-7,-6,1,51.0478,-114.0585
403,207,403207,Calgary,Alberta,AB,Canada,CA,T2A5P7,-7,-6,1,51.0478,-114.0585
403,207,403207,Calgary,Alberta,AB,Canada,CA,T2A2A2,-7,-6,1,51.0478,-114.0585
403,207,403207,Calgary,Alberta,AB,Canada,CA,T2A0W6,-7,-6,1,51.0478,-114.0585
403,207,403207,Calgary,Alberta,AB,Canada,CA,T2A1V4,-7,-6,1,51.0478,-114.0585
403,207,403207,Calgary,Alberta,AB,Canada,CA,T2B3H4,-7,-6,1,51.0478,-114.0585
403,207,403207,Calgary,Alberta,AB,Canada,CA,T2A7T2,-7,-6,1,51.0478,-114.0585
403,207,403207,Calgary,Alberta,AB,Canada,CA,T2A7J5,-7,-6,1,51.0478,-114.0585
403,207,403207,Calgary,Alberta,AB,Canada,CA,T2A7B5,-7,-6,1,51.0478,-114.0585
403,207,403207,Calgary,Alberta,AB,Canada,CA,T2A1H1,-7,-6,1,51.0478,-114.0585
403,207,403207,Calgary,Alberta,AB,Canada,CA,T2A1R9,-7,-6,1,51.0478,-114.0585
403,207,403207,Calgary,Alberta,AB,Canada,CA,T2A1X2,-7,-6,1,51.0478,-114.0585
403,207,403207,Calgary,Alberta,AB,Canada,CA,T2A5V9,-7,-6,1,51.0478,-114.0585
403,207,403207,Calgary,Alberta,AB,Canada,CA,T2A6P9,-7,-6,1,51.0478,-114.0585
403,207,403207,Calgary,Alberta,AB,Canada,CA,T2A2L7,-7,-6,1,51.0478,-114.0585
403,207,403207,Calgary,Alberta,AB,Canada,CA,T2A2V6,-7,-6,1,51.0478,-114.0585
403,207,403207,Calgary,Alberta,AB,Canada,CA,T2A4L6,-7,-6,1,51.0478,-114.0585
403,207,403207,Calgary,Alberta,AB,Canada,CA,T2A5J8,-7,-6,1,51.0478,-114.0585
403,207,403207,Calgary,Alberta,AB,Canada,CA,T2A0W5,-7,-6,1,51.0478,-114.0585
403,207,403207,Calgary,Alberta,AB,Canada,CA,T2A1B5,-7,-6,1,51.0478,-114.0585
403,209,403209,Calgary,Alberta,AB,Canada,CA,T3C0J5,-7,-6,1,51.0478,-114.0585
403,209,403209,Calgary,Alberta,AB,Canada,CA,T2T1X4,-7,-6,1,51.0478,-114.0585
403,209,403209,Calgary,Alberta,AB,Canada,CA,T3C3M5,-7,-6,1,51.0478,-114.0585
403,209,403209,Calgary,Alberta,AB,Canada,CA,T3C0J8,-7,-6,1,51.0478,-114.0585
403,209,403209,Calgary,Alberta,AB,Canada,CA,T2G2H8,-7,-6,1,51.0478,-114.0585
403,209,403209,Calgary,Alberta,AB,Canada,CA,T2V2N6,-7,-6,1,51.0478,-114.0585
403,209,403209,Calgary,Alberta,AB,Canada,CA,T2T1V7,-7,-6,1,51.0478,-114.0585
403,209,403209,Calgary,Alberta,AB,Canada,CA,T2P3P8,-7,-6,1,51.0478,-114.0585
403,209,403209,Calgary,Alberta,AB,Canada,CA,T2E0P8,-7,-6,1,51.0478,-114.0585
403,209,403209,Calgary,Alberta,AB,Canada,CA,T2P3M7,-7,-6,1,51.0478,-114.0585
403,209,403209,Calgary,Alberta,AB,Canada,CA,T2P3G2,-7,-6,1,51.0478,-114.0585
403,210,403210,Calgary,Alberta,AB,Canada,CA,T2M0K7,-7,-6,1,51.0478,-114.0585
403,210,403210,Calgary,Alberta,AB,Canada,CA,T2L0N8,-7,-6,1,51.0478,-114.0585
403,210,403210,Calgary,Alberta,AB,Canada,CA,T2E7C8,-7,-6,1,51.0478,-114.0585
403,210,403210,Calgary,Alberta,AB,Canada,CA,T2K2W6,-7,-6,1,51.0478,-114.0585
403,210,403210,Calgary,Alberta,AB,Canada,CA,T2N1M7,-7,-6,1,51.0478,-114.0585
403,210,403210,Calgary,Alberta,AB,Canada,CA,T2G0V9,-7,-6,1,51.0478,-114.0585
403,212,403212,Calgary,Alberta,AB,Canada,CA,T2H1J9,-7,-6,1,51.0478,-114.0585
403,213,403213,Calgary,Alberta,AB,Canada,CA,T2P4H2,-7,-6,1,51.0478,-114.0585
403,215,403215,Calgary,Alberta,AB,Canada,CA,T2R1L5,-7,-6,1,51.0478,-114.0585
403,215,403215,Edmonton,Alberta,AB,Canada,CA,T5M3W2,-7,-6,1,51.0478,-114.0585
403,215,403215,Calgary,Alberta,AB,Canada,CA,T2R0C8,-7,-6,1,51.0478,-114.0585
403,215,403215,Calgary,Alberta,AB,Canada,CA,T2P0M9,-7,-6,1,51.0478,-114.0585
403,215,403215,Calgary,Alberta,AB,Canada,CA,T2P0L6,-7,-6,1,51.0478,-114.0585
403,215,403215,Calgary,Alberta,AB,Canada,CA,T2J6A5,-7,-6,1,51.0478,-114.0585
403,215,403215,Calgary,Alberta,AB,Canada,CA,T2G4B7,-7,-6,1,51.0478,-114.0585
403,215,403215,Calgary,Alberta,AB,Canada,CA,T2E8S1,-7,-6,1,51.0478,-114.0585
403,215,403215,Calgary,Alberta,AB,Canada,CA,T2E7A7,-7,-6,1,51.0478,-114.0585
403,215,403215,Calgary,Alberta,AB,Canada,CA,T2B2S6,-7,-6,1,51.0478,-114.0585
403,215,403215,Calgary,Alberta,AB,Canada,CA,T2E6N9,-7,-6,1,51.0478,-114.0585
403,215,403215,Calgary,Alberta,AB,Canada,CA,T2H0S6,-7,-6,1,51.0478,-114.0585
403,216,403216,Calgary,Alberta,AB,Canada,CA,T2P0N7,-7,-6,1,51.0478,-114.0585
403,216,403216,Calgary,Alberta,AB,Canada,CA,T2C0B2,-7,-6,1,51.0478,-114.0585
403,216,403216,Calgary,Alberta,AB,Canada,CA,T2P2P5,-7,-6,1,51.0478,-114.0585
403,216,403216,Calgary,Alberta,AB,Canada,CA,T2E8G8,-7,-6,1,51.0478,-114.0585
403,216,403216,Calgary,Alberta,AB,Canada,CA,T2E7C3,-7,-6,1,51.0478,-114.0585
403,216,403216,Calgary,Alberta,AB,Canada,CA,T2E1K1,-7,-6,1,51.0478,-114.0585
403,216,403216,Calgary,Alberta,AB,Canada,CA,T2R1J4,-7,-6,1,51.0478,-114.0585
403,217,403217,Calgary,Alberta,AB,Canada,CA,T3C1T7,-7,-6,1,51.0478,-114.0585
403,217,403217,Calgary,Alberta,AB,Canada,CA,T3H3J6,-7,-6,1,51.0478,-114.0585
403,217,403217,Calgary,Alberta,AB,Canada,CA,T3E6N5,-7,-6,1,51.0478,-114.0585
403,217,403217,Calgary,Alberta,AB,Canada,CA,T3E1Y5,-7,-6,1,51.0478,-114.0585
403,217,403217,Calgary,Alberta,AB,Canada,CA,T3E6M8,-7,-6,1,51.0478,-114.0585
403,217,403217,Calgary,Alberta,AB,Canada,CA,T3E5K4,-7,-6,1,51.0478,-114.0585
403,217,403217,Calgary,Alberta,AB,Canada,CA,T3E3R9,-7,-6,1,51.0478,-114.0585
403,217,403217,Calgary,Alberta,AB,Canada,CA,T3E3K4,-7,-6,1,51.0478,-114.0585
403,217,403217,Calgary,Alberta,AB,Canada,CA,T3E3J4,-7,-6,1,51.0478,-114.0585
403,217,403217,Calgary,Alberta,AB,Canada,CA,T3E6N3,-7,-6,1,51.0478,-114.0585
403,217,403217,Calgary,Alberta,AB,Canada,CA,T3C0Y6,-7,-6,1,51.0478,-114.0585
403,217,403217,Calgary,Alberta,AB,Canada,CA,T3C0E7,-7,-6,1,51.0478,-114.0585
403,217,403217,Calgary,Alberta,AB,Canada,CA,T3E3H4,-7,-6,1,51.0478,-114.0585
403,217,403217,Calgary,Alberta,AB,Canada,CA,T3E2A2,-7,-6,1,51.0478,-114.0585
403,217,403217,Calgary,Alberta,AB,Canada,CA,T3E0B1,-7,-6,1,51.0478,-114.0585
403,217,403217,Calgary,Alberta,AB,Canada,CA,T3E0A7,-7,-6,1,51.0478,-114.0585
403,217,403217,Calgary,Alberta,AB,Canada,CA,T3C2Z4,-7,-6,1,51.0478,-114.0585
403,217,403217,Calgary,Alberta,AB,Canada,CA,T3H3J7,-7,-6,1,51.0478,-114.0585
403,217,403217,Calgary,Alberta,AB,Canada,CA,T3E6S9,-7,-6,1,51.0478,-114.0585
403,217,403217,Calgary,Alberta,AB,Canada,CA,T3C1S6,-7,-6,1,51.0478,-114.0585
403,218,403218,Calgary,Alberta,AB,Canada,CA,T3E0M8,-7,-6,1,51.0478,-114.0585
403,218,403218,Calgary,Alberta,AB,Canada,CA,T2S2T2,-7,-6,1,51.0478,-114.0585
403,218,403218,Calgary,Alberta,AB,Canada,CA,T2E7H7,-7,-6,1,51.0478,-114.0585
403,218,403218,Calgary,Alberta,AB,Canada,CA,T2R1L9,-7,-6,1,51.0478,-114.0585
403,218,403218,Calgary,Alberta,AB,Canada,CA,T2P3R5,-7,-6,1,51.0478,-114.0585
403,218,403218,Calgary,Alberta,AB,Canada,CA,T2P3P4,-7,-6,1,51.0478,-114.0585
403,218,403218,Calgary,Alberta,AB,Canada,CA,T2P3C5,-7,-6,1,51.0478,-114.0585
403,218,403218,Calgary,Alberta,AB,Canada,CA,T2P4K9,-7,-6,1,51.0478,-114.0585
403,219,403219,Calgary,Alberta,AB,Canada,CA,T2G4B7,-7,-6,1,51.0478,-114.0585
403,219,403219,Calgary,Alberta,AB,Canada,CA,T1Y6Z8,-7,-6,1,51.0478,-114.0585
403,219,403219,Calgary,Alberta,AB,Canada,CA,T2H2P6,-7,-6,1,51.0478,-114.0585
403,219,403219,Calgary,Alberta,AB,Canada,CA,T2E6Z3,-7,-6,1,51.0478,-114.0585
403,219,403219,Calgary,Alberta,AB,Canada,CA,T2E6T7,-7,-6,1,51.0478,-114.0585
403,219,403219,Calgary,Alberta,AB,Canada,CA,T1Y5Y9,-7,-6,1,51.0478,-114.0585
403,219,403219,Calgary,Alberta,AB,Canada,CA,T2A6L8,-7,-6,1,51.0478,-114.0585
403,219,403219,Calgary,Alberta,AB,Canada,CA,T2E6S8,-7,-6,1,51.0478,-114.0585
403,220,403220,Calgary,Alberta,AB,Canada,CA,T3B2V4,-7,-6,1,51.0478,-114.0585
403,220,403220,Calgary,Alberta,AB,Canada,CA,T2N4M1,-7,-6,1,51.0478,-114.0585
403,220,403220,Calgary,Alberta,AB,Canada,CA,T2N4N1,-7,-6,1,51.0478,-114.0585
403,220,403220,Calgary,Alberta,AB,Canada,CA,T2M0P9,-7,-6,1,51.0478,-114.0585
403,220,403220,Calgary,Alberta,AB,Canada,CA,T2K5Y1,-7,-6,1,51.0478,-114.0585
403,220,403220,Calgary,Alberta,AB,Canada,CA,T2M4S2,-7,-6,1,51.0478,-114.0585
403,220,403220,Calgary,Alberta,AB,Canada,CA,T2M4N1,-7,-6,1,51.0478,-114.0585
403,220,403220,Calgary,Alberta,AB,Canada,CA,T2M1L4,-7,-6,1,51.0478,-114.0585
403,220,403220,Calgary,Alberta,AB,Canada,CA,T2N4K,-7,-6,1,51.0478,-114.0585
403,220,403220,Calgary,Alberta,AB,Canada,CA,T2N4C,-7,-6,1,51.0478,-114.0585
403,220,403220,Calgary,Alberta,AB,Canada,CA,T2M0R2,-7,-6,1,51.0478,-114.0585
403,220,403220,Calgary,Alberta,AB,Canada,CA,T2L2A5,-7,-6,1,51.0478,-114.0585
403,220,403220,Calgary,Alberta,AB,Canada,CA,T2N1N4,-7,-6,1,51.0478,-114.0585
403,220,403220,Calgary,Alberta,AB,Canada,CA,T2L2A4,-7,-6,1,51.0478,-114.0585
403,220,403220,Calgary,Alberta,AB,Canada,CA,T2N1C6,-7,-6,1,51.0478,-114.0585
403,220,403220,Calgary,Alberta,AB,Canada,CA,T3B2V3,-7,-6,1,51.0478,-114.0585
403,220,403220,Calgary,Alberta,AB,Canada,CA,T2N1C1,-7,-6,1,51.0478,-114.0585
403,220,403220,Calgary,Alberta,AB,Canada,CA,T2K5S5,-7,-6,1,51.0478,-114.0585
403,220,403220,Calgary,Alberta,AB,Canada,CA,T2N4V6,-7,-6,1,51.0478,-114.0585
403,220,403220,Calgary,Alberta,AB,Canada,CA,T2L1Y,-7,-6,1,51.0478,-114.0585
403,221,403221,Calgary,Alberta,AB,Canada,CA,T2G4C2,-7,-6,1,51.0478,-114.0585
403,221,403221,Calgary,Alberta,AB,Canada,CA,T2N3P5,-7,-6,1,51.0478,-114.0585
403,221,403221,Calgary,Alberta,AB,Canada,CA,T2G0H5,-7,-6,1,51.0478,-114.0585
403,221,403221,Calgary,Alberta,AB,Canada,CA,T3C0E8,-7,-6,1,51.0478,-114.0585
403,221,403221,Calgary,Alberta,AB,Canada,CA,T2S2T8,-7,-6,1,51.0478,-114.0585
403,221,403221,Calgary,Alberta,AB,Canada,CA,T2P4K9,-7,-6,1,51.0478,-114.0585
403,221,403221,Calgary,Alberta,AB,Canada,CA,T2G4C8,-7,-6,1,51.0478,-114.0585
403,221,403221,Calgary,Alberta,AB,Canada,CA,T2M3A6,-7,-6,1,51.0478,-114.0585
403,221,403221,Calgary,Alberta,AB,Canada,CA,T2B3E2,-7,-6,1,51.0478,-114.0585
403,221,403221,Calgary,Alberta,AB,Canada,CA,T2P3C5,-7,-6,1,51.0478,-114.0585
403,221,403221,Calgary,Alberta,AB,Canada,CA,T2H2B8,-7,-6,1,51.0478,-114.0585
403,221,403221,Calgary,Alberta,AB,Canada,CA,T2P2Z1,-7,-6,1,51.0478,-114.0585
403,221,403221,Calgary,Alberta,AB,Canada,CA,T2P2C4,-7,-6,1,51.0478,-114.0585
403,221,403221,Calgary,Alberta,AB,Canada,CA,T2N4L7,-7,-6,1,51.0478,-114.0585
403,221,403221,Calgary,Alberta,AB,Canada,CA,T2N3P7,-7,-6,1,51.0478,-114.0585
403,221,403221,Calgary,Alberta,AB,Canada,CA,T2E6W6,-7,-6,1,51.0478,-114.0585
403,221,403221,Calgary,Alberta,AB,Canada,CA,T2E6W5,-7,-6,1,51.0478,-114.0585
403,221,403221,Calgary,Alberta,AB,Canada,CA,T2P3T3,-7,-6,1,51.0478,-114.0585
403,221,403221,Calgary,Alberta,AB,Canada,CA,T2G5J2,-7,-6,1,51.0478,-114.0585
403,221,403221,Calgary,Alberta,AB,Canada,CA,T2P3P8,-7,-6,1,51.0478,-114.0585
403,222,403222,Lethbridge,Alberta,AB,Canada,CA,T1H2B8,-7,-6,1,49.5186,-112.1748
403,222,403222,Wrentham,Alberta,AB,Canada,CA,T0K2P0,-7,-6,1,49.5186,-112.1748
403,222,403222,Coaldale,Alberta,AB,Canada,CA,T1M1M6,-7,-6,1,49.5186,-112.1748
403,222,403222,Stirling,Alberta,AB,Canada,CA,T0K2E0,-7,-6,1,49.5186,-112.1748
403,222,403222,Wrentham,Alberta,AB,Canada,CA,T0K2G0,-7,-6,1,49.5186,-112.1748
403,222,403222,Skiff,Alberta,AB,Canada,CA,T0K2B0,-7,-6,1,49.5186,-112.1748
403,223,403223,Taber,Alberta,AB,Canada,CA,T1G1B6,-7,-6,1,49.7912,-112.1514
403,223,403223,Barnwell,Alberta,AB,Canada,CA,T0K0B0,-7,-6,1,49.7912,-112.1514
403,223,403223,Taber,Alberta,AB,Canada,CA,T0K2G0,-7,-6,1,49.7912,-112.1514
403,223,403223,Taber,Alberta,AB,Canada,CA,T1G1J2,-7,-6,1,49.7912,-112.1514
403,223,403223,Taber,Alberta,AB,Canada,CA,T1G1E4,-7,-6,1,49.7912,-112.1514
403,223,403223,Taber,Alberta,AB,Canada,CA,T1G1M3,-7,-6,1,49.7912,-112.1514
403,223,403223,Taber,Alberta,AB,Canada,CA,T1G1A4,-7,-6,1,49.7912,-112.1514
403,223,403223,Taber,Alberta,AB,Canada,CA,T1G1K2,-7,-6,1,49.7912,-112.1514
403,223,403223,Taber,Alberta,AB,Canada,CA,T1G1K1,-7,-6,1,49.7912,-112.1514
403,223,403223,Taber,Alberta,AB,Canada,CA,T1G1E6,-7,-6,1,49.7912,-112.1514
403,223,403223,Taber,Alberta,AB,Canada,CA,T1G1M1,-7,-6,1,49.7912,-112.1514
403,223,403223,Taber,Alberta,AB,Canada,CA,T1G1E8,-7,-6,1,49.7912,-112.1514
403,223,403223,Taber,Alberta,AB,Canada,CA,T1G1A2,-7,-6,1,49.7912,-112.1514
403,223,403223,Taber,Alberta,AB,Canada,CA,T1G1G4,-7,-6,1,49.7912,-112.1514
403,223,403223,Purple Springs,Alberta,AB,Canada,CA,T0K1X0,-7,-6,1,49.7912,-112.1514
403,223,403223,Taber,Alberta,AB,Canada,CA,T1G1B8,-7,-6,1,49.7912,-112.1514
403,223,403223,Taber,Alberta,AB,Canada,CA,T1G1E1,-7,-6,1,49.7912,-112.1514
403,223,403223,Taber,Alberta,AB,Canada,CA,T1G1G6,-7,-6,1,49.7912,-112.1514
403,223,403223,Taber,Alberta,AB,Canada,CA,T1G1G7,-7,-6,1,49.7912,-112.1514
403,223,403223,Taber,Alberta,AB,Canada,CA,T1G1A9,-7,-6,1,49.7912,-112.1514
403,224,403224,Olds,Alberta,AB,Canada,CA,T4H1P2,-7,-6,1,51.9307,-114.0292
403,224,403224,Bowden,Alberta,AB,Canada,CA,T0M0K0,-7,-6,1,51.9307,-114.0292
403,224,403224,Olds,Alberta,AB,Canada,CA,T4H1P7,-7,-6,1,51.9307,-114.0292
403,224,403224,Olds,Alberta,AB,Canada,CA,T4H1P5,-7,-6,1,51.9307,-114.0292
403,224,403224,Innisfail,Alberta,AB,Canada,CA,T4G1T8,-7,-6,1,51.9307,-114.0292
403,224,403224,Innisfail,Alberta,AB,Canada,CA,T4G1T7,-7,-6,1,51.9307,-114.0292
403,224,403224,Bowden,Alberta,AB,Canada,CA,T0M0K,-7,-6,1,51.9307,-114.0292
403,224,403224,Olds,Alberta,AB,Canada,CA,T4H1P6,-7,-6,1,51.9307,-114.0292
403,225,403225,Calgary,Alberta,AB,Canada,CA,T2J7E,-7,-6,1,51.0478,-114.0585
403,225,403225,Calgary,Alberta,AB,Canada,CA,T2J5N8,-7,-6,1,51.0478,-114.0585
403,225,403225,Calgary,Alberta,AB,Canada,CA,T2J5N5,-7,-6,1,51.0478,-114.0585
403,225,403225,Calgary,Alberta,AB,Canada,CA,T2J3P,-7,-6,1,51.0478,-114.0585
403,225,403225,Calgary,Alberta,AB,Canada,CA,T2J3R,-7,-6,1,51.0478,-114.0585
403,225,403225,Calgary,Alberta,AB,Canada,CA,T2W4Y1,-7,-6,1,51.0478,-114.0585
403,225,403225,Calgary,Alberta,AB,Canada,CA,T2J5Y,-7,-6,1,51.0478,-114.0585
403,225,403225,Calgary,Alberta,AB,Canada,CA,T2J3C8,-7,-6,1,51.0478,-114.0585
403,225,403225,Calgary,Alberta,AB,Canada,CA,T2J2S,-7,-6,1,51.0478,-114.0585
403,225,403225,Calgary,Alberta,AB,Canada,CA,T2J6N7,-7,-6,1,51.0478,-114.0585
403,225,403225,Calgary,Alberta,AB,Canada,CA,T2J6S,-7,-6,1,51.0478,-114.0585
403,225,403225,Calgary,Alberta,AB,Canada,CA,T2J5J,-7,-6,1,51.0478,-114.0585
403,225,403225,Calgary,Alberta,AB,Canada,CA,T2J0J7,-7,-6,1,51.0478,-114.0585
403,225,403225,Calgary,Alberta,AB,Canada,CA,T2J3V1,-7,-6,1,51.0478,-114.0585
403,225,403225,Calgary,Alberta,AB,Canada,CA,T2J6P,-7,-6,1,51.0478,-114.0585
403,225,403225,Calgary,Alberta,AB,Canada,CA,T2J3A,-7,-6,1,51.0478,-114.0585
403,225,403225,Calgary,Alberta,AB,Canada,CA,T2J4H,-7,-6,1,51.0478,-114.0585
403,225,403225,Calgary,Alberta,AB,Canada,CA,T2J0N3,-7,-6,1,51.0478,-114.0585
403,225,403225,Calgary,Alberta,AB,Canada,CA,T2J6J2,-7,-6,1,51.0478,-114.0585
403,225,403225,Calgary,Alberta,AB,Canada,CA,T2J5E,-7,-6,1,51.0478,-114.0585
403,226,403226,Calgary,Alberta,AB,Canada,CA,T3K4H4,-7,-6,1,51.0478,-114.0585
403,226,403226,Calgary,Alberta,AB,Canada,CA,T3K4A9,-7,-6,1,51.0478,-114.0585
403,226,403226,Calgary,Alberta,AB,Canada,CA,T3K4J7,-7,-6,1,51.0478,-114.0585
403,226,403226,Calgary,Alberta,AB,Canada,CA,T3K4C2,-7,-6,1,51.0478,-114.0585
403,226,403226,Calgary,Alberta,AB,Canada,CA,T3K4G2,-7,-6,1,51.0478,-114.0585
403,226,403226,Calgary,Alberta,AB,Canada,CA,T3K4E8,-7,-6,1,51.0478,-114.0585
403,226,403226,Calgary,Alberta,AB,Canada,CA,T3K4A5,-7,-6,1,51.0478,-114.0585
403,226,403226,Calgary,Alberta,AB,Canada,CA,T3K4B1,-7,-6,1,51.0478,-114.0585
403,226,403226,Calgary,Alberta,AB,Canada,CA,T3K4J1,-7,-6,1,51.0478,-114.0585
403,226,403226,Balzac,Alberta,AB,Canada,CA,T0M0E0,-7,-6,1,51.0478,-114.0585
403,226,403226,Calgary,Alberta,AB,Canada,CA,T2M4L5,-7,-6,1,51.0478,-114.0585
403,226,403226,Calgary,Alberta,AB,Canada,CA,T3K4C5,-7,-6,1,51.0478,-114.0585
403,226,403226,Calgary,Alberta,AB,Canada,CA,T3K4C7,-7,-6,1,51.0478,-114.0585
403,226,403226,Calgary,Alberta,AB,Canada,CA,T3K4C8,-7,-6,1,51.0478,-114.0585
403,226,403226,Calgary,Alberta,AB,Canada,CA,T3K4A6,-7,-6,1,51.0478,-114.0585
403,226,403226,Calgary,Alberta,AB,Canada,CA,T3K4B9,-7,-6,1,51.0478,-114.0585
403,226,403226,Calgary,Alberta,AB,Canada,CA,T3K4L3,-7,-6,1,51.0478,-114.0585
403,226,403226,Calgary,Alberta,AB,Canada,CA,T3K4G4,-7,-6,1,51.0478,-114.0585
403,226,403226,Calgary,Alberta,AB,Canada,CA,T3K4C1,-7,-6,1,51.0478,-114.0585
403,226,403226,Calgary,Alberta,AB,Canada,CA,T3K4C4,-7,-6,1,51.0478,-114.0585
403,227,403227,Innisfail,Alberta,AB,Canada,CA,T4G1G3,-7,-6,1,52.0211,-113.9229
403,227,403227,Innisfail,Alberta,AB,Canada,CA,T4G1M7,-7,-6,1,52.0211,-113.9229
403,227,403227,Innisfail,Alberta,AB,Canada,CA,T4G1E5,-7,-6,1,52.0211,-113.9229
403,227,403227,Innisfail,Alberta,AB,Canada,CA,T4G1M8,-7,-6,1,52.0211,-113.9229
403,227,403227,Innisfail,Alberta,AB,Canada,CA,T4G1M5,-7,-6,1,52.0211,-113.9229
403,227,403227,Innisfail,Alberta,AB,Canada,CA,T4G1N7,-7,-6,1,52.0211,-113.9229
403,227,403227,Innisfail,Alberta,AB,Canada,CA,T4G1P8,-7,-6,1,52.0211,-113.9229
403,227,403227,Innisfail,Alberta,AB,Canada,CA,T4G1T9,-7,-6,1,52.0211,-113.9229
403,227,403227,Innisfail,Alberta,AB,Canada,CA,T0M1A,-7,-6,1,52.0211,-113.9229
403,227,403227,Innisfail,Alberta,AB,Canada,CA,T4G1J2,-7,-6,1,52.0211,-113.9229
403,227,403227,Innisfail,Alberta,AB,Canada,CA,T4G1R7,-7,-6,1,52.0211,-113.9229
403,227,403227,Innisfail,Alberta,AB,Canada,CA,T4G1H4,-7,-6,1,52.0211,-113.9229
403,227,403227,Innisfail,Alberta,AB,Canada,CA,T4G1K7,-7,-6,1,52.0211,-113.9229
403,227,403227,Innisfail,Alberta,AB,Canada,CA,T4G1H3,-7,-6,1,52.0211,-113.9229
403,227,403227,Innisfail,Alberta,AB,Canada,CA,T4G1K9,-7,-6,1,52.0211,-113.9229
403,227,403227,Innisfail,Alberta,AB,Canada,CA,T4G1S7,-7,-6,1,52.0211,-113.9229
403,227,403227,Innisfail,Alberta,AB,Canada,CA,T4G1T7,-7,-6,1,52.0211,-113.9229
403,227,403227,Innisfail,Alberta,AB,Canada,CA,T4G1T8,-7,-6,1,52.0211,-113.9229
403,227,403227,Innisfail,Alberta,AB,Canada,CA,T4G1H7,-7,-6,1,52.0211,-113.9229
403,227,403227,Innisfail,Alberta,AB,Canada,CA,T4G1E7,-7,-6,1,52.0211,-113.9229
403,228,403228,Calgary,Alberta,AB,Canada,CA,T2R0R5,-7,-6,1,51.0478,-114.0585
403,228,403228,Calgary,Alberta,AB,Canada,CA,T2R0M7,-7,-6,1,51.0478,-114.0585
403,228,403228,Calgary,Alberta,AB,Canada,CA,T2S0L9,-7,-6,1,51.0478,-114.0585
403,228,403228,Calgary,Alberta,AB,Canada,CA,T2S2A8,-7,-6,1,51.0478,-114.0585
403,228,403228,Calgary,Alberta,AB,Canada,CA,T2S0E1,-7,-6,1,51.0478,-114.0585
403,228,403228,Calgary,Alberta,AB,Canada,CA,T2R0P8,-7,-6,1,51.0478,-114.0585
403,228,403228,Calgary,Alberta,AB,Canada,CA,T2S0C9,-7,-6,1,51.0478,-114.0585
403,228,403228,Calgary,Alberta,AB,Canada,CA,T2S0B4,-7,-6,1,51.0478,-114.0585
403,228,403228,Calgary,Alberta,AB,Canada,CA,T2R1H9,-7,-6,1,51.0478,-114.0585
403,228,403228,Calgary,Alberta,AB,Canada,CA,T2S2T3,-7,-6,1,51.0478,-114.0585
403,228,403228,Calgary,Alberta,AB,Canada,CA,T2S2T9,-7,-6,1,51.0478,-114.0585
403,228,403228,Calgary,Alberta,AB,Canada,CA,T2S0M3,-7,-6,1,51.0478,-114.0585
403,228,403228,Calgary,Alberta,AB,Canada,CA,T2S2S7,-7,-6,1,51.0478,-114.0585
403,228,403228,Calgary,Alberta,AB,Canada,CA,T2R0N7,-7,-6,1,51.0478,-114.0585
403,228,403228,Calgary,Alberta,AB,Canada,CA,T2S0K8,-7,-6,1,51.0478,-114.0585
403,228,403228,Calgary,Alberta,AB,Canada,CA,T2R0R8,-7,-6,1,51.0478,-114.0585
403,228,403228,Calgary,Alberta,AB,Canada,CA,T3C3S3,-7,-6,1,51.0478,-114.0585
403,228,403228,Calgary,Alberta,AB,Canada,CA,T2S0A9,-7,-6,1,51.0478,-114.0585
403,228,403228,Calgary,Alberta,AB,Canada,CA,T3C3S1,-7,-6,1,51.0478,-114.0585
403,228,403228,Calgary,Alberta,AB,Canada,CA,T2R0S8,-7,-6,1,51.0478,-114.0585
403,229,403229,Calgary,Alberta,AB,Canada,CA,T3C3S1,-7,-6,1,51.0478,-114.0585
403,229,403229,Calgary,Alberta,AB,Canada,CA,T2R0R5,-7,-6,1,51.0478,-114.0585
403,229,403229,Calgary,Alberta,AB,Canada,CA,T2T4G1,-7,-6,1,51.0478,-114.0585
403,229,403229,Calgary,Alberta,AB,Canada,CA,T2R1M6,-7,-6,1,51.0478,-114.0585
403,229,403229,Calgary,Alberta,AB,Canada,CA,T3C0V9,-7,-6,1,51.0478,-114.0585
403,229,403229,Calgary,Alberta,AB,Canada,CA,T2R0M7,-7,-6,1,51.0478,-114.0585
403,229,403229,Calgary,Alberta,AB,Canada,CA,T2R1N1,-7,-6,1,51.0478,-114.0585
403,229,403229,Calgary,Alberta,AB,Canada,CA,T2R0L7,-7,-6,1,51.0478,-114.0585
403,229,403229,Calgary,Alberta,AB,Canada,CA,T2T4M5,-7,-6,1,51.0478,-114.0585
403,229,403229,Calgary,Alberta,AB,Canada,CA,T2T5C7,-7,-6,1,51.0478,-114.0585
403,229,403229,Calgary,Alberta,AB,Canada,CA,T2R0N7,-7,-6,1,51.0478,-114.0585
403,229,403229,Calgary,Alberta,AB,Canada,CA,T2R0S8,-7,-6,1,51.0478,-114.0585
403,229,403229,Calgary,Alberta,AB,Canada,CA,T3C0T1,-7,-6,1,51.0478,-114.0585
403,229,403229,Calgary,Alberta,AB,Canada,CA,T2R1H9,-7,-6,1,51.0478,-114.0585
403,229,403229,Calgary,Alberta,AB,Canada,CA,T3C3S3,-7,-6,1,51.0478,-114.0585
403,229,403229,Calgary,Alberta,AB,Canada,CA,T3C3S6,-7,-6,1,51.0478,-114.0585
403,229,403229,Calgary,Alberta,AB,Canada,CA,T2R0L5,-7,-6,1,51.0478,-114.0585
403,229,403229,Calgary,Alberta,AB,Canada,CA,T2S2T9,-7,-6,1,51.0478,-114.0585
403,229,403229,Calgary,Alberta,AB,Canada,CA,T2R1M9,-7,-6,1,51.0478,-114.0585
403,229,403229,Calgary,Alberta,AB,Canada,CA,T2S0C5,-7,-6,1,51.0478,-114.0585
403,230,403230,Calgary,Alberta,AB,Canada,CA,T2E0H4,-7,-6,1,51.0478,-114.0585
403,230,403230,Calgary,Alberta,AB,Canada,CA,T2E1L9,-7,-6,1,51.0478,-114.0585
403,230,403230,Calgary,Alberta,AB,Canada,CA,T2E0L7,-7,-6,1,51.0478,-114.0585
403,230,403230,Calgary,Alberta,AB,Canada,CA,T2E6V7,-7,-6,1,51.0478,-114.0585
403,230,403230,Calgary,Alberta,AB,Canada,CA,T2E1J8,-7,-6,1,51.0478,-114.0585
403,230,403230,Calgary,Alberta,AB,Canada,CA,T2E0L8,-7,-6,1,51.0478,-114.0585
403,230,403230,Calgary,Alberta,AB,Canada,CA,T2E0K6,-7,-6,1,51.0478,-114.0585
403,230,403230,Calgary,Alberta,AB,Canada,CA,T2E1L1,-7,-6,1,51.0478,-114.0585
403,230,403230,Calgary,Alberta,AB,Canada,CA,T2E0S6,-7,-6,1,51.0478,-114.0585
403,230,403230,Calgary,Alberta,AB,Canada,CA,T2K6B6,-7,-6,1,51.0478,-114.0585
403,230,403230,Calgary,Alberta,AB,Canada,CA,T2E2W5,-7,-6,1,51.0478,-114.0585
403,230,403230,Calgary,Alberta,AB,Canada,CA,T2E0J3,-7,-6,1,51.0478,-114.0585
403,230,403230,Calgary,Alberta,AB,Canada,CA,T2E6V9,-7,-6,1,51.0478,-114.0585
403,230,403230,Calgary,Alberta,AB,Canada,CA,T2E7X3,-7,-6,1,51.0478,-114.0585
403,230,403230,Calgary,Alberta,AB,Canada,CA,T2K1A2,-7,-6,1,51.0478,-114.0585
403,230,403230,Calgary,Alberta,AB,Canada,CA,T2E0E4,-7,-6,1,51.0478,-114.0585
403,230,403230,Calgary,Alberta,AB,Canada,CA,T2E0J4,-7,-6,1,51.0478,-114.0585
403,230,403230,Calgary,Alberta,AB,Canada,CA,T2E0B2,-7,-6,1,51.0478,-114.0585
403,230,403230,Calgary,Alberta,AB,Canada,CA,T2E0K9,-7,-6,1,51.0478,-114.0585
403,230,403230,Calgary,Alberta,AB,Canada,CA,T2E0E5,-7,-6,1,51.0478,-114.0585
403,231,403231,Calgary,Alberta,AB,Canada,CA,T2P3T6,-7,-6,1,51.0478,-114.0585
403,231,403231,Calgary,Alberta,AB,Canada,CA,T2P3V4,-7,-6,1,51.0478,-114.0585
403,231,403231,Calgary,Alberta,AB,Canada,CA,T2E0B3,-7,-6,1,51.0478,-114.0585
403,231,403231,Calgary,Alberta,AB,Canada,CA,T2G1B3,-7,-6,1,51.0478,-114.0585
403,231,403231,Calgary,Alberta,AB,Canada,CA,T2P2Y3,-7,-6,1,51.0478,-114.0585
403,231,403231,Calgary,Alberta,AB,Canada,CA,T2P3B6,-7,-6,1,51.0478,-114.0585
403,231,403231,Calgary,Alberta,AB,Canada,CA,T2P1G4,-7,-6,1,51.0478,-114.0585
403,231,403231,Calgary,Alberta,AB,Canada,CA,T2P0H3,-7,-6,1,51.0478,-114.0585
403,231,403231,Calgary,Alberta,AB,Canada,CA,T2P3H5,-7,-6,1,51.0478,-114.0585
403,231,403231,Calgary,Alberta,AB,Canada,CA,T2P0T9,-7,-6,1,51.0478,-114.0585
403,231,403231,Calgary,Alberta,AB,Canada,CA,T2P4K9,-7,-6,1,51.0478,-114.0585
403,231,403231,Calgary,Alberta,AB,Canada,CA,T2P3H7,-7,-6,1,51.0478,-114.0585
403,231,403231,Calgary,Alberta,AB,Canada,CA,T2P0K1,-7,-6,1,51.0478,-114.0585
403,231,403231,Calgary,Alberta,AB,Canada,CA,T2G0P3,-7,-6,1,51.0478,-114.0585
403,231,403231,Calgary,Alberta,AB,Canada,CA,T2P2X6,-7,-6,1,51.0478,-114.0585
403,231,403231,Calgary,Alberta,AB,Canada,CA,T2P2M7,-7,-6,1,51.0478,-114.0585
403,231,403231,Calgary,Alberta,AB,Canada,CA,T2P1H5,-7,-6,1,51.0478,-114.0585
403,231,403231,Calgary,Alberta,AB,Canada,CA,T2P3G9,-7,-6,1,51.0478,-114.0585
403,231,403231,Calgary,Alberta,AB,Canada,CA,T2P3C8,-7,-6,1,51.0478,-114.0585
403,231,403231,Calgary,Alberta,AB,Canada,CA,T2P3R5,-7,-6,1,51.0478,-114.0585
403,232,403232,Calgary,Alberta,AB,Canada,CA,T2P0V1,-7,-6,1,51.0478,-114.0585
403,232,403232,Calgary,Alberta,AB,Canada,CA,T2P1H7,-7,-6,1,51.0478,-114.0585
403,232,403232,Calgary,Alberta,AB,Canada,CA,T2G4T5,-7,-6,1,51.0478,-114.0585
403,232,403232,Calgary,Alberta,AB,Canada,CA,T2R0V8,-7,-6,1,51.0478,-114.0585
403,232,403232,Calgary,Alberta,AB,Canada,CA,T2G4Z9,-7,-6,1,51.0478,-114.0585
403,232,403232,Calgary,Alberta,AB,Canada,CA,T2R1J4,-7,-6,1,51.0478,-114.0585
403,232,403232,Calgary,Alberta,AB,Canada,CA,T2P0W7,-7,-6,1,51.0478,-114.0585
403,232,403232,Calgary,Alberta,AB,Canada,CA,T2G5B4,-7,-6,1,51.0478,-114.0585
403,232,403232,Calgary,Alberta,AB,Canada,CA,T2P3C5,-7,-6,1,51.0478,-114.0585
403,232,403232,Calgary,Alberta,AB,Canada,CA,T2P3T1,-7,-6,1,51.0478,-114.0585
403,232,403232,Calgary,Alberta,AB,Canada,CA,T2P4H2,-7,-6,1,51.0478,-114.0585
403,232,403232,Calgary,Alberta,AB,Canada,CA,T2P3G8,-7,-6,1,51.0478,-114.0585
403,232,403232,Calgary,Alberta,AB,Canada,CA,T2P3S8,-7,-6,1,51.0478,-114.0585
403,232,403232,Calgary,Alberta,AB,Canada,CA,T2R1H3,-7,-6,1,51.0478,-114.0585
403,232,403232,Calgary,Alberta,AB,Canada,CA,T2P2B3,-7,-6,1,51.0478,-114.0585
403,232,403232,Calgary,Alberta,AB,Canada,CA,T2P2A6,-7,-6,1,51.0478,-114.0585
403,232,403232,Calgary,Alberta,AB,Canada,CA,T2P3P4,-7,-6,1,51.0478,-114.0585
403,232,403232,Calgary,Alberta,AB,Canada,CA,T2R1K8,-7,-6,1,51.0478,-114.0585
403,232,403232,Calgary,Alberta,AB,Canada,CA,T2P3J4,-7,-6,1,51.0478,-114.0585
403,232,403232,Calgary,Alberta,AB,Canada,CA,T2P0J8,-7,-6,1,51.0478,-114.0585
403,233,403233,Calgary,Alberta,AB,Canada,CA,T2R1K8,-7,-6,1,51.0478,-114.0585
403,233,403233,Calgary,Alberta,AB,Canada,CA,T2G4Z9,-7,-6,1,51.0478,-114.0585
403,233,403233,Calgary,Alberta,AB,Canada,CA,T2P3N2,-7,-6,1,51.0478,-114.0585
403,233,403233,Calgary,Alberta,AB,Canada,CA,T2P0J8,-7,-6,1,51.0478,-114.0585
403,233,403233,Calgary,Alberta,AB,Canada,CA,T2P0N4,-7,-6,1,51.0478,-114.0585
403,233,403233,Calgary,Alberta,AB,Canada,CA,T2R1H3,-7,-6,1,51.0478,-114.0585
403,233,403233,Calgary,Alberta,AB,Canada,CA,T2P0V1,-7,-6,1,51.0478,-114.0585
403,233,403233,Calgary,Alberta,AB,Canada,CA,T2P0Z3,-7,-6,1,51.0478,-114.0585
403,233,403233,Calgary,Alberta,AB,Canada,CA,T2P3N3,-7,-6,1,51.0478,-114.0585
403,233,403233,Calgary,Alberta,AB,Canada,CA,T2P0G7,-7,-6,1,51.0478,-114.0585
403,233,403233,Calgary,Alberta,AB,Canada,CA,T2R0K6,-7,-6,1,51.0478,-114.0585
403,233,403233,Calgary,Alberta,AB,Canada,CA,T2P1A6,-7,-6,1,51.0478,-114.0585
403,233,403233,Calgary,Alberta,AB,Canada,CA,T2G4W8,-7,-6,1,51.0478,-114.0585
403,233,403233,Calgary,Alberta,AB,Canada,CA,T2G5B4,-7,-6,1,51.0478,-114.0585
403,233,403233,Calgary,Alberta,AB,Canada,CA,T2P2A6,-7,-6,1,51.0478,-114.0585
403,233,403233,Calgary,Alberta,AB,Canada,CA,T2P1M3,-7,-6,1,51.0478,-114.0585
403,233,403233,Calgary,Alberta,AB,Canada,CA,T2G4T5,-7,-6,1,51.0478,-114.0585
403,233,403233,Calgary,Alberta,AB,Canada,CA,T2G5G4,-7,-6,1,51.0478,-114.0585
403,233,403233,Calgary,Alberta,AB,Canada,CA,T2P2T9,-7,-6,1,51.0478,-114.0585
403,233,403233,Calgary,Alberta,AB,Canada,CA,T2P1A4,-7,-6,1,51.0478,-114.0585
403,234,403234,Calgary,Alberta,AB,Canada,CA,T2P2T5,-7,-6,1,51.0478,-114.0585
403,234,403234,Calgary,Alberta,AB,Canada,CA,T2P3C6,-7,-6,1,51.0478,-114.0585
403,234,403234,Calgary,Alberta,AB,Canada,CA,T2P0G7,-7,-6,1,51.0478,-114.0585
403,234,403234,Calgary,Alberta,AB,Canada,CA,T2R0A3,-7,-6,1,51.0478,-114.0585
403,234,403234,Calgary,Alberta,AB,Canada,CA,T2R0C3,-7,-6,1,51.0478,-114.0585
403,234,403234,Calgary,Alberta,AB,Canada,CA,T2P3E8,-7,-6,1,51.0478,-114.0585
403,234,403234,Calgary,Alberta,AB,Canada,CA,T2R0M4,-7,-6,1,51.0478,-114.0585
403,234,403234,Calgary,Alberta,AB,Canada,CA,T2P3C8,-7,-6,1,51.0478,-114.0585
403,234,403234,Calgary,Alberta,AB,Canada,CA,T2P4K8,-7,-6,1,51.0478,-114.0585
403,234,403234,Calgary,Alberta,AB,Canada,CA,T2R1H3,-7,-6,1,51.0478,-114.0585
403,234,403234,Calgary,Alberta,AB,Canada,CA,T2P0J8,-7,-6,1,51.0478,-114.0585
403,234,403234,Calgary,Alberta,AB,Canada,CA,T2G4T5,-7,-6,1,51.0478,-114.0585
403,234,403234,Calgary,Alberta,AB,Canada,CA,T2R1K8,-7,-6,1,51.0478,-114.0585
403,234,403234,Calgary,Alberta,AB,Canada,CA,T2P2B3,-7,-6,1,51.0478,-114.0585
403,234,403234,Calgary,Alberta,AB,Canada,CA,T2P2A6,-7,-6,1,51.0478,-114.0585
403,234,403234,Calgary,Alberta,AB,Canada,CA,T2G4Z9,-7,-6,1,51.0478,-114.0585
403,234,403234,Calgary,Alberta,AB,Canada,CA,T2P3G8,-7,-6,1,51.0478,-114.0585
403,234,403234,Calgary,Alberta,AB,Canada,CA,T2P3T6,-7,-6,1,51.0478,-114.0585
403,234,403234,Calgary,Alberta,AB,Canada,CA,T2R0K6,-7,-6,1,51.0478,-114.0585
403,234,403234,Calgary,Alberta,AB,Canada,CA,T2P1A6,-7,-6,1,51.0478,-114.0585
403,235,403235,Calgary,Alberta,AB,Canada,CA,T2A6J4,-7,-6,1,51.0478,-114.0585
403,235,403235,Calgary,Alberta,AB,Canada,CA,T2A0W6,-7,-6,1,51.0478,-114.0585
403,235,403235,Calgary,Alberta,AB,Canada,CA,T2A7E,-7,-6,1,51.0478,-114.0585
403,235,403235,Calgary,Alberta,AB,Canada,CA,T2A6G8,-7,-6,1,51.0478,-114.0585
403,235,403235,Calgary,Alberta,AB,Canada,CA,T2B2K3,-7,-6,1,51.0478,-114.0585
403,235,403235,Calgary,Alberta,AB,Canada,CA,T2A0L6,-7,-6,1,51.0478,-114.0585
403,235,403235,Calgary,Alberta,AB,Canada,CA,T2B3K4,-7,-6,1,51.0478,-114.0585
403,235,403235,Calgary,Alberta,AB,Canada,CA,T2A6E4,-7,-6,1,51.0478,-114.0585
403,235,403235,Calgary,Alberta,AB,Canada,CA,T2A5P7,-7,-6,1,51.0478,-114.0585
403,235,403235,Calgary,Alberta,AB,Canada,CA,T2A0V5,-7,-6,1,51.0478,-114.0585
403,235,403235,Calgary,Alberta,AB,Canada,CA,T2A6E1,-7,-6,1,51.0478,-114.0585
403,235,403235,Calgary,Alberta,AB,Canada,CA,T2B0A3,-7,-6,1,51.0478,-114.0585
403,235,403235,Calgary,Alberta,AB,Canada,CA,T2A0W5,-7,-6,1,51.0478,-114.0585
403,235,403235,Calgary,Alberta,AB,Canada,CA,T2A5H5,-7,-6,1,51.0478,-114.0585
403,235,403235,Calgary,Alberta,AB,Canada,CA,T2A2K2,-7,-6,1,51.0478,-114.0585
403,235,403235,Calgary,Alberta,AB,Canada,CA,T2A0P9,-7,-6,1,51.0478,-114.0585
403,235,403235,Calgary,Alberta,AB,Canada,CA,T2A5Z7,-7,-6,1,51.0478,-114.0585
403,235,403235,Calgary,Alberta,AB,Canada,CA,T2A5Z8,-7,-6,1,51.0478,-114.0585
403,235,403235,Calgary,Alberta,AB,Canada,CA,T2A5M,-7,-6,1,51.0478,-114.0585
403,235,403235,Calgary,Alberta,AB,Canada,CA,T2B2N5,-7,-6,1,51.0478,-114.0585
403,236,403236,Calgary,Alberta,AB,Canada,CA,T2C3Z6,-7,-6,1,51.0478,-114.0585
403,236,403236,Calgary,Alberta,AB,Canada,CA,T2C2G,-7,-6,1,51.0478,-114.0585
403,236,403236,Calgary,Alberta,AB,Canada,CA,T2C3M7,-7,-6,1,51.0478,-114.0585
403,236,403236,Calgary,Alberta,AB,Canada,CA,T2C4E4,-7,-6,1,51.0478,-114.0585
403,236,403236,Calgary,Alberta,AB,Canada,CA,T2C4A8,-7,-6,1,51.0478,-114.0585
403,236,403236,Calgary,Alberta,AB,Canada,CA,T2Z2K6,-7,-6,1,51.0478,-114.0585
403,236,403236,Calgary,Alberta,AB,Canada,CA,T2Z2K,-7,-6,1,51.0478,-114.0585
403,236,403236,Calgary,Alberta,AB,Canada,CA,T2C1H6,-7,-6,1,51.0478,-114.0585
403,236,403236,Calgary,Alberta,AB,Canada,CA,T2C1X7,-7,-6,1,51.0478,-114.0585
403,236,403236,Calgary,Alberta,AB,Canada,CA,T2C2H4,-7,-6,1,51.0478,-114.0585
403,236,403236,Calgary,Alberta,AB,Canada,CA,T2P2G6,-7,-6,1,51.0478,-114.0585
403,236,403236,Calgary,Alberta,AB,Canada,CA,T2Z2H,-7,-6,1,51.0478,-114.0585
403,236,403236,Calgary,Alberta,AB,Canada,CA,T2C3Z1,-7,-6,1,51.0478,-114.0585
403,236,403236,Calgary,Alberta,AB,Canada,CA,T2Z2A,-7,-6,1,51.0478,-114.0585
403,236,403236,Calgary,Alberta,AB,Canada,CA,T2Z2M,-7,-6,1,51.0478,-114.0585
403,236,403236,Calgary,Alberta,AB,Canada,CA,T2C1H5,-7,-6,1,51.0478,-114.0585
403,236,403236,Calgary,Alberta,AB,Canada,CA,T2Z2M8,-7,-6,1,51.0478,-114.0585
403,236,403236,Calgary,Alberta,AB,Canada,CA,T2C4H8,-7,-6,1,51.0478,-114.0585
403,236,403236,Calgary,Alberta,AB,Canada,CA,T2Z2E,-7,-6,1,51.0478,-114.0585
403,236,403236,Calgary,Alberta,AB,Canada,CA,T2Z2M9,-7,-6,1,51.0478,-114.0585
403,237,403237,Calgary,Alberta,AB,Canada,CA,T2G0E4,-7,-6,1,51.0478,-114.0585
403,237,403237,Calgary,Alberta,AB,Canada,CA,T2P3R7,-7,-6,1,51.0478,-114.0585
403,237,403237,Calgary,Alberta,AB,Canada,CA,T2P0G7,-7,-6,1,51.0478,-114.0585
403,237,403237,Calgary,Alberta,AB,Canada,CA,T2P4K8,-7,-6,1,51.0478,-114.0585
403,237,403237,Calgary,Alberta,AB,Canada,CA,T2P2A6,-7,-6,1,51.0478,-114.0585
403,237,403237,Calgary,Alberta,AB,Canada,CA,T2G4W8,-7,-6,1,51.0478,-114.0585
403,237,403237,Calgary,Alberta,AB,Canada,CA,T2R1M1,-7,-6,1,51.0478,-114.0585
403,237,403237,Calgary,Alberta,AB,Canada,CA,T2R1K8,-7,-6,1,51.0478,-114.0585
403,237,403237,Calgary,Alberta,AB,Canada,CA,T2G4T5,-7,-6,1,51.0478,-114.0585
403,237,403237,Calgary,Alberta,AB,Canada,CA,T2P0J8,-7,-6,1,51.0478,-114.0585
403,237,403237,Calgary,Alberta,AB,Canada,CA,T2P4H2,-7,-6,1,51.0478,-114.0585
403,237,403237,Calgary,Alberta,AB,Canada,CA,T2P3G8,-7,-6,1,51.0478,-114.0585
403,237,403237,Calgary,Alberta,AB,Canada,CA,T2P2B3,-7,-6,1,51.0478,-114.0585
403,237,403237,Calgary,Alberta,AB,Canada,CA,T2P1A6,-7,-6,1,51.0478,-114.0585
403,237,403237,Calgary,Alberta,AB,Canada,CA,T2G4Z9,-7,-6,1,51.0478,-114.0585
403,237,403237,Calgary,Alberta,AB,Canada,CA,T2P4J8,-7,-6,1,51.0478,-114.0585
403,237,403237,Calgary,Alberta,AB,Canada,CA,T2R0K6,-7,-6,1,51.0478,-114.0585
403,237,403237,Calgary,Alberta,AB,Canada,CA,T2P2Y3,-7,-6,1,51.0478,-114.0585
403,237,403237,Calgary,Alberta,AB,Canada,CA,T2G4W4,-7,-6,1,51.0478,-114.0585
403,237,403237,Calgary,Alberta,AB,Canada,CA,T2P3H7,-7,-6,1,51.0478,-114.0585
403,238,403238,Calgary,Alberta,AB,Canada,CA,T2W3C1,-7,-6,1,51.0478,-114.0585
403,238,403238,Calgary,Alberta,AB,Canada,CA,T2V3S,-7,-6,1,51.0478,-114.0585
403,238,403238,Calgary,Alberta,AB,Canada,CA,T2W4B1,-7,-6,1,51.0478,-114.0585
403,238,403238,Calgary,Alberta,AB,Canada,CA,T2V0K6,-7,-6,1,51.0478,-114.0585
403,238,403238,Calgary,Alberta,AB,Canada,CA,T2V4T,-7,-6,1,51.0478,-114.0585
403,238,403238,Calgary,Alberta,AB,Canada,CA,T2V1R3,-7,-6,1,51.0478,-114.0585
403,238,403238,Calgary,Alberta,AB,Canada,CA,T2W4Z4,-7,-6,1,51.0478,-114.0585
403,238,403238,Calgary,Alberta,AB,Canada,CA,T2W3E7,-7,-6,1,51.0478,-114.0585
403,238,403238,Calgary,Alberta,AB,Canada,CA,T2V5J8,-7,-6,1,51.0478,-114.0585
403,238,403238,Calgary,Alberta,AB,Canada,CA,T2V4N,-7,-6,1,51.0478,-114.0585
403,238,403238,Calgary,Alberta,AB,Canada,CA,T2W1H,-7,-6,1,51.0478,-114.0585
403,238,403238,Calgary,Alberta,AB,Canada,CA,T2V1S5,-7,-6,1,51.0478,-114.0585
403,238,403238,Calgary,Alberta,AB,Canada,CA,T2W3E,-7,-6,1,51.0478,-114.0585
403,238,403238,Calgary,Alberta,AB,Canada,CA,T2V4W,-7,-6,1,51.0478,-114.0585
403,238,403238,Calgary,Alberta,AB,Canada,CA,T2V4S,-7,-6,1,51.0478,-114.0585
403,238,403238,Calgary,Alberta,AB,Canada,CA,T2V0X6,-7,-6,1,51.0478,-114.0585
403,238,403238,Calgary,Alberta,AB,Canada,CA,T2W5H1,-7,-6,1,51.0478,-114.0585
403,238,403238,Calgary,Alberta,AB,Canada,CA,T2W3N,-7,-6,1,51.0478,-114.0585
403,238,403238,Calgary,Alberta,AB,Canada,CA,T2W2S,-7,-6,1,51.0478,-114.0585
403,238,403238,Calgary,Alberta,AB,Canada,CA,T2V0X5,-7,-6,1,51.0478,-114.0585
403,239,403239,Calgary,Alberta,AB,Canada,CA,T3A2H9,-7,-6,1,51.0478,-114.0585
403,239,403239,Calgary,Alberta,AB,Canada,CA,T3G1Y9,-7,-6,1,51.0478,-114.0585
403,239,403239,Calgary,Alberta,AB,Canada,CA,T3G1V5,-7,-6,1,51.0478,-114.0585
403,239,403239,Calgary,Alberta,AB,Canada,CA,T3L1B6,-7,-6,1,51.0478,-114.0585
403,239,403239,Calgary,Alberta,AB,Canada,CA,T3G3M9,-7,-6,1,51.0478,-114.0585
403,239,403239,Calgary,Alberta,AB,Canada,CA,T3G1E2,-7,-6,1,51.0478,-114.0585
403,239,403239,Calgary,Alberta,AB,Canada,CA,T3G1W6,-7,-6,1,51.0478,-114.0585
403,239,403239,Calgary,Alberta,AB,Canada,CA,T3L1T8,-7,-6,1,51.0478,-114.0585
403,239,403239,Calgary,Alberta,AB,Canada,CA,T3G3W,-7,-6,1,51.0478,-114.0585
403,239,403239,Calgary,Alberta,AB,Canada,CA,T3G1Y,-7,-6,1,51.0478,-114.0585
403,239,403239,Calgary,Alberta,AB,Canada,CA,T2M4L4,-7,-6,1,51.0478,-114.0585
403,239,403239,Calgary,Alberta,AB,Canada,CA,T3A2M,-7,-6,1,51.0478,-114.0585
403,239,403239,Calgary,Alberta,AB,Canada,CA,T3G2Z,-7,-6,1,51.0478,-114.0585
403,239,403239,Calgary,Alberta,AB,Canada,CA,T3A2Y3,-7,-6,1,51.0478,-114.0585
403,239,403239,Calgary,Alberta,AB,Canada,CA,T3G1L4,-7,-6,1,51.0478,-114.0585
403,239,403239,Calgary,Alberta,AB,Canada,CA,T3A2R4,-7,-6,1,51.0478,-114.0585
403,239,403239,Calgary,Alberta,AB,Canada,CA,T3G1P,-7,-6,1,51.0478,-114.0585
403,239,403239,Calgary,Alberta,AB,Canada,CA,T3G1R,-7,-6,1,51.0478,-114.0585
403,239,403239,Calgary,Alberta,AB,Canada,CA,T3A2J1,-7,-6,1,51.0478,-114.0585
403,239,403239,Calgary,Alberta,AB,Canada,CA,T3G1Z3,-7,-6,1,51.0478,-114.0585
403,240,403240,Calgary,Alberta,AB,Canada,CA,T3H1E,-7,-6,1,51.0478,-114.0585
403,240,403240,Calgary,Alberta,AB,Canada,CA,T3E2J6,-7,-6,1,51.0478,-114.0585
403,240,403240,Calgary,Alberta,AB,Canada,CA,T3E4T6,-7,-6,1,51.0478,-114.0585
403,240,403240,Calgary,Alberta,AB,Canada,CA,T3E6N3,-7,-6,1,51.0478,-114.0585
403,240,403240,Calgary,Alberta,AB,Canada,CA,T3C0E7,-7,-6,1,51.0478,-114.0585
403,240,403240,Calgary,Alberta,AB,Canada,CA,T3E6M7,-7,-6,1,51.0478,-114.0585
403,240,403240,Calgary,Alberta,AB,Canada,CA,T3E1T9,-7,-6,1,51.0478,-114.0585
403,240,403240,Calgary,Alberta,AB,Canada,CA,T3H2V,-7,-6,1,51.0478,-114.0585
403,240,403240,Calgary,Alberta,AB,Canada,CA,T3C1S2,-7,-6,1,51.0478,-114.0585
403,240,403240,Calgary,Alberta,AB,Canada,CA,T3H2H4,-7,-6,1,51.0478,-114.0585
403,240,403240,Calgary,Alberta,AB,Canada,CA,T3E7B9,-7,-6,1,51.0478,-114.0585
403,240,403240,Calgary,Alberta,AB,Canada,CA,T3E1E5,-7,-6,1,51.0478,-114.0585
403,240,403240,Calgary,Alberta,AB,Canada,CA,T3E6S9,-7,-6,1,51.0478,-114.0585
403,240,403240,Calgary,Alberta,AB,Canada,CA,T3E2P8,-7,-6,1,51.0478,-114.0585
403,240,403240,Calgary,Alberta,AB,Canada,CA,T3E3H4,-7,-6,1,51.0478,-114.0585
403,240,403240,Calgary,Alberta,AB,Canada,CA,T3H3G,-7,-6,1,51.0478,-114.0585
403,240,403240,Calgary,Alberta,AB,Canada,CA,T3C2Y,-7,-6,1,51.0478,-114.0585
403,240,403240,Calgary,Alberta,AB,Canada,CA,T3H3B,-7,-6,1,51.0478,-114.0585
403,240,403240,Calgary,Alberta,AB,Canada,CA,T3E7B3,-7,-6,1,51.0478,-114.0585
403,240,403240,Calgary,Alberta,AB,Canada,CA,T3E6V2,-7,-6,1,51.0478,-114.0585
403,241,403241,Calgary,Alberta,AB,Canada,CA,T3G3W,-7,-6,1,51.0478,-114.0585
403,241,403241,Calgary,Alberta,AB,Canada,CA,T3A5A3,-7,-6,1,51.0478,-114.0585
403,241,403241,Calgary,Alberta,AB,Canada,CA,T3L1W1,-7,-6,1,51.0478,-114.0585
403,241,403241,Calgary,Alberta,AB,Canada,CA,T3L1W6,-7,-6,1,51.0478,-114.0585
403,241,403241,Calgary,Alberta,AB,Canada,CA,T3G3M8,-7,-6,1,51.0478,-114.0585
403,241,403241,Calgary,Alberta,AB,Canada,CA,T3L1Y4,-7,-6,1,51.0478,-114.0585
403,241,403241,Calgary,Alberta,AB,Canada,CA,T3G4C9,-7,-6,1,51.0478,-114.0585
403,241,403241,Calgary,Alberta,AB,Canada,CA,T3G3N6,-7,-6,1,51.0478,-114.0585
403,241,403241,Calgary,Alberta,AB,Canada,CA,T3G3K2,-7,-6,1,51.0478,-114.0585
403,241,403241,Calgary,Alberta,AB,Canada,CA,T3G1L4,-7,-6,1,51.0478,-114.0585
403,241,403241,Calgary,Alberta,AB,Canada,CA,T3G3X6,-7,-6,1,51.0478,-114.0585
403,241,403241,Calgary,Alberta,AB,Canada,CA,T3G3M9,-7,-6,1,51.0478,-114.0585
403,241,403241,Calgary,Alberta,AB,Canada,CA,T3G2A7,-7,-6,1,51.0478,-114.0585
403,241,403241,Calgary,Alberta,AB,Canada,CA,T3G3T2,-7,-6,1,51.0478,-114.0585
403,241,403241,Calgary,Alberta,AB,Canada,CA,T3G1P,-7,-6,1,51.0478,-114.0585
403,241,403241,Calgary,Alberta,AB,Canada,CA,T3L1T6,-7,-6,1,51.0478,-114.0585
403,241,403241,Calgary,Alberta,AB,Canada,CA,T3G1Y,-7,-6,1,51.0478,-114.0585
403,241,403241,Calgary,Alberta,AB,Canada,CA,T3G1R,-7,-6,1,51.0478,-114.0585
403,241,403241,Calgary,Alberta,AB,Canada,CA,T3L1X4,-7,-6,1,51.0478,-114.0585
403,241,403241,Calgary,Alberta,AB,Canada,CA,T3G3J4,-7,-6,1,51.0478,-114.0585
403,242,403242,Calgary,Alberta,AB,Canada,CA,T3E6N5,-7,-6,1,51.0478,-114.0585
403,242,403242,Calgary,Alberta,AB,Canada,CA,T3E6T4,-7,-6,1,51.0478,-114.0585
403,242,403242,Calgary,Alberta,AB,Canada,CA,T2P2G4,-7,-6,1,51.0478,-114.0585
403,242,403242,Calgary,Alberta,AB,Canada,CA,T3H1W,-7,-6,1,51.0478,-114.0585
403,242,403242,Calgary,Alberta,AB,Canada,CA,T3E3C4,-7,-6,1,51.0478,-114.0585
403,242,403242,Calgary,Alberta,AB,Canada,CA,T3H1B,-7,-6,1,51.0478,-114.0585
403,242,403242,Calgary,Alberta,AB,Canada,CA,T3H1E,-7,-6,1,51.0478,-114.0585
403,242,403242,Calgary,Alberta,AB,Canada,CA,T3E2P8,-7,-6,1,51.0478,-114.0585
403,242,403242,Calgary,Alberta,AB,Canada,CA,T3E6S4,-7,-6,1,51.0478,-114.0585
403,242,403242,Calgary,Alberta,AB,Canada,CA,T3E6V,-7,-6,1,51.0478,-114.0585
403,242,403242,Calgary,Alberta,AB,Canada,CA,T3E6W3,-7,-6,1,51.0478,-114.0585
403,242,403242,Calgary,Alberta,AB,Canada,CA,T3E6S9,-7,-6,1,51.0478,-114.0585
403,242,403242,Calgary,Alberta,AB,Canada,CA,T3E6N3,-7,-6,1,51.0478,-114.0585
403,242,403242,Calgary,Alberta,AB,Canada,CA,T3C1S2,-7,-6,1,51.0478,-114.0585
403,242,403242,Calgary,Alberta,AB,Canada,CA,T3E6M5,-7,-6,1,51.0478,-114.0585
403,242,403242,Calgary,Alberta,AB,Canada,CA,T3C2Y,-7,-6,1,51.0478,-114.0585
403,242,403242,Calgary,Alberta,AB,Canada,CA,T3E1E5,-7,-6,1,51.0478,-114.0585
403,242,403242,Calgary,Alberta,AB,Canada,CA,T3C3T,-7,-6,1,51.0478,-114.0585
403,242,403242,Calgary,Alberta,AB,Canada,CA,T3E4N,-7,-6,1,51.0478,-114.0585
403,242,403242,Calgary,Alberta,AB,Canada,CA,T2P2G5,-7,-6,1,51.0478,-114.0585
403,243,403243,Calgary,Alberta,AB,Canada,CA,T2G4C9,-7,-6,1,51.0478,-114.0585
403,243,403243,Calgary,Alberta,AB,Canada,CA,T2G2L2,-7,-6,1,51.0478,-114.0585
403,243,403243,Calgary,Alberta,AB,Canada,CA,T2T2J3,-7,-6,1,51.0478,-114.0585
403,243,403243,Calgary,Alberta,AB,Canada,CA,T2S2T1,-7,-6,1,51.0478,-114.0585
403,243,403243,Calgary,Alberta,AB,Canada,CA,T2G4C8,-7,-6,1,51.0478,-114.0585
403,243,403243,Calgary,Alberta,AB,Canada,CA,T2S1R5,-7,-6,1,51.0478,-114.0585
403,243,403243,Calgary,Alberta,AB,Canada,CA,T2G4X4,-7,-6,1,51.0478,-114.0585
403,243,403243,Calgary,Alberta,AB,Canada,CA,T2T4H4,-7,-6,1,51.0478,-114.0585
403,243,403243,Calgary,Alberta,AB,Canada,CA,T2S2R6,-7,-6,1,51.0478,-114.0585
403,243,403243,Calgary,Alberta,AB,Canada,CA,T2S1Z,-7,-6,1,51.0478,-114.0585
403,243,403243,Calgary,Alberta,AB,Canada,CA,T2G4B7,-7,-6,1,51.0478,-114.0585
403,243,403243,Calgary,Alberta,AB,Canada,CA,T2G4A7,-7,-6,1,51.0478,-114.0585
403,243,403243,Calgary,Alberta,AB,Canada,CA,T2G2L3,-7,-6,1,51.0478,-114.0585
403,243,403243,Calgary,Alberta,AB,Canada,CA,T3E5G1,-7,-6,1,51.0478,-114.0585
403,243,403243,Calgary,Alberta,AB,Canada,CA,T3E1N5,-7,-6,1,51.0478,-114.0585
403,243,403243,Calgary,Alberta,AB,Canada,CA,T3E1L6,-7,-6,1,51.0478,-114.0585
403,243,403243,Calgary,Alberta,AB,Canada,CA,T2S1J4,-7,-6,1,51.0478,-114.0585
403,243,403243,Calgary,Alberta,AB,Canada,CA,T2G2A5,-7,-6,1,51.0478,-114.0585
403,243,403243,Calgary,Alberta,AB,Canada,CA,T2S0R6,-7,-6,1,51.0478,-114.0585
403,243,403243,Calgary,Alberta,AB,Canada,CA,T2G2A7,-7,-6,1,51.0478,-114.0585
403,244,403244,Calgary,Alberta,AB,Canada,CA,T2R0S8,-7,-6,1,51.0478,-114.0585
403,244,403244,Calgary,Alberta,AB,Canada,CA,T2T3P5,-7,-6,1,51.0478,-114.0585
403,244,403244,Calgary,Alberta,AB,Canada,CA,T2T4M9,-7,-6,1,51.0478,-114.0585
403,244,403244,Calgary,Alberta,AB,Canada,CA,T3C0R6,-7,-6,1,51.0478,-114.0585
403,244,403244,Calgary,Alberta,AB,Canada,CA,T2R0R1,-7,-6,1,51.0478,-114.0585
403,244,403244,Calgary,Alberta,AB,Canada,CA,T2T0H8,-7,-6,1,51.0478,-114.0585
403,244,403244,Calgary,Alberta,AB,Canada,CA,T2T0K,-7,-6,1,51.0478,-114.0585
403,244,403244,Calgary,Alberta,AB,Canada,CA,T3C3S3,-7,-6,1,51.0478,-114.0585
403,244,403244,Calgary,Alberta,AB,Canada,CA,T2R0N7,-7,-6,1,51.0478,-114.0585
403,244,403244,Calgary,Alberta,AB,Canada,CA,T2R0P1,-7,-6,1,51.0478,-114.0585
403,244,403244,Calgary,Alberta,AB,Canada,CA,T2R1K5,-7,-6,1,51.0478,-114.0585
403,244,403244,Calgary,Alberta,AB,Canada,CA,T2R0L5,-7,-6,1,51.0478,-114.0585
403,244,403244,Calgary,Alberta,AB,Canada,CA,T3C3S6,-7,-6,1,51.0478,-114.0585
403,244,403244,Calgary,Alberta,AB,Canada,CA,T2R0J5,-7,-6,1,51.0478,-114.0585
403,244,403244,Calgary,Alberta,AB,Canada,CA,T3C0X8,-7,-6,1,51.0478,-114.0585
403,244,403244,Calgary,Alberta,AB,Canada,CA,T2T0L4,-7,-6,1,51.0478,-114.0585
403,244,403244,Calgary,Alberta,AB,Canada,CA,T2R1N1,-7,-6,1,51.0478,-114.0585
403,244,403244,Calgary,Alberta,AB,Canada,CA,T3C0V9,-7,-6,1,51.0478,-114.0585
403,244,403244,Calgary,Alberta,AB,Canada,CA,T2R0S4,-7,-6,1,51.0478,-114.0585
403,244,403244,Calgary,Alberta,AB,Canada,CA,T2S0K9,-7,-6,1,51.0478,-114.0585
403,245,403245,Calgary,Alberta,AB,Canada,CA,T3C3S3,-7,-6,1,51.0478,-114.0585
403,245,403245,Calgary,Alberta,AB,Canada,CA,T3C0M5,-7,-6,1,51.0478,-114.0585
403,245,403245,Calgary,Alberta,AB,Canada,CA,T2R0P1,-7,-6,1,51.0478,-114.0585
403,245,403245,Calgary,Alberta,AB,Canada,CA,T3C0X5,-7,-6,1,51.0478,-114.0585
403,245,403245,Calgary,Alberta,AB,Canada,CA,T2R0R4,-7,-6,1,51.0478,-114.0585
403,245,403245,Calgary,Alberta,AB,Canada,CA,T2S0C6,-7,-6,1,51.0478,-114.0585
403,245,403245,Calgary,Alberta,AB,Canada,CA,T2R1K5,-7,-6,1,51.0478,-114.0585
403,245,403245,Calgary,Alberta,AB,Canada,CA,T3C0T1,-7,-6,1,51.0478,-114.0585
403,245,403245,Calgary,Alberta,AB,Canada,CA,T3C0V9,-7,-6,1,51.0478,-114.0585
403,245,403245,Calgary,Alberta,AB,Canada,CA,T3C3S6,-7,-6,1,51.0478,-114.0585
403,245,403245,Calgary,Alberta,AB,Canada,CA,T2R0N7,-7,-6,1,51.0478,-114.0585
403,245,403245,Calgary,Alberta,AB,Canada,CA,T2R1M9,-7,-6,1,51.0478,-114.0585
403,245,403245,Calgary,Alberta,AB,Canada,CA,T3C0X7,-7,-6,1,51.0478,-114.0585
403,245,403245,Calgary,Alberta,AB,Canada,CA,T3C0K1,-7,-6,1,51.0478,-114.0585
403,245,403245,Calgary,Alberta,AB,Canada,CA,T2R0L5,-7,-6,1,51.0478,-114.0585
403,245,403245,Calgary,Alberta,AB,Canada,CA,T3C0X8,-7,-6,1,51.0478,-114.0585
403,245,403245,Calgary,Alberta,AB,Canada,CA,T2T0K,-7,-6,1,51.0478,-114.0585
403,245,403245,Calgary,Alberta,AB,Canada,CA,T2R0S4,-7,-6,1,51.0478,-114.0585
403,245,403245,Calgary,Alberta,AB,Canada,CA,T2R1J5,-7,-6,1,51.0478,-114.0585
403,245,403245,Calgary,Alberta,AB,Canada,CA,T2T0A3,-7,-6,1,51.0478,-114.0585
403,246,403246,Calgary,Alberta,AB,Canada,CA,T3E3H4,-7,-6,1,51.0478,-114.0585
403,246,403246,Calgary,Alberta,AB,Canada,CA,T3C0E7,-7,-6,1,51.0478,-114.0585
403,246,403246,Calgary,Alberta,AB,Canada,CA,T3E6R1,-7,-6,1,51.0478,-114.0585
403,246,403246,Calgary,Alberta,AB,Canada,CA,T3E0A7,-7,-6,1,51.0478,-114.0585
403,246,403246,Calgary,Alberta,AB,Canada,CA,T3E6W2,-7,-6,1,51.0478,-114.0585
403,246,403246,Calgary,Alberta,AB,Canada,CA,T3C2Z,-7,-6,1,51.0478,-114.0585
403,246,403246,Calgary,Alberta,AB,Canada,CA,T3E6T3,-7,-6,1,51.0478,-114.0585
403,246,403246,Calgary,Alberta,AB,Canada,CA,T3E6M7,-7,-6,1,51.0478,-114.0585
403,246,403246,Calgary,Alberta,AB,Canada,CA,T3C2Y,-7,-6,1,51.0478,-114.0585
403,246,403246,Calgary,Alberta,AB,Canada,CA,T3E6N5,-7,-6,1,51.0478,-114.0585
403,246,403246,Calgary,Alberta,AB,Canada,CA,T3E6S9,-7,-6,1,51.0478,-114.0585
403,246,403246,Calgary,Alberta,AB,Canada,CA,T3E5K8,-7,-6,1,51.0478,-114.0585
403,246,403246,Calgary,Alberta,AB,Canada,CA,T3E1J5,-7,-6,1,51.0478,-114.0585
403,246,403246,Calgary,Alberta,AB,Canada,CA,T3C3T6,-7,-6,1,51.0478,-114.0585
403,246,403246,Calgary,Alberta,AB,Canada,CA,T3H1E,-7,-6,1,51.0478,-114.0585
403,246,403246,Calgary,Alberta,AB,Canada,CA,T3E6N3,-7,-6,1,51.0478,-114.0585
403,246,403246,Calgary,Alberta,AB,Canada,CA,T3E6T4,-7,-6,1,51.0478,-114.0585
403,246,403246,Calgary,Alberta,AB,Canada,CA,T3E6W3,-7,-6,1,51.0478,-114.0585
403,246,403246,Calgary,Alberta,AB,Canada,CA,T3E1E5,-7,-6,1,51.0478,-114.0585
403,246,403246,Calgary,Alberta,AB,Canada,CA,T3E4N,-7,-6,1,51.0478,-114.0585
403,247,403247,Calgary,Alberta,AB,Canada,CA,T3A0E2,-7,-6,1,51.0478,-114.0585
403,247,403247,Calgary,Alberta,AB,Canada,CA,T3A0Z,-7,-6,1,51.0478,-114.0585
403,247,403247,Calgary,Alberta,AB,Canada,CA,T3A2H4,-7,-6,1,51.0478,-114.0585
403,247,403247,Calgary,Alberta,AB,Canada,CA,T3B2M3,-7,-6,1,51.0478,-114.0585
403,247,403247,Calgary,Alberta,AB,Canada,CA,T3A2V,-7,-6,1,51.0478,-114.0585
403,247,403247,Calgary,Alberta,AB,Canada,CA,T3B4R6,-7,-6,1,51.0478,-114.0585
403,247,403247,Calgary,Alberta,AB,Canada,CA,T3B2B9,-7,-6,1,51.0478,-114.0585
403,247,403247,Calgary,Alberta,AB,Canada,CA,T3B5E6,-7,-6,1,51.0478,-114.0585
403,247,403247,Calgary,Alberta,AB,Canada,CA,T3B5G,-7,-6,1,51.0478,-114.0585
403,247,403247,Calgary,Alberta,AB,Canada,CA,T3A2E3,-7,-6,1,51.0478,-114.0585
403,247,403247,Calgary,Alberta,AB,Canada,CA,T3B3X2,-7,-6,1,51.0478,-114.0585
403,247,403247,Calgary,Alberta,AB,Canada,CA,T3B5H,-7,-6,1,51.0478,-114.0585
403,247,403247,Calgary,Alberta,AB,Canada,CA,T3A2E4,-7,-6,1,51.0478,-114.0585
403,247,403247,Calgary,Alberta,AB,Canada,CA,T3A3H,-7,-6,1,51.0478,-114.0585
403,247,403247,Calgary,Alberta,AB,Canada,CA,T3A2E,-7,-6,1,51.0478,-114.0585
403,247,403247,Calgary,Alberta,AB,Canada,CA,T3A2N1,-7,-6,1,51.0478,-114.0585
403,247,403247,Calgary,Alberta,AB,Canada,CA,T2L2J8,-7,-6,1,51.0478,-114.0585
403,247,403247,Calgary,Alberta,AB,Canada,CA,T3B4N,-7,-6,1,51.0478,-114.0585
403,247,403247,Calgary,Alberta,AB,Canada,CA,T3A2C9,-7,-6,1,51.0478,-114.0585
403,247,403247,Calgary,Alberta,AB,Canada,CA,T3A2M9,-7,-6,1,51.0478,-114.0585
403,248,403248,Calgary,Alberta,AB,Canada,CA,T2A0W5,-7,-6,1,51.0478,-114.0585
403,248,403248,Calgary,Alberta,AB,Canada,CA,T2A5Z7,-7,-6,1,51.0478,-114.0585
403,248,403248,Calgary,Alberta,AB,Canada,CA,T2A3N2,-7,-6,1,51.0478,-114.0585
403,248,403248,Calgary,Alberta,AB,Canada,CA,T2A6E4,-7,-6,1,51.0478,-114.0585
403,248,403248,Calgary,Alberta,AB,Canada,CA,T2A6R9,-7,-6,1,51.0478,-114.0585
403,248,403248,Calgary,Alberta,AB,Canada,CA,T2A5M,-7,-6,1,51.0478,-114.0585
403,248,403248,Calgary,Alberta,AB,Canada,CA,T2A3E7,-7,-6,1,51.0478,-114.0585
403,248,403248,Calgary,Alberta,AB,Canada,CA,T2A0A8,-7,-6,1,51.0478,-114.0585
403,248,403248,Calgary,Alberta,AB,Canada,CA,T2A6L7,-7,-6,1,51.0478,-114.0585
403,248,403248,Calgary,Alberta,AB,Canada,CA,T2A5K,-7,-6,1,51.0478,-114.0585
403,248,403248,Calgary,Alberta,AB,Canada,CA,T2A7E,-7,-6,1,51.0478,-114.0585
403,248,403248,Calgary,Alberta,AB,Canada,CA,T2B2W,-7,-6,1,51.0478,-114.0585
403,248,403248,Calgary,Alberta,AB,Canada,CA,T2A2K2,-7,-6,1,51.0478,-114.0585
403,248,403248,Calgary,Alberta,AB,Canada,CA,T2A0W6,-7,-6,1,51.0478,-114.0585
403,248,403248,Calgary,Alberta,AB,Canada,CA,T2B0A3,-7,-6,1,51.0478,-114.0585
403,248,403248,Calgary,Alberta,AB,Canada,CA,T2B2N5,-7,-6,1,51.0478,-114.0585
403,248,403248,Calgary,Alberta,AB,Canada,CA,T2B1Y9,-7,-6,1,51.0478,-114.0585
403,248,403248,Calgary,Alberta,AB,Canada,CA,T2A5Z8,-7,-6,1,51.0478,-114.0585
403,248,403248,Calgary,Alberta,AB,Canada,CA,T2A5J8,-7,-6,1,51.0478,-114.0585
403,248,403248,Calgary,Alberta,AB,Canada,CA,T2A5P7,-7,-6,1,51.0478,-114.0585
403,249,403249,Calgary,Alberta,AB,Canada,CA,T3E4N,-7,-6,1,51.0478,-114.0585
403,249,403249,Calgary,Alberta,AB,Canada,CA,T3E6N4,-7,-6,1,51.0478,-114.0585
403,249,403249,Calgary,Alberta,AB,Canada,CA,T3E6N5,-7,-6,1,51.0478,-114.0585
403,249,403249,Calgary,Alberta,AB,Canada,CA,T3E6S2,-7,-6,1,51.0478,-114.0585
403,249,403249,Calgary,Alberta,AB,Canada,CA,T3E5K8,-7,-6,1,51.0478,-114.0585
403,249,403249,Calgary,Alberta,AB,Canada,CA,T3H3B,-7,-6,1,51.0478,-114.0585
403,249,403249,Calgary,Alberta,AB,Canada,CA,T3C2P9,-7,-6,1,51.0478,-114.0585
403,249,403249,Calgary,Alberta,AB,Canada,CA,T3E6V8,-7,-6,1,51.0478,-114.0585
403,249,403249,Calgary,Alberta,AB,Canada,CA,T3E6M5,-7,-6,1,51.0478,-114.0585
403,249,403249,Calgary,Alberta,AB,Canada,CA,T3H1E,-7,-6,1,51.0478,-114.0585
403,249,403249,Calgary,Alberta,AB,Canada,CA,T3E6S9,-7,-6,1,51.0478,-114.0585
403,249,403249,Calgary,Alberta,AB,Canada,CA,T3C2Y,-7,-6,1,51.0478,-114.0585
403,249,403249,Calgary,Alberta,AB,Canada,CA,T3E6W3,-7,-6,1,51.0478,-114.0585
403,249,403249,Calgary,Alberta,AB,Canada,CA,T3E6N3,-7,-6,1,51.0478,-114.0585
403,249,403249,Calgary,Alberta,AB,Canada,CA,T3C1S2,-7,-6,1,51.0478,-114.0585
403,249,403249,Calgary,Alberta,AB,Canada,CA,T3E6X,-7,-6,1,51.0478,-114.0585
403,249,403249,Calgary,Alberta,AB,Canada,CA,T3E6T4,-7,-6,1,51.0478,-114.0585
403,249,403249,Calgary,Alberta,AB,Canada,CA,T3H2T3,-7,-6,1,51.0478,-114.0585
403,249,403249,Calgary,Alberta,AB,Canada,CA,T3E1J5,-7,-6,1,51.0478,-114.0585
403,249,403249,Calgary,Alberta,AB,Canada,CA,T3E6S3,-7,-6,1,51.0478,-114.0585
403,250,403250,Calgary,Alberta,AB,Canada,CA,T2E6K3,-7,-6,1,51.0478,-114.0585
403,250,403250,Calgary,Alberta,AB,Canada,CA,T2E6P7,-7,-6,1,51.0478,-114.0585
403,250,403250,Calgary,Alberta,AB,Canada,CA,T2E7A4,-7,-6,1,51.0478,-114.0585
403,250,403250,Calgary,Alberta,AB,Canada,CA,T2E6T7,-7,-6,1,51.0478,-114.0585
403,250,403250,Calgary,Alberta,AB,Canada,CA,T2E7S8,-7,-6,1,51.0478,-114.0585
403,250,403250,Calgary,Alberta,AB,Canada,CA,T2E7P1,-7,-6,1,51.0478,-114.0585
403,250,403250,Calgary,Alberta,AB,Canada,CA,T2E6L2,-7,-6,1,51.0478,-114.0585
403,250,403250,Calgary,Alberta,AB,Canada,CA,T2E6Y9,-7,-6,1,51.0478,-114.0585
403,250,403250,Calgary,Alberta,AB,Canada,CA,T2E7E1,-7,-6,1,51.0478,-114.0585
403,250,403250,Calgary,Alberta,AB,Canada,CA,T2E7C8,-7,-6,1,51.0478,-114.0585
403,250,403250,Calgary,Alberta,AB,Canada,CA,T2E6V2,-7,-6,1,51.0478,-114.0585
403,250,403250,Calgary,Alberta,AB,Canada,CA,T2E7J2,-7,-6,1,51.0478,-114.0585
403,250,403250,Calgary,Alberta,AB,Canada,CA,T2E6S8,-7,-6,1,51.0478,-114.0585
403,250,403250,Calgary,Alberta,AB,Canada,CA,T1Y5E4,-7,-6,1,51.0478,-114.0585
403,250,403250,Calgary,Alberta,AB,Canada,CA,T1Y5R8,-7,-6,1,51.0478,-114.0585
403,250,403250,Calgary,Alberta,AB,Canada,CA,T2E4Y5,-7,-6,1,51.0478,-114.0585
403,250,403250,Calgary,Alberta,AB,Canada,CA,T2E7E4,-7,-6,1,51.0478,-114.0585
403,250,403250,Calgary,Alberta,AB,Canada,CA,T2E6L1,-7,-6,1,51.0478,-114.0585
403,250,403250,Calgary,Alberta,AB,Canada,CA,T2E6Z3,-7,-6,1,51.0478,-114.0585
403,250,403250,Calgary,Alberta,AB,Canada,CA,T1Y6M6,-7,-6,1,51.0478,-114.0585
403,251,403251,Calgary,Alberta,AB,Canada,CA,T2W5J,-7,-6,1,51.0478,-114.0585
403,251,403251,Calgary,Alberta,AB,Canada,CA,T2V5J8,-7,-6,1,51.0478,-114.0585
403,251,403251,Calgary,Alberta,AB,Canada,CA,T2V4X8,-7,-6,1,51.0478,-114.0585
403,251,403251,Calgary,Alberta,AB,Canada,CA,T2W3L,-7,-6,1,51.0478,-114.0585
403,251,403251,Calgary,Alberta,AB,Canada,CA,T2V0X5,-7,-6,1,51.0478,-114.0585
403,251,403251,Calgary,Alberta,AB,Canada,CA,T2V5H6,-7,-6,1,51.0478,-114.0585
403,251,403251,Calgary,Alberta,AB,Canada,CA,T2W5G,-7,-6,1,51.0478,-114.0585
403,251,403251,Calgary,Alberta,AB,Canada,CA,T2V4N,-7,-6,1,51.0478,-114.0585
403,251,403251,Calgary,Alberta,AB,Canada,CA,T2W5H1,-7,-6,1,51.0478,-114.0585
403,251,403251,Calgary,Alberta,AB,Canada,CA,T2W4Z4,-7,-6,1,51.0478,-114.0585
403,251,403251,Calgary,Alberta,AB,Canada,CA,T2V0X6,-7,-6,1,51.0478,-114.0585
403,251,403251,Calgary,Alberta,AB,Canada,CA,T2W4S,-7,-6,1,51.0478,-114.0585
403,251,403251,Calgary,Alberta,AB,Canada,CA,T2W3E,-7,-6,1,51.0478,-114.0585
403,251,403251,Calgary,Alberta,AB,Canada,CA,T2W3M,-7,-6,1,51.0478,-114.0585
403,251,403251,Calgary,Alberta,AB,Canada,CA,T2V4S,-7,-6,1,51.0478,-114.0585
403,251,403251,Calgary,Alberta,AB,Canada,CA,T2W1H,-7,-6,1,51.0478,-114.0585
403,251,403251,Calgary,Alberta,AB,Canada,CA,T2W2S,-7,-6,1,51.0478,-114.0585
403,251,403251,Calgary,Alberta,AB,Canada,CA,T2W3N,-7,-6,1,51.0478,-114.0585
403,251,403251,Calgary,Alberta,AB,Canada,CA,T2V1S5,-7,-6,1,51.0478,-114.0585
403,251,403251,Calgary,Alberta,AB,Canada,CA,T2V4W,-7,-6,1,51.0478,-114.0585
403,252,403252,Calgary,Alberta,AB,Canada,CA,T2H0K8,-7,-6,1,51.0478,-114.0585
403,252,403252,Calgary,Alberta,AB,Canada,CA,T2V5H3,-7,-6,1,51.0478,-114.0585
403,252,403252,Calgary,Alberta,AB,Canada,CA,T2V0H6,-7,-6,1,51.0478,-114.0585
403,252,403252,Calgary,Alberta,AB,Canada,CA,T2J6P6,-7,-6,1,51.0478,-114.0585
403,252,403252,Calgary,Alberta,AB,Canada,CA,T2V5B,-7,-6,1,51.0478,-114.0585
403,252,403252,Calgary,Alberta,AB,Canada,CA,T2H0G3,-7,-6,1,51.0478,-114.0585
403,252,403252,Calgary,Alberta,AB,Canada,CA,T2V0G6,-7,-6,1,51.0478,-114.0585
403,252,403252,Calgary,Alberta,AB,Canada,CA,T2V0G9,-7,-6,1,51.0478,-114.0585
403,252,403252,Calgary,Alberta,AB,Canada,CA,T2H2K6,-7,-6,1,51.0478,-114.0585
403,252,403252,Calgary,Alberta,AB,Canada,CA,T2V0H9,-7,-6,1,51.0478,-114.0585
403,252,403252,Calgary,Alberta,AB,Canada,CA,T2H0K9,-7,-6,1,51.0478,-114.0585
403,252,403252,Calgary,Alberta,AB,Canada,CA,T2J6S,-7,-6,1,51.0478,-114.0585
403,252,403252,Calgary,Alberta,AB,Canada,CA,T2H1N6,-7,-6,1,51.0478,-114.0585
403,252,403252,Calgary,Alberta,AB,Canada,CA,T2V4Z3,-7,-6,1,51.0478,-114.0585
403,252,403252,Calgary,Alberta,AB,Canada,CA,T2V0E5,-7,-6,1,51.0478,-114.0585
403,252,403252,Calgary,Alberta,AB,Canada,CA,T2V1R8,-7,-6,1,51.0478,-114.0585
403,252,403252,Calgary,Alberta,AB,Canada,CA,T2V5A8,-7,-6,1,51.0478,-114.0585
403,252,403252,Calgary,Alberta,AB,Canada,CA,T2H1N,-7,-6,1,51.0478,-114.0585
403,252,403252,Calgary,Alberta,AB,Canada,CA,T2H2K5,-7,-6,1,51.0478,-114.0585
403,252,403252,Calgary,Alberta,AB,Canada,CA,T2H0K3,-7,-6,1,51.0478,-114.0585
403,253,403253,Calgary,Alberta,AB,Canada,CA,T2V0H4,-7,-6,1,51.0478,-114.0585
403,253,403253,Calgary,Alberta,AB,Canada,CA,T2V0H6,-7,-6,1,51.0478,-114.0585
403,253,403253,Calgary,Alberta,AB,Canada,CA,T2H2K5,-7,-6,1,51.0478,-114.0585
403,253,403253,Calgary,Alberta,AB,Canada,CA,T2V1R8,-7,-6,1,51.0478,-114.0585
403,253,403253,Calgary,Alberta,AB,Canada,CA,T2V2X5,-7,-6,1,51.0478,-114.0585
403,253,403253,Calgary,Alberta,AB,Canada,CA,T2V5B,-7,-6,1,51.0478,-114.0585
403,253,403253,Calgary,Alberta,AB,Canada,CA,T2H2S4,-7,-6,1,51.0478,-114.0585
403,253,403253,Calgary,Alberta,AB,Canada,CA,T2J3A6,-7,-6,1,51.0478,-114.0585
403,253,403253,Calgary,Alberta,AB,Canada,CA,T2H1N6,-7,-6,1,51.0478,-114.0585
403,253,403253,Calgary,Alberta,AB,Canada,CA,T2H1N,-7,-6,1,51.0478,-114.0585
403,253,403253,Calgary,Alberta,AB,Canada,CA,T2V0H9,-7,-6,1,51.0478,-114.0585
403,253,403253,Calgary,Alberta,AB,Canada,CA,T2H0K9,-7,-6,1,51.0478,-114.0585
403,253,403253,Calgary,Alberta,AB,Canada,CA,T2V0M2,-7,-6,1,51.0478,-114.0585
403,253,403253,Calgary,Alberta,AB,Canada,CA,T2J6S,-7,-6,1,51.0478,-114.0585
403,253,403253,Calgary,Alberta,AB,Canada,CA,T2V0E5,-7,-6,1,51.0478,-114.0585
403,253,403253,Calgary,Alberta,AB,Canada,CA,T2J0E,-7,-6,1,51.0478,-114.0585
403,253,403253,Calgary,Alberta,AB,Canada,CA,T2W2T,-7,-6,1,51.0478,-114.0585
403,253,403253,Calgary,Alberta,AB,Canada,CA,T2V5H3,-7,-6,1,51.0478,-114.0585
403,253,403253,Calgary,Alberta,AB,Canada,CA,T2J6P6,-7,-6,1,51.0478,-114.0585
403,253,403253,Calgary,Alberta,AB,Canada,CA,T2V0G6,-7,-6,1,51.0478,-114.0585
403,254,403254,Calgary,Alberta,AB,Canada,CA,T2X1Z1,-7,-6,1,51.0478,-114.0585
403,254,403254,Calgary,Alberta,AB,Canada,CA,T2Y1Y4,-7,-6,1,51.0478,-114.0585
403,254,403254,Calgary,Alberta,AB,Canada,CA,T2Y2R7,-7,-6,1,51.0478,-114.0585
403,254,403254,Calgary,Alberta,AB,Canada,CA,T2Y2X6,-7,-6,1,51.0478,-114.0585
403,254,403254,Calgary,Alberta,AB,Canada,CA,T2X2T4,-7,-6,1,51.0478,-114.0585
403,254,403254,Calgary,Alberta,AB,Canada,CA,T2Y3H1,-7,-6,1,51.0478,-114.0585
403,254,403254,Calgary,Alberta,AB,Canada,CA,T2Y1G,-7,-6,1,51.0478,-114.0585
403,254,403254,Calgary,Alberta,AB,Canada,CA,T2Y1B3,-7,-6,1,51.0478,-114.0585
403,254,403254,Calgary,Alberta,AB,Canada,CA,T2X3E6,-7,-6,1,51.0478,-114.0585
403,254,403254,Calgary,Alberta,AB,Canada,CA,T2Y2T6,-7,-6,1,51.0478,-114.0585
403,254,403254,Calgary,Alberta,AB,Canada,CA,T2Y2C7,-7,-6,1,51.0478,-114.0585
403,254,403254,Calgary,Alberta,AB,Canada,CA,T2X3H2,-7,-6,1,51.0478,-114.0585
403,254,403254,De Winton,Alberta,AB,Canada,CA,T0L0X0,-7,-6,1,51.0478,-114.0585
403,254,403254,Calgary,Alberta,AB,Canada,CA,T2X3G2,-7,-6,1,51.0478,-114.0585
403,254,403254,Calgary,Alberta,AB,Canada,CA,T2X1M2,-7,-6,1,51.0478,-114.0585
403,254,403254,Calgary,Alberta,AB,Canada,CA,T2Y2V8,-7,-6,1,51.0478,-114.0585
403,254,403254,Calgary,Alberta,AB,Canada,CA,T2X1P1,-7,-6,1,51.0478,-114.0585
403,254,403254,Calgary,Alberta,AB,Canada,CA,T2Y2B3,-7,-6,1,51.0478,-114.0585
403,254,403254,Calgary,Alberta,AB,Canada,CA,T2X3C2,-7,-6,1,51.0478,-114.0585
403,254,403254,Calgary,Alberta,AB,Canada,CA,T2Y2Z3,-7,-6,1,51.0478,-114.0585
403,255,403255,Calgary,Alberta,AB,Canada,CA,T2J6P6,-7,-6,1,51.0478,-114.0585
403,255,403255,Calgary,Alberta,AB,Canada,CA,T2V0H4,-7,-6,1,51.0478,-114.0585
403,255,403255,Calgary,Alberta,AB,Canada,CA,T2J0P6,-7,-6,1,51.0478,-114.0585
403,255,403255,Calgary,Alberta,AB,Canada,CA,T2V4Z3,-7,-6,1,51.0478,-114.0585
403,255,403255,Calgary,Alberta,AB,Canada,CA,T2V1R8,-7,-6,1,51.0478,-114.0585
403,255,403255,Calgary,Alberta,AB,Canada,CA,T2J0E,-7,-6,1,51.0478,-114.0585
403,255,403255,Calgary,Alberta,AB,Canada,CA,T2J3A6,-7,-6,1,51.0478,-114.0585
403,255,403255,Calgary,Alberta,AB,Canada,CA,T2V1H7,-7,-6,1,51.0478,-114.0585
403,255,403255,Calgary,Alberta,AB,Canada,CA,T2V5B,-7,-6,1,51.0478,-114.0585
403,255,403255,Calgary,Alberta,AB,Canada,CA,T2V4V7,-7,-6,1,51.0478,-114.0585
403,255,403255,Calgary,Alberta,AB,Canada,CA,T2H0K9,-7,-6,1,51.0478,-114.0585
403,255,403255,Calgary,Alberta,AB,Canada,CA,T2J6S,-7,-6,1,51.0478,-114.0585
403,255,403255,Calgary,Alberta,AB,Canada,CA,T2V5A8,-7,-6,1,51.0478,-114.0585
403,255,403255,Calgary,Alberta,AB,Canada,CA,T2H2K5,-7,-6,1,51.0478,-114.0585
403,255,403255,Calgary,Alberta,AB,Canada,CA,T2V5H3,-7,-6,1,51.0478,-114.0585
403,255,403255,Calgary,Alberta,AB,Canada,CA,T2W1B6,-7,-6,1,51.0478,-114.0585
403,255,403255,Calgary,Alberta,AB,Canada,CA,T2V0E5,-7,-6,1,51.0478,-114.0585
403,255,403255,Calgary,Alberta,AB,Canada,CA,T2V0H9,-7,-6,1,51.0478,-114.0585
403,255,403255,Calgary,Alberta,AB,Canada,CA,T2H1N,-7,-6,1,51.0478,-114.0585
403,255,403255,Calgary,Alberta,AB,Canada,CA,T2V0M5,-7,-6,1,51.0478,-114.0585
403,256,403256,Calgary,Alberta,AB,Canada,CA,T2X1M2,-7,-6,1,51.0478,-114.0585
403,256,403256,Calgary,Alberta,AB,Canada,CA,T2X1L3,-7,-6,1,51.0478,-114.0585
403,256,403256,Calgary,Alberta,AB,Canada,CA,T2X3G3,-7,-6,1,51.0478,-114.0585
403,256,403256,Calgary,Alberta,AB,Canada,CA,T2X3H3,-7,-6,1,51.0478,-114.0585
403,256,403256,Calgary,Alberta,AB,Canada,CA,T2J5G5,-7,-6,1,51.0478,-114.0585
403,256,403256,Calgary,Alberta,AB,Canada,CA,T2X1L,-7,-6,1,51.0478,-114.0585
403,256,403256,Calgary,Alberta,AB,Canada,CA,T2Y1C7,-7,-6,1,51.0478,-114.0585
403,256,403256,Calgary,Alberta,AB,Canada,CA,T2Y1G,-7,-6,1,51.0478,-114.0585
403,256,403256,Calgary,Alberta,AB,Canada,CA,T2J2T9,-7,-6,1,51.0478,-114.0585
403,256,403256,Calgary,Alberta,AB,Canada,CA,T2X2B8,-7,-6,1,51.0478,-114.0585
403,256,403256,Calgary,Alberta,AB,Canada,CA,T2Y1B3,-7,-6,1,51.0478,-114.0585
403,256,403256,Calgary,Alberta,AB,Canada,CA,T2X1P,-7,-6,1,51.0478,-114.0585
403,256,403256,Calgary,Alberta,AB,Canada,CA,T2Y2E7,-7,-6,1,51.0478,-114.0585
403,256,403256,De Winton,Alberta,AB,Canada,CA,T0L0X0,-7,-6,1,51.0478,-114.0585
403,256,403256,Calgary,Alberta,AB,Canada,CA,T2X1Z1,-7,-6,1,51.0478,-114.0585
403,256,403256,Calgary,Alberta,AB,Canada,CA,T2X1K,-7,-6,1,51.0478,-114.0585
403,256,403256,Calgary,Alberta,AB,Canada,CA,T2X2X7,-7,-6,1,51.0478,-114.0585
403,256,403256,Calgary,Alberta,AB,Canada,CA,T2X1N7,-7,-6,1,51.0478,-114.0585
403,256,403256,Calgary,Alberta,AB,Canada,CA,T2X1A7,-7,-6,1,51.0478,-114.0585
403,256,403256,Calgary,Alberta,AB,Canada,CA,T2X1N4,-7,-6,1,51.0478,-114.0585
403,257,403257,Calgary,Alberta,AB,Canada,CA,T2Z2K3,-7,-6,1,51.0478,-114.0585
403,257,403257,Calgary,Alberta,AB,Canada,CA,T2Z2G9,-7,-6,1,51.0478,-114.0585
403,257,403257,Calgary,Alberta,AB,Canada,CA,T2Z2J6,-7,-6,1,51.0478,-114.0585
403,257,403257,Calgary,Alberta,AB,Canada,CA,T2Z2L3,-7,-6,1,51.0478,-114.0585
403,257,403257,Calgary,Alberta,AB,Canada,CA,T2Z2E2,-7,-6,1,51.0478,-114.0585
403,257,403257,Calgary,Alberta,AB,Canada,CA,T2Z2J3,-7,-6,1,51.0478,-114.0585
403,257,403257,Calgary,Alberta,AB,Canada,CA,T2Z2E3,-7,-6,1,51.0478,-114.0585
403,257,403257,Calgary,Alberta,AB,Canada,CA,T2Z1N7,-7,-6,1,51.0478,-114.0585
403,257,403257,Calgary,Alberta,AB,Canada,CA,T2Z2S2,-7,-6,1,51.0478,-114.0585
403,257,403257,Calgary,Alberta,AB,Canada,CA,T2Z2C1,-7,-6,1,51.0478,-114.0585
403,257,403257,Calgary,Alberta,AB,Canada,CA,T2Z2G1,-7,-6,1,51.0478,-114.0585
403,257,403257,Calgary,Alberta,AB,Canada,CA,T2Z2B8,-7,-6,1,51.0478,-114.0585
403,257,403257,Calgary,Alberta,AB,Canada,CA,T2Z2J9,-7,-6,1,51.0478,-114.0585
403,257,403257,Calgary,Alberta,AB,Canada,CA,T2Z1P4,-7,-6,1,51.0478,-114.0585
403,257,403257,Calgary,Alberta,AB,Canada,CA,T2Z2K1,-7,-6,1,51.0478,-114.0585
403,257,403257,Calgary,Alberta,AB,Canada,CA,T2Z2H4,-7,-6,1,51.0478,-114.0585
403,257,403257,Calgary,Alberta,AB,Canada,CA,T2Z1P1,-7,-6,1,51.0478,-114.0585
403,257,403257,Calgary,Alberta,AB,Canada,CA,T2Z2J2,-7,-6,1,51.0478,-114.0585
403,257,403257,Calgary,Alberta,AB,Canada,CA,T2Z2K4,-7,-6,1,51.0478,-114.0585
403,257,403257,Calgary,Alberta,AB,Canada,CA,T2Z2K5,-7,-6,1,51.0478,-114.0585
403,258,403258,Calgary,Alberta,AB,Canada,CA,T2V0G6,-7,-6,1,51.0478,-114.0585
403,258,403258,Calgary,Alberta,AB,Canada,CA,T2J6P6,-7,-6,1,51.0478,-114.0585
403,258,403258,Calgary,Alberta,AB,Canada,CA,T2V2H3,-7,-6,1,51.0478,-114.0585
403,258,403258,Calgary,Alberta,AB,Canada,CA,T2V0H4,-7,-6,1,51.0478,-114.0585
403,258,403258,Calgary,Alberta,AB,Canada,CA,T2V0Z5,-7,-6,1,51.0478,-114.0585
403,258,403258,Calgary,Alberta,AB,Canada,CA,T2J0P6,-7,-6,1,51.0478,-114.0585
403,258,403258,Calgary,Alberta,AB,Canada,CA,T2V5A8,-7,-6,1,51.0478,-114.0585
403,258,403258,Calgary,Alberta,AB,Canada,CA,T2V0H6,-7,-6,1,51.0478,-114.0585
403,258,403258,Calgary,Alberta,AB,Canada,CA,T2V0M2,-7,-6,1,51.0478,-114.0585
403,258,403258,Calgary,Alberta,AB,Canada,CA,T2V0H9,-7,-6,1,51.0478,-114.0585
403,258,403258,Calgary,Alberta,AB,Canada,CA,T2J3A6,-7,-6,1,51.0478,-114.0585
403,258,403258,Calgary,Alberta,AB,Canada,CA,T2V0H7,-7,-6,1,51.0478,-114.0585
403,258,403258,Calgary,Alberta,AB,Canada,CA,T2V2X5,-7,-6,1,51.0478,-114.0585
403,258,403258,Calgary,Alberta,AB,Canada,CA,T2H2K5,-7,-6,1,51.0478,-114.0585
403,258,403258,Calgary,Alberta,AB,Canada,CA,T2V5H3,-7,-6,1,51.0478,-114.0585
403,258,403258,Calgary,Alberta,AB,Canada,CA,T2W1B6,-7,-6,1,51.0478,-114.0585
403,258,403258,Calgary,Alberta,AB,Canada,CA,T2W3X6,-7,-6,1,51.0478,-114.0585
403,258,403258,Calgary,Alberta,AB,Canada,CA,T2V1R8,-7,-6,1,51.0478,-114.0585
403,258,403258,Calgary,Alberta,AB,Canada,CA,T2H2S4,-7,-6,1,51.0478,-114.0585
403,258,403258,Calgary,Alberta,AB,Canada,CA,T2J0E,-7,-6,1,51.0478,-114.0585
403,259,403259,Calgary,Alberta,AB,Canada,CA,T2J3A6,-7,-6,1,51.0478,-114.0585
403,259,403259,Calgary,Alberta,AB,Canada,CA,T2V1R8,-7,-6,1,51.0478,-114.0585
403,259,403259,Calgary,Alberta,AB,Canada,CA,T2H2K6,-7,-6,1,51.0478,-114.0585
403,259,403259,Calgary,Alberta,AB,Canada,CA,T2W2T,-7,-6,1,51.0478,-114.0585
403,259,403259,Calgary,Alberta,AB,Canada,CA,T2J6P6,-7,-6,1,51.0478,-114.0585
403,259,403259,Calgary,Alberta,AB,Canada,CA,T2V0M2,-7,-6,1,51.0478,-114.0585
403,259,403259,Calgary,Alberta,AB,Canada,CA,T2V5B,-7,-6,1,51.0478,-114.0585
403,259,403259,Calgary,Alberta,AB,Canada,CA,T2V0M5,-7,-6,1,51.0478,-114.0585
403,259,403259,Calgary,Alberta,AB,Canada,CA,T2V0H7,-7,-6,1,51.0478,-114.0585
403,259,403259,Calgary,Alberta,AB,Canada,CA,T2H1N6,-7,-6,1,51.0478,-114.0585
403,259,403259,Calgary,Alberta,AB,Canada,CA,T2V5H3,-7,-6,1,51.0478,-114.0585
403,259,403259,Calgary,Alberta,AB,Canada,CA,T2V0H4,-7,-6,1,51.0478,-114.0585
403,259,403259,Calgary,Alberta,AB,Canada,CA,T2J6S,-7,-6,1,51.0478,-114.0585
403,259,403259,Calgary,Alberta,AB,Canada,CA,T2V0E5,-7,-6,1,51.0478,-114.0585
403,259,403259,Calgary,Alberta,AB,Canada,CA,T2J0E,-7,-6,1,51.0478,-114.0585
403,259,403259,Calgary,Alberta,AB,Canada,CA,T2W1B6,-7,-6,1,51.0478,-114.0585
403,259,403259,Calgary,Alberta,AB,Canada,CA,T2H2K5,-7,-6,1,51.0478,-114.0585
403,259,403259,Calgary,Alberta,AB,Canada,CA,T2V0H9,-7,-6,1,51.0478,-114.0585
403,259,403259,Calgary,Alberta,AB,Canada,CA,T2V4Z3,-7,-6,1,51.0478,-114.0585
403,259,403259,Calgary,Alberta,AB,Canada,CA,T2V4X1,-7,-6,1,51.0478,-114.0585
403,260,403260,Calgary,Alberta,AB,Canada,CA,T2P3S8,-7,-6,1,51.0478,-114.0585
403,260,403260,Calgary,Alberta,AB,Canada,CA,T2G2M2,-7,-6,1,51.0478,-114.0585
403,260,403260,Calgary,Alberta,AB,Canada,CA,T2P4G8,-7,-6,1,51.0478,-114.0585
403,260,403260,Calgary,Alberta,AB,Canada,CA,T2P3E5,-7,-6,1,51.0478,-114.0585
403,260,403260,Calgary,Alberta,AB,Canada,CA,T2P0T8,-7,-6,1,51.0478,-114.0585
403,260,403260,Calgary,Alberta,AB,Canada,CA,T2P0Z3,-7,-6,1,51.0478,-114.0585
403,260,403260,Calgary,Alberta,AB,Canada,CA,T2P3H5,-7,-6,1,51.0478,-114.0585
403,260,403260,Calgary,Alberta,AB,Canada,CA,T2P3H7,-7,-6,1,51.0478,-114.0585
403,260,403260,Calgary,Alberta,AB,Canada,CA,T2P4K9,-7,-6,1,51.0478,-114.0585
403,260,403260,Calgary,Alberta,AB,Canada,CA,T2P1C6,-7,-6,1,51.0478,-114.0585
403,260,403260,Calgary,Alberta,AB,Canada,CA,T2P3N9,-7,-6,1,51.0478,-114.0585
403,260,403260,Calgary,Alberta,AB,Canada,CA,T3C3V8,-7,-6,1,51.0478,-114.0585
403,260,403260,Calgary,Alberta,AB,Canada,CA,T2P4J8,-7,-6,1,51.0478,-114.0585
403,260,403260,Calgary,Alberta,AB,Canada,CA,T2P2Z1,-7,-6,1,51.0478,-114.0585
403,260,403260,Calgary,Alberta,AB,Canada,CA,T2P3N,-7,-6,1,51.0478,-114.0585
403,260,403260,Calgary,Alberta,AB,Canada,CA,T2P3T7,-7,-6,1,51.0478,-114.0585
403,260,403260,Calgary,Alberta,AB,Canada,CA,T2P3G6,-7,-6,1,51.0478,-114.0585
403,260,403260,Calgary,Alberta,AB,Canada,CA,T2P2V7,-7,-6,1,51.0478,-114.0585
403,260,403260,Calgary,Alberta,AB,Canada,CA,T2P3H3,-7,-6,1,51.0478,-114.0585
403,260,403260,Calgary,Alberta,AB,Canada,CA,T2P0L4,-7,-6,1,51.0478,-114.0585
403,261,403261,Calgary,Alberta,AB,Canada,CA,T2P2T,-7,-6,1,51.0478,-114.0585
403,261,403261,Calgary,Alberta,AB,Canada,CA,T2R0K3,-7,-6,1,51.0478,-114.0585
403,261,403261,Calgary,Alberta,AB,Canada,CA,T2P2B3,-7,-6,1,51.0478,-114.0585
403,261,403261,Calgary,Alberta,AB,Canada,CA,T2R0M4,-7,-6,1,51.0478,-114.0585
403,261,403261,Calgary,Alberta,AB,Canada,CA,T2R0M3,-7,-6,1,51.0478,-114.0585
403,261,403261,Calgary,Alberta,AB,Canada,CA,T2P2T9,-7,-6,1,51.0478,-114.0585
403,261,403261,Calgary,Alberta,AB,Canada,CA,T2R0E4,-7,-6,1,51.0478,-114.0585
403,261,403261,Calgary,Alberta,AB,Canada,CA,T2G4W4,-7,-6,1,51.0478,-114.0585
403,261,403261,Calgary,Alberta,AB,Canada,CA,T2P0Z3,-7,-6,1,51.0478,-114.0585
403,261,403261,Calgary,Alberta,AB,Canada,CA,T2P4R5,-7,-6,1,51.0478,-114.0585
403,261,403261,Calgary,Alberta,AB,Canada,CA,T2P0J8,-7,-6,1,51.0478,-114.0585
403,261,403261,Calgary,Alberta,AB,Canada,CA,T2G5A8,-7,-6,1,51.0478,-114.0585
403,261,403261,Calgary,Alberta,AB,Canada,CA,T2G4Z9,-7,-6,1,51.0478,-114.0585
403,261,403261,Calgary,Alberta,AB,Canada,CA,T2R1K8,-7,-6,1,51.0478,-114.0585
403,261,403261,Calgary,Alberta,AB,Canada,CA,T2P0G7,-7,-6,1,51.0478,-114.0585
403,261,403261,Calgary,Alberta,AB,Canada,CA,T2P3G8,-7,-6,1,51.0478,-114.0585
403,261,403261,Calgary,Alberta,AB,Canada,CA,T2P2T1,-7,-6,1,51.0478,-114.0585
403,261,403261,Calgary,Alberta,AB,Canada,CA,T2P1A6,-7,-6,1,51.0478,-114.0585
403,261,403261,Calgary,Alberta,AB,Canada,CA,T2G4T5,-7,-6,1,51.0478,-114.0585
403,261,403261,Calgary,Alberta,AB,Canada,CA,T2P2A6,-7,-6,1,51.0478,-114.0585
403,262,403262,Calgary,Alberta,AB,Canada,CA,T2P0V6,-7,-6,1,51.0478,-114.0585
403,262,403262,Calgary,Alberta,AB,Canada,CA,T2P2Y3,-7,-6,1,51.0478,-114.0585
403,262,403262,Calgary,Alberta,AB,Canada,CA,T2P1H9,-7,-6,1,51.0478,-114.0585
403,262,403262,Calgary,Alberta,AB,Canada,CA,T2G5G4,-7,-6,1,51.0478,-114.0585
403,262,403262,Calgary,Alberta,AB,Canada,CA,T2P3C6,-7,-6,1,51.0478,-114.0585
403,262,403262,Calgary,Alberta,AB,Canada,CA,T2P3J4,-7,-6,1,51.0478,-114.0585
403,262,403262,Calgary,Alberta,AB,Canada,CA,T2G4Z9,-7,-6,1,51.0478,-114.0585
403,262,403262,Calgary,Alberta,AB,Canada,CA,T2P1M3,-7,-6,1,51.0478,-114.0585
403,262,403262,Calgary,Alberta,AB,Canada,CA,T2R1H3,-7,-6,1,51.0478,-114.0585
403,262,403262,Calgary,Alberta,AB,Canada,CA,T2P0G7,-7,-6,1,51.0478,-114.0585
403,262,403262,Calgary,Alberta,AB,Canada,CA,T2P2B5,-7,-6,1,51.0478,-114.0585
403,262,403262,Calgary,Alberta,AB,Canada,CA,T2R0A3,-7,-6,1,51.0478,-114.0585
403,262,403262,Calgary,Alberta,AB,Canada,CA,T2P0V1,-7,-6,1,51.0478,-114.0585
403,262,403262,Calgary,Alberta,AB,Canada,CA,T2G4T5,-7,-6,1,51.0478,-114.0585
403,262,403262,Calgary,Alberta,AB,Canada,CA,T2P2B3,-7,-6,1,51.0478,-114.0585
403,262,403262,Calgary,Alberta,AB,Canada,CA,T2P0J8,-7,-6,1,51.0478,-114.0585
403,262,403262,Calgary,Alberta,AB,Canada,CA,T2P3G8,-7,-6,1,51.0478,-114.0585
403,262,403262,Calgary,Alberta,AB,Canada,CA,T2P3H7,-7,-6,1,51.0478,-114.0585
403,262,403262,Calgary,Alberta,AB,Canada,CA,T2R0W4,-7,-6,1,51.0478,-114.0585
403,262,403262,Calgary,Alberta,AB,Canada,CA,T2G4W4,-7,-6,1,51.0478,-114.0585
403,263,403263,Calgary,Alberta,AB,Canada,CA,T2G4Z9,-7,-6,1,51.0478,-114.0585
403,263,403263,Calgary,Alberta,AB,Canada,CA,T2P0V1,-7,-6,1,51.0478,-114.0585
403,263,403263,Calgary,Alberta,AB,Canada,CA,T2P0V6,-7,-6,1,51.0478,-114.0585
403,263,403263,Calgary,Alberta,AB,Canada,CA,T2R0G9,-7,-6,1,51.0478,-114.0585
403,263,403263,Calgary,Alberta,AB,Canada,CA,T2R1H3,-7,-6,1,51.0478,-114.0585
403,263,403263,Calgary,Alberta,AB,Canada,CA,T2P3C6,-7,-6,1,51.0478,-114.0585
403,263,403263,Calgary,Alberta,AB,Canada,CA,T2P0G7,-7,-6,1,51.0478,-114.0585
403,263,403263,Calgary,Alberta,AB,Canada,CA,T2P2B3,-7,-6,1,51.0478,-114.0585
403,263,403263,Calgary,Alberta,AB,Canada,CA,T2P3K7,-7,-6,1,51.0478,-114.0585
403,263,403263,Calgary,Alberta,AB,Canada,CA,T2R0K6,-7,-6,1,51.0478,-114.0585
403,263,403263,Calgary,Alberta,AB,Canada,CA,T2P3J4,-7,-6,1,51.0478,-114.0585
403,263,403263,Calgary,Alberta,AB,Canada,CA,T2P2T9,-7,-6,1,51.0478,-114.0585
403,263,403263,Calgary,Alberta,AB,Canada,CA,T2P1H7,-7,-6,1,51.0478,-114.0585
403,263,403263,Calgary,Alberta,AB,Canada,CA,T2P2A6,-7,-6,1,51.0478,-114.0585
403,263,403263,Calgary,Alberta,AB,Canada,CA,T2G4T5,-7,-6,1,51.0478,-114.0585
403,263,403263,Calgary,Alberta,AB,Canada,CA,T2P2V7,-7,-6,1,51.0478,-114.0585
403,263,403263,Calgary,Alberta,AB,Canada,CA,T2R1K8,-7,-6,1,51.0478,-114.0585
403,263,403263,Calgary,Alberta,AB,Canada,CA,T2P3G8,-7,-6,1,51.0478,-114.0585
403,263,403263,Calgary,Alberta,AB,Canada,CA,T2P0J8,-7,-6,1,51.0478,-114.0585
403,263,403263,Calgary,Alberta,AB,Canada,CA,T2P1A4,-7,-6,1,51.0478,-114.0585
403,264,403264,Calgary,Alberta,AB,Canada,CA,T2P3G8,-7,-6,1,51.0478,-114.0585
403,264,403264,Calgary,Alberta,AB,Canada,CA,T2G5E7,-7,-6,1,51.0478,-114.0585
403,264,403264,Calgary,Alberta,AB,Canada,CA,T2P0V4,-7,-6,1,51.0478,-114.0585
403,264,403264,Calgary,Alberta,AB,Canada,CA,T2P0Z5,-7,-6,1,51.0478,-114.0585
403,264,403264,Calgary,Alberta,AB,Canada,CA,T2P1J5,-7,-6,1,51.0478,-114.0585
403,264,403264,Calgary,Alberta,AB,Canada,CA,T2P0J8,-7,-6,1,51.0478,-114.0585
403,264,403264,Calgary,Alberta,AB,Canada,CA,T2R1H3,-7,-6,1,51.0478,-114.0585
403,264,403264,Calgary,Alberta,AB,Canada,CA,T2P3E5,-7,-6,1,51.0478,-114.0585
403,264,403264,Calgary,Alberta,AB,Canada,CA,T2P1H7,-7,-6,1,51.0478,-114.0585
403,264,403264,Calgary,Alberta,AB,Canada,CA,T2G4T5,-7,-6,1,51.0478,-114.0585
403,264,403264,Calgary,Alberta,AB,Canada,CA,T2R1K8,-7,-6,1,51.0478,-114.0585
403,264,403264,Calgary,Alberta,AB,Canada,CA,T2R0K6,-7,-6,1,51.0478,-114.0585
403,264,403264,Calgary,Alberta,AB,Canada,CA,T2P0Z3,-7,-6,1,51.0478,-114.0585
403,264,403264,Calgary,Alberta,AB,Canada,CA,T2G4Z9,-7,-6,1,51.0478,-114.0585
403,264,403264,Calgary,Alberta,AB,Canada,CA,T2P2B3,-7,-6,1,51.0478,-114.0585
403,264,403264,Calgary,Alberta,AB,Canada,CA,T2P2T1,-7,-6,1,51.0478,-114.0585
403,264,403264,Calgary,Alberta,AB,Canada,CA,T2P0N5,-7,-6,1,51.0478,-114.0585
403,264,403264,Calgary,Alberta,AB,Canada,CA,T2P2B5,-7,-6,1,51.0478,-114.0585
403,264,403264,Calgary,Alberta,AB,Canada,CA,T2P2A6,-7,-6,1,51.0478,-114.0585
403,264,403264,Calgary,Alberta,AB,Canada,CA,T2R0A3,-7,-6,1,51.0478,-114.0585
403,265,403265,Calgary,Alberta,AB,Canada,CA,T2R0A3,-7,-6,1,51.0478,-114.0585
403,265,403265,Calgary,Alberta,AB,Canada,CA,T2R0K6,-7,-6,1,51.0478,-114.0585
403,265,403265,Calgary,Alberta,AB,Canada,CA,T2P0N5,-7,-6,1,51.0478,-114.0585
403,265,403265,Calgary,Alberta,AB,Canada,CA,T2P2T9,-7,-6,1,51.0478,-114.0585
403,265,403265,Calgary,Alberta,AB,Canada,CA,T2P2V7,-7,-6,1,51.0478,-114.0585
403,265,403265,Calgary,Alberta,AB,Canada,CA,T2P3C6,-7,-6,1,51.0478,-114.0585
403,265,403265,Calgary,Alberta,AB,Canada,CA,T2R0W4,-7,-6,1,51.0478,-114.0585
403,265,403265,Calgary,Alberta,AB,Canada,CA,T2R1H3,-7,-6,1,51.0478,-114.0585
403,265,403265,Calgary,Alberta,AB,Canada,CA,T2G4T5,-7,-6,1,51.0478,-114.0585
403,265,403265,Calgary,Alberta,AB,Canada,CA,T2P0V4,-7,-6,1,51.0478,-114.0585
403,265,403265,Calgary,Alberta,AB,Canada,CA,T2G4W4,-7,-6,1,51.0478,-114.0585
403,265,403265,Calgary,Alberta,AB,Canada,CA,T2P2B3,-7,-6,1,51.0478,-114.0585
403,265,403265,Calgary,Alberta,AB,Canada,CA,T2P0J8,-7,-6,1,51.0478,-114.0585
403,265,403265,Calgary,Alberta,AB,Canada,CA,T2P3H7,-7,-6,1,51.0478,-114.0585
403,265,403265,Calgary,Alberta,AB,Canada,CA,T2G4Z9,-7,-6,1,51.0478,-114.0585
403,265,403265,Calgary,Alberta,AB,Canada,CA,T2G5B4,-7,-6,1,51.0478,-114.0585
403,265,403265,Calgary,Alberta,AB,Canada,CA,T2P3G8,-7,-6,1,51.0478,-114.0585
403,265,403265,Calgary,Alberta,AB,Canada,CA,T2R1K8,-7,-6,1,51.0478,-114.0585
403,265,403265,Calgary,Alberta,AB,Canada,CA,T2G0E4,-7,-6,1,51.0478,-114.0585
403,265,403265,Calgary,Alberta,AB,Canada,CA,T2P0V1,-7,-6,1,51.0478,-114.0585
403,266,403266,Calgary,Alberta,AB,Canada,CA,T2P4J7,-7,-6,1,51.0478,-114.0585
403,266,403266,Calgary,Alberta,AB,Canada,CA,T2P4K8,-7,-6,1,51.0478,-114.0585
403,266,403266,Calgary,Alberta,AB,Canada,CA,T2P1M3,-7,-6,1,51.0478,-114.0585
403,266,403266,Calgary,Alberta,AB,Canada,CA,T2P0M2,-7,-6,1,51.0478,-114.0585
403,266,403266,Calgary,Alberta,AB,Canada,CA,T2P3T7,-7,-6,1,51.0478,-114.0585
403,266,403266,Calgary,Alberta,AB,Canada,CA,T2P2V7,-7,-6,1,51.0478,-114.0585
403,266,403266,Calgary,Alberta,AB,Canada,CA,T2P2T1,-7,-6,1,51.0478,-114.0585
403,266,403266,Calgary,Alberta,AB,Canada,CA,T2P0J8,-7,-6,1,51.0478,-114.0585
403,266,403266,Calgary,Alberta,AB,Canada,CA,T2G4W4,-7,-6,1,51.0478,-114.0585
403,266,403266,Calgary,Alberta,AB,Canada,CA,T2P2B3,-7,-6,1,51.0478,-114.0585
403,266,403266,Calgary,Alberta,AB,Canada,CA,T2R1H3,-7,-6,1,51.0478,-114.0585
403,266,403266,Calgary,Alberta,AB,Canada,CA,T2P1A6,-7,-6,1,51.0478,-114.0585
403,266,403266,Calgary,Alberta,AB,Canada,CA,T2G4T5,-7,-6,1,51.0478,-114.0585
403,266,403266,Calgary,Alberta,AB,Canada,CA,T2G4Z9,-7,-6,1,51.0478,-114.0585
403,266,403266,Calgary,Alberta,AB,Canada,CA,T2R1K8,-7,-6,1,51.0478,-114.0585
403,266,403266,Calgary,Alberta,AB,Canada,CA,T2G5G4,-7,-6,1,51.0478,-114.0585
403,266,403266,Calgary,Alberta,AB,Canada,CA,T2G0E4,-7,-6,1,51.0478,-114.0585
403,266,403266,Calgary,Alberta,AB,Canada,CA,T2P3J4,-7,-6,1,51.0478,-114.0585
403,266,403266,Calgary,Alberta,AB,Canada,CA,T2P2A6,-7,-6,1,51.0478,-114.0585
403,266,403266,Calgary,Alberta,AB,Canada,CA,T2P0V1,-7,-6,1,51.0478,-114.0585
403,267,403267,Calgary,Alberta,AB,Canada,CA,T2E0A3,-7,-6,1,51.0478,-114.0585
403,267,403267,Calgary,Alberta,AB,Canada,CA,T2P3N3,-7,-6,1,51.0478,-114.0585
403,267,403267,Calgary,Alberta,AB,Canada,CA,T2E0A5,-7,-6,1,51.0478,-114.0585
403,267,403267,Calgary,Alberta,AB,Canada,CA,T2G4M9,-7,-6,1,51.0478,-114.0585
403,267,403267,Calgary,Alberta,AB,Canada,CA,T2G0R3,-7,-6,1,51.0478,-114.0585
403,267,403267,Calgary,Alberta,AB,Canada,CA,T2G0P9,-7,-6,1,51.0478,-114.0585
403,267,403267,Calgary,Alberta,AB,Canada,CA,T2P3T6,-7,-6,1,51.0478,-114.0585
403,267,403267,Calgary,Alberta,AB,Canada,CA,T2P3S8,-7,-6,1,51.0478,-114.0585
403,267,403267,Calgary,Alberta,AB,Canada,CA,T2P3N9,-7,-6,1,51.0478,-114.0585
403,267,403267,Calgary,Alberta,AB,Canada,CA,T2P4H2,-7,-6,1,51.0478,-114.0585
403,267,403267,Calgary,Alberta,AB,Canada,CA,T2P0V3,-7,-6,1,51.0478,-114.0585
403,267,403267,Calgary,Alberta,AB,Canada,CA,T2P3L,-7,-6,1,51.0478,-114.0585
403,267,403267,Calgary,Alberta,AB,Canada,CA,T2P4A3,-7,-6,1,51.0478,-114.0585
403,267,403267,Calgary,Alberta,AB,Canada,CA,T2P3G6,-7,-6,1,51.0478,-114.0585
403,267,403267,Calgary,Alberta,AB,Canada,CA,T2E7Z2,-7,-6,1,51.0478,-114.0585
403,267,403267,Calgary,Alberta,AB,Canada,CA,T2P2W2,-7,-6,1,51.0478,-114.0585
403,267,403267,Calgary,Alberta,AB,Canada,CA,T2R0G7,-7,-6,1,51.0478,-114.0585
403,267,403267,Calgary,Alberta,AB,Canada,CA,T2P3V7,-7,-6,1,51.0478,-114.0585
403,267,403267,Calgary,Alberta,AB,Canada,CA,T2P3Y6,-7,-6,1,51.0478,-114.0585
403,267,403267,Calgary,Alberta,AB,Canada,CA,T2P4A,-7,-6,1,51.0478,-114.0585
403,268,403268,Calgary,Alberta,AB,Canada,CA,T2G2M3,-7,-6,1,51.0478,-114.0585
403,268,403268,Calgary,Alberta,AB,Canada,CA,T2N3Y9,-7,-6,1,51.0478,-114.0585
403,268,403268,Calgary,Alberta,AB,Canada,CA,T2P4X7,-7,-6,1,51.0478,-114.0585
403,268,403268,Calgary,Alberta,AB,Canada,CA,T2G0J1,-7,-6,1,51.0478,-114.0585
403,268,403268,Calgary,Alberta,AB,Canada,CA,T2G4K8,-7,-6,1,51.0478,-114.0585
403,268,403268,Calgary,Alberta,AB,Canada,CA,T2P4K3,-7,-6,1,51.0478,-114.0585
403,268,403268,Calgary,Alberta,AB,Canada,CA,T2G4H3,-7,-6,1,51.0478,-114.0585
403,268,403268,Calgary,Alberta,AB,Canada,CA,T2E0A,-7,-6,1,51.0478,-114.0585
403,268,403268,Calgary,Alberta,AB,Canada,CA,T2G0W2,-7,-6,1,51.0478,-114.0585
403,268,403268,Calgary,Alberta,AB,Canada,CA,T2A0K9,-7,-6,1,51.0478,-114.0585
403,268,403268,Calgary,Alberta,AB,Canada,CA,T2S1S6,-7,-6,1,51.0478,-114.0585
403,268,403268,Calgary,Alberta,AB,Canada,CA,T1Y1E1,-7,-6,1,51.0478,-114.0585
403,268,403268,Calgary,Alberta,AB,Canada,CA,T2G0K9,-7,-6,1,51.0478,-114.0585
403,268,403268,Calgary,Alberta,AB,Canada,CA,T2E8A1,-7,-6,1,51.0478,-114.0585
403,268,403268,Calgary,Alberta,AB,Canada,CA,T2V2W2,-7,-6,1,51.0478,-114.0585
403,268,403268,Calgary,Alberta,AB,Canada,CA,T2P2B5,-7,-6,1,51.0478,-114.0585
403,268,403268,Calgary,Alberta,AB,Canada,CA,T2P2M5,-7,-6,1,51.0478,-114.0585
403,268,403268,Calgary,Alberta,AB,Canada,CA,T2E0A1,-7,-6,1,51.0478,-114.0585
403,268,403268,Calgary,Alberta,AB,Canada,CA,T2P3Y7,-7,-6,1,51.0478,-114.0585
403,268,403268,Calgary,Alberta,AB,Canada,CA,T2G4Z1,-7,-6,1,51.0478,-114.0585
403,269,403269,Calgary,Alberta,AB,Canada,CA,T2P3E5,-7,-6,1,51.0478,-114.0585
403,269,403269,Calgary,Alberta,AB,Canada,CA,T2P2T9,-7,-6,1,51.0478,-114.0585
403,269,403269,Calgary,Alberta,AB,Canada,CA,T2G5G4,-7,-6,1,51.0478,-114.0585
403,269,403269,Calgary,Alberta,AB,Canada,CA,T2P1X5,-7,-6,1,51.0478,-114.0585
403,269,403269,Calgary,Alberta,AB,Canada,CA,T2P0G7,-7,-6,1,51.0478,-114.0585
403,269,403269,Calgary,Alberta,AB,Canada,CA,T2R0K3,-7,-6,1,51.0478,-114.0585
403,269,403269,Calgary,Alberta,AB,Canada,CA,T2G5A8,-7,-6,1,51.0478,-114.0585
403,269,403269,Calgary,Alberta,AB,Canada,CA,T2G4Z9,-7,-6,1,51.0478,-114.0585
403,269,403269,Calgary,Alberta,AB,Canada,CA,T2P2Z1,-7,-6,1,51.0478,-114.0585
403,269,403269,Calgary,Alberta,AB,Canada,CA,T2R1M1,-7,-6,1,51.0478,-114.0585
403,269,403269,Calgary,Alberta,AB,Canada,CA,T2P0Z3,-7,-6,1,51.0478,-114.0585
403,269,403269,Calgary,Alberta,AB,Canada,CA,T2R1K8,-7,-6,1,51.0478,-114.0585
403,269,403269,Calgary,Alberta,AB,Canada,CA,T2P3G8,-7,-6,1,51.0478,-114.0585
403,269,403269,Calgary,Alberta,AB,Canada,CA,T2P0J8,-7,-6,1,51.0478,-114.0585
403,269,403269,Calgary,Alberta,AB,Canada,CA,T2P3J4,-7,-6,1,51.0478,-114.0585
403,269,403269,Calgary,Alberta,AB,Canada,CA,T2G4T5,-7,-6,1,51.0478,-114.0585
403,269,403269,Calgary,Alberta,AB,Canada,CA,T2G0E4,-7,-6,1,51.0478,-114.0585
403,269,403269,Calgary,Alberta,AB,Canada,CA,T2R1H3,-7,-6,1,51.0478,-114.0585
403,269,403269,Calgary,Alberta,AB,Canada,CA,T2P2B3,-7,-6,1,51.0478,-114.0585
403,269,403269,Calgary,Alberta,AB,Canada,CA,T2P2A6,-7,-6,1,51.0478,-114.0585
403,270,403270,Calgary,Alberta,AB,Canada,CA,T2N3P7,-7,-6,1,51.0478,-114.0585
403,270,403270,Calgary,Alberta,AB,Canada,CA,T2N1V3,-7,-6,1,51.0478,-114.0585
403,270,403270,Calgary,Alberta,AB,Canada,CA,T2N1T7,-7,-6,1,51.0478,-114.0585
403,270,403270,Calgary,Alberta,AB,Canada,CA,T2N4T3,-7,-6,1,51.0478,-114.0585
403,270,403270,Calgary,Alberta,AB,Canada,CA,T2N0J3,-7,-6,1,51.0478,-114.0585
403,270,403270,Calgary,Alberta,AB,Canada,CA,T2N2A3,-7,-6,1,51.0478,-114.0585
403,270,403270,Calgary,Alberta,AB,Canada,CA,T2N0M8,-7,-6,1,51.0478,-114.0585
403,270,403270,Calgary,Alberta,AB,Canada,CA,T2N0J1,-7,-6,1,51.0478,-114.0585
403,270,403270,Calgary,Alberta,AB,Canada,CA,T2N1V7,-7,-6,1,51.0478,-114.0585
403,270,403270,Calgary,Alberta,AB,Canada,CA,T2N1V9,-7,-6,1,51.0478,-114.0585
403,270,403270,Calgary,Alberta,AB,Canada,CA,T3B4W1,-7,-6,1,51.0478,-114.0585
403,270,403270,Calgary,Alberta,AB,Canada,CA,T2N1V5,-7,-6,1,51.0478,-114.0585
403,270,403270,Calgary,Alberta,AB,Canada,CA,T2N3E,-7,-6,1,51.0478,-114.0585
403,270,403270,Calgary,Alberta,AB,Canada,CA,T2N1V8,-7,-6,1,51.0478,-114.0585
403,270,403270,Calgary,Alberta,AB,Canada,CA,T2N0A2,-7,-6,1,51.0478,-114.0585
403,270,403270,Calgary,Alberta,AB,Canada,CA,T2N0H4,-7,-6,1,51.0478,-114.0585
403,270,403270,Calgary,Alberta,AB,Canada,CA,T2N0Z3,-7,-6,1,51.0478,-114.0585
403,270,403270,Calgary,Alberta,AB,Canada,CA,T2N1X7,-7,-6,1,51.0478,-114.0585
403,270,403270,Calgary,Alberta,AB,Canada,CA,T2N2A1,-7,-6,1,51.0478,-114.0585
403,270,403270,Calgary,Alberta,AB,Canada,CA,T2N1Z6,-7,-6,1,51.0478,-114.0585
403,271,403271,Calgary,Alberta,AB,Canada,CA,T2W4Y1,-7,-6,1,51.0478,-114.0585
403,271,403271,Calgary,Alberta,AB,Canada,CA,T2J5J,-7,-6,1,51.0478,-114.0585
403,271,403271,Calgary,Alberta,AB,Canada,CA,T2J3K,-7,-6,1,51.0478,-114.0585
403,271,403271,Calgary,Alberta,AB,Canada,CA,T2J1Y6,-7,-6,1,51.0478,-114.0585
403,271,403271,Calgary,Alberta,AB,Canada,CA,T2J2S,-7,-6,1,51.0478,-114.0585
403,271,403271,Calgary,Alberta,AB,Canada,CA,T2J0L,-7,-6,1,51.0478,-114.0585
403,271,403271,Calgary,Alberta,AB,Canada,CA,T2J3E5,-7,-6,1,51.0478,-114.0585
403,271,403271,Calgary,Alberta,AB,Canada,CA,T2J6A5,-7,-6,1,51.0478,-114.0585
403,271,403271,Calgary,Alberta,AB,Canada,CA,T2J5Y,-7,-6,1,51.0478,-114.0585
403,271,403271,Calgary,Alberta,AB,Canada,CA,T2J3H,-7,-6,1,51.0478,-114.0585
403,271,403271,Calgary,Alberta,AB,Canada,CA,T2J3C8,-7,-6,1,51.0478,-114.0585
403,271,403271,Calgary,Alberta,AB,Canada,CA,T2J6G2,-7,-6,1,51.0478,-114.0585
403,271,403271,Calgary,Alberta,AB,Canada,CA,T2J2R,-7,-6,1,51.0478,-114.0585
403,271,403271,Calgary,Alberta,AB,Canada,CA,T2J0N3,-7,-6,1,51.0478,-114.0585
403,271,403271,Calgary,Alberta,AB,Canada,CA,T2J3P,-7,-6,1,51.0478,-114.0585
403,271,403271,Calgary,Alberta,AB,Canada,CA,T2J4H,-7,-6,1,51.0478,-114.0585
403,271,403271,Calgary,Alberta,AB,Canada,CA,T2J3V1,-7,-6,1,51.0478,-114.0585
403,271,403271,Calgary,Alberta,AB,Canada,CA,T2J6P,-7,-6,1,51.0478,-114.0585
403,271,403271,Calgary,Alberta,AB,Canada,CA,T2J2W,-7,-6,1,51.0478,-114.0585
403,271,403271,Calgary,Alberta,AB,Canada,CA,T2J5N8,-7,-6,1,51.0478,-114.0585
403,272,403272,Calgary,Alberta,AB,Canada,CA,T2P2G7,-7,-6,1,51.0478,-114.0585
403,272,403272,Calgary,Alberta,AB,Canada,CA,T2A2K2,-7,-6,1,51.0478,-114.0585
403,272,403272,Calgary,Alberta,AB,Canada,CA,T2A2W6,-7,-6,1,51.0478,-114.0585
403,272,403272,Calgary,Alberta,AB,Canada,CA,T2B0A3,-7,-6,1,51.0478,-114.0585
403,272,403272,Calgary,Alberta,AB,Canada,CA,T2A2P8,-7,-6,1,51.0478,-114.0585
403,272,403272,Calgary,Alberta,AB,Canada,CA,T2A7E,-7,-6,1,51.0478,-114.0585
403,272,403272,Calgary,Alberta,AB,Canada,CA,T2A0S8,-7,-6,1,51.0478,-114.0585
403,272,403272,Calgary,Alberta,AB,Canada,CA,T2A4H6,-7,-6,1,51.0478,-114.0585
403,272,403272,Calgary,Alberta,AB,Canada,CA,T2A6K3,-7,-6,1,51.0478,-114.0585
403,272,403272,Calgary,Alberta,AB,Canada,CA,T2B2W,-7,-6,1,51.0478,-114.0585
403,272,403272,Calgary,Alberta,AB,Canada,CA,T2A5H5,-7,-6,1,51.0478,-114.0585
403,272,403272,Calgary,Alberta,AB,Canada,CA,T2A2C2,-7,-6,1,51.0478,-114.0585
403,272,403272,Calgary,Alberta,AB,Canada,CA,T2A5Z8,-7,-6,1,51.0478,-114.0585
403,272,403272,Calgary,Alberta,AB,Canada,CA,T2B1V1,-7,-6,1,51.0478,-114.0585
403,272,403272,Calgary,Alberta,AB,Canada,CA,T2A5M,-7,-6,1,51.0478,-114.0585
403,272,403272,Calgary,Alberta,AB,Canada,CA,T2B1Y9,-7,-6,1,51.0478,-114.0585
403,272,403272,Calgary,Alberta,AB,Canada,CA,T2B2N5,-7,-6,1,51.0478,-114.0585
403,272,403272,Calgary,Alberta,AB,Canada,CA,T2A0W5,-7,-6,1,51.0478,-114.0585
403,272,403272,Calgary,Alberta,AB,Canada,CA,T2A0W6,-7,-6,1,51.0478,-114.0585
403,272,403272,Calgary,Alberta,AB,Canada,CA,T2B1T9,-7,-6,1,51.0478,-114.0585
403,273,403273,Calgary,Alberta,AB,Canada,CA,T2A5W7,-7,-6,1,51.0478,-114.0585
403,273,403273,Calgary,Alberta,AB,Canada,CA,T2B2W,-7,-6,1,51.0478,-114.0585
403,273,403273,Calgary,Alberta,AB,Canada,CA,T2A6L8,-7,-6,1,51.0478,-114.0585
403,273,403273,Calgary,Alberta,AB,Canada,CA,T2B1X5,-7,-6,1,51.0478,-114.0585
403,273,403273,Calgary,Alberta,AB,Canada,CA,T2A7E,-7,-6,1,51.0478,-114.0585
403,273,403273,Calgary,Alberta,AB,Canada,CA,T2A0W5,-7,-6,1,51.0478,-114.0585
403,273,403273,Calgary,Alberta,AB,Canada,CA,T2B1T9,-7,-6,1,51.0478,-114.0585
403,273,403273,Calgary,Alberta,AB,Canada,CA,T2A5C3,-7,-6,1,51.0478,-114.0585
403,273,403273,Calgary,Alberta,AB,Canada,CA,T2A4N7,-7,-6,1,51.0478,-114.0585
403,273,403273,Calgary,Alberta,AB,Canada,CA,T2A0W6,-7,-6,1,51.0478,-114.0585
403,273,403273,Calgary,Alberta,AB,Canada,CA,T2A5H5,-7,-6,1,51.0478,-114.0585
403,273,403273,Calgary,Alberta,AB,Canada,CA,T2B0A3,-7,-6,1,51.0478,-114.0585
403,273,403273,Calgary,Alberta,AB,Canada,CA,T2A0P9,-7,-6,1,51.0478,-114.0585
403,273,403273,Calgary,Alberta,AB,Canada,CA,T2A2R1,-7,-6,1,51.0478,-114.0585
403,273,403273,Calgary,Alberta,AB,Canada,CA,T2A5M,-7,-6,1,51.0478,-114.0585
403,273,403273,Calgary,Alberta,AB,Canada,CA,T2A5Z8,-7,-6,1,51.0478,-114.0585
403,273,403273,Calgary,Alberta,AB,Canada,CA,T2A2K2,-7,-6,1,51.0478,-114.0585
403,273,403273,Calgary,Alberta,AB,Canada,CA,T2B2N5,-7,-6,1,51.0478,-114.0585
403,273,403273,Calgary,Alberta,AB,Canada,CA,T2B1Y9,-7,-6,1,51.0478,-114.0585
403,273,403273,Calgary,Alberta,AB,Canada,CA,T2B1W6,-7,-6,1,51.0478,-114.0585
403,274,403274,Calgary,Alberta,AB,Canada,CA,T2K4H4,-7,-6,1,51.0478,-114.0585
403,274,403274,Calgary,Alberta,AB,Canada,CA,T2K4S6,-7,-6,1,51.0478,-114.0585
403,274,403274,Calgary,Alberta,AB,Canada,CA,T3K1P2,-7,-6,1,51.0478,-114.0585
403,274,403274,Calgary,Alberta,AB,Canada,CA,T3K1Y,-7,-6,1,51.0478,-114.0585
403,274,403274,Calgary,Alberta,AB,Canada,CA,T2K4G1,-7,-6,1,51.0478,-114.0585
403,274,403274,Calgary,Alberta,AB,Canada,CA,T2E7H7,-7,-6,1,51.0478,-114.0585
403,274,403274,Calgary,Alberta,AB,Canada,CA,T2K5A,-7,-6,1,51.0478,-114.0585
403,274,403274,Calgary,Alberta,AB,Canada,CA,T2K4H3,-7,-6,1,51.0478,-114.0585
403,274,403274,Calgary,Alberta,AB,Canada,CA,T2K5J4,-7,-6,1,51.0478,-114.0585
403,274,403274,Calgary,Alberta,AB,Canada,CA,T2K5S4,-7,-6,1,51.0478,-114.0585
403,274,403274,Calgary,Alberta,AB,Canada,CA,T3K3Z1,-7,-6,1,51.0478,-114.0585
403,274,403274,Calgary,Alberta,AB,Canada,CA,T2M4L4,-7,-6,1,51.0478,-114.0585
403,274,403274,Calgary,Alberta,AB,Canada,CA,T2K1B8,-7,-6,1,51.0478,-114.0585
403,274,403274,Calgary,Alberta,AB,Canada,CA,T2K5C,-7,-6,1,51.0478,-114.0585
403,274,403274,Calgary,Alberta,AB,Canada,CA,T3K3G7,-7,-6,1,51.0478,-114.0585
403,274,403274,Calgary,Alberta,AB,Canada,CA,T2K5S3,-7,-6,1,51.0478,-114.0585
403,274,403274,Calgary,Alberta,AB,Canada,CA,T2E7P4,-7,-6,1,51.0478,-114.0585
403,274,403274,Calgary,Alberta,AB,Canada,CA,T2K5Y5,-7,-6,1,51.0478,-114.0585
403,274,403274,Calgary,Alberta,AB,Canada,CA,T2K2T8,-7,-6,1,51.0478,-114.0585
403,274,403274,Calgary,Alberta,AB,Canada,CA,T2K4G2,-7,-6,1,51.0478,-114.0585
403,275,403275,Calgary,Alberta,AB,Canada,CA,T2K5C,-7,-6,1,51.0478,-114.0585
403,275,403275,Calgary,Alberta,AB,Canada,CA,T2K4R2,-7,-6,1,51.0478,-114.0585
403,275,403275,Calgary,Alberta,AB,Canada,CA,T3K3Z1,-7,-6,1,51.0478,-114.0585
403,275,403275,Calgary,Alberta,AB,Canada,CA,T2K5S4,-7,-6,1,51.0478,-114.0585
403,275,403275,Calgary,Alberta,AB,Canada,CA,T3K1J7,-7,-6,1,51.0478,-114.0585
403,275,403275,Calgary,Alberta,AB,Canada,CA,T2K2P1,-7,-6,1,51.0478,-114.0585
403,275,403275,Calgary,Alberta,AB,Canada,CA,T2K5J,-7,-6,1,51.0478,-114.0585
403,275,403275,Calgary,Alberta,AB,Canada,CA,T2K5J4,-7,-6,1,51.0478,-114.0585
403,275,403275,Calgary,Alberta,AB,Canada,CA,T2K3V4,-7,-6,1,51.0478,-114.0585
403,275,403275,Calgary,Alberta,AB,Canada,CA,T3K2B2,-7,-6,1,51.0478,-114.0585
403,275,403275,Calgary,Alberta,AB,Canada,CA,T3K3Z,-7,-6,1,51.0478,-114.0585
403,275,403275,Calgary,Alberta,AB,Canada,CA,T2K1B8,-7,-6,1,51.0478,-114.0585
403,275,403275,Calgary,Alberta,AB,Canada,CA,T3K1Y,-7,-6,1,51.0478,-114.0585
403,275,403275,Calgary,Alberta,AB,Canada,CA,T2E7P4,-7,-6,1,51.0478,-114.0585
403,275,403275,Calgary,Alberta,AB,Canada,CA,T2K5Y5,-7,-6,1,51.0478,-114.0585
403,275,403275,Calgary,Alberta,AB,Canada,CA,T3K2A8,-7,-6,1,51.0478,-114.0585
403,275,403275,Calgary,Alberta,AB,Canada,CA,T2K5X,-7,-6,1,51.0478,-114.0585
403,275,403275,Calgary,Alberta,AB,Canada,CA,T3K1P2,-7,-6,1,51.0478,-114.0585
403,275,403275,Calgary,Alberta,AB,Canada,CA,T2K5S3,-7,-6,1,51.0478,-114.0585
403,275,403275,Calgary,Alberta,AB,Canada,CA,T2K6J6,-7,-6,1,51.0478,-114.0585
403,276,403276,Calgary,Alberta,AB,Canada,CA,T2E0E5,-7,-6,1,51.0478,-114.0585
403,276,403276,Calgary,Alberta,AB,Canada,CA,T2E0J3,-7,-6,1,51.0478,-114.0585
403,276,403276,Calgary,Alberta,AB,Canada,CA,T2E3L6,-7,-6,1,51.0478,-114.0585
403,276,403276,Calgary,Alberta,AB,Canada,CA,T2E0B2,-7,-6,1,51.0478,-114.0585
403,276,403276,Calgary,Alberta,AB,Canada,CA,T2E7B3,-7,-6,1,51.0478,-114.0585
403,276,403276,Calgary,Alberta,AB,Canada,CA,T2E0T3,-7,-6,1,51.0478,-114.0585
403,276,403276,Calgary,Alberta,AB,Canada,CA,T2E2M7,-7,-6,1,51.0478,-114.0585
403,276,403276,Calgary,Alberta,AB,Canada,CA,T2E0L8,-7,-6,1,51.0478,-114.0585
403,276,403276,Calgary,Alberta,AB,Canada,CA,T2E2N4,-7,-6,1,51.0478,-114.0585
403,276,403276,Calgary,Alberta,AB,Canada,CA,T2E6V7,-7,-6,1,51.0478,-114.0585
403,276,403276,Calgary,Alberta,AB,Canada,CA,T2E6V9,-7,-6,1,51.0478,-114.0585
403,276,403276,Calgary,Alberta,AB,Canada,CA,T2K6B6,-7,-6,1,51.0478,-114.0585
403,276,403276,Calgary,Alberta,AB,Canada,CA,T2E1L9,-7,-6,1,51.0478,-114.0585
403,276,403276,Calgary,Alberta,AB,Canada,CA,T2K1A2,-7,-6,1,51.0478,-114.0585
403,276,403276,Calgary,Alberta,AB,Canada,CA,T2E0J4,-7,-6,1,51.0478,-114.0585
403,276,403276,Calgary,Alberta,AB,Canada,CA,T2E2W5,-7,-6,1,51.0478,-114.0585
403,276,403276,Calgary,Alberta,AB,Canada,CA,T2E7X3,-7,-6,1,51.0478,-114.0585
403,276,403276,Calgary,Alberta,AB,Canada,CA,T2E0S6,-7,-6,1,51.0478,-114.0585
403,276,403276,Calgary,Alberta,AB,Canada,CA,T2E0L7,-7,-6,1,51.0478,-114.0585
403,276,403276,Calgary,Alberta,AB,Canada,CA,T2E1L1,-7,-6,1,51.0478,-114.0585
403,277,403277,Calgary,Alberta,AB,Canada,CA,T2E3Z1,-7,-6,1,51.0478,-114.0585
403,277,403277,Calgary,Alberta,AB,Canada,CA,T2E0T3,-7,-6,1,51.0478,-114.0585
403,277,403277,Calgary,Alberta,AB,Canada,CA,T2E0K9,-7,-6,1,51.0478,-114.0585
403,277,403277,Calgary,Alberta,AB,Canada,CA,T2E0J4,-7,-6,1,51.0478,-114.0585
403,277,403277,Calgary,Alberta,AB,Canada,CA,T2E1L9,-7,-6,1,51.0478,-114.0585
403,277,403277,Calgary,Alberta,AB,Canada,CA,T2E1M9,-7,-6,1,51.0478,-114.0585
403,277,403277,Calgary,Alberta,AB,Canada,CA,T2E1L1,-7,-6,1,51.0478,-114.0585
403,277,403277,Calgary,Alberta,AB,Canada,CA,T2E0K6,-7,-6,1,51.0478,-114.0585
403,277,403277,Calgary,Alberta,AB,Canada,CA,T2E0E5,-7,-6,1,51.0478,-114.0585
403,277,403277,Calgary,Alberta,AB,Canada,CA,T2M2H7,-7,-6,1,51.0478,-114.0585
403,277,403277,Calgary,Alberta,AB,Canada,CA,T2E0H4,-7,-6,1,51.0478,-114.0585
403,277,403277,Calgary,Alberta,AB,Canada,CA,T2E0L9,-7,-6,1,51.0478,-114.0585
403,277,403277,Calgary,Alberta,AB,Canada,CA,T2E0L7,-7,-6,1,51.0478,-114.0585
403,277,403277,Calgary,Alberta,AB,Canada,CA,T2E2W5,-7,-6,1,51.0478,-114.0585
403,277,403277,Calgary,Alberta,AB,Canada,CA,T2E6V9,-7,-6,1,51.0478,-114.0585
403,277,403277,Calgary,Alberta,AB,Canada,CA,T2K1A2,-7,-6,1,51.0478,-114.0585
403,277,403277,Calgary,Alberta,AB,Canada,CA,T2E0S6,-7,-6,1,51.0478,-114.0585
403,277,403277,Calgary,Alberta,AB,Canada,CA,T2E7X3,-7,-6,1,51.0478,-114.0585
403,277,403277,Calgary,Alberta,AB,Canada,CA,T2E0E4,-7,-6,1,51.0478,-114.0585
403,277,403277,Calgary,Alberta,AB,Canada,CA,T2K6B6,-7,-6,1,51.0478,-114.0585
403,278,403278,Calgary,Alberta,AB,Canada,CA,T2W4Y1,-7,-6,1,51.0478,-114.0585
403,278,403278,Calgary,Alberta,AB,Canada,CA,T2J5J,-7,-6,1,51.0478,-114.0585
403,278,403278,Calgary,Alberta,AB,Canada,CA,T2J5S9,-7,-6,1,51.0478,-114.0585
403,278,403278,Calgary,Alberta,AB,Canada,CA,T2J7C2,-7,-6,1,51.0478,-114.0585
403,278,403278,Calgary,Alberta,AB,Canada,CA,T2J2X8,-7,-6,1,51.0478,-114.0585
403,278,403278,Calgary,Alberta,AB,Canada,CA,T2J6P,-7,-6,1,51.0478,-114.0585
403,278,403278,Calgary,Alberta,AB,Canada,CA,T2J5L7,-7,-6,1,51.0478,-114.0585
403,278,403278,Calgary,Alberta,AB,Canada,CA,T2J3E,-7,-6,1,51.0478,-114.0585
403,278,403278,Calgary,Alberta,AB,Canada,CA,T2J6B9,-7,-6,1,51.0478,-114.0585
403,278,403278,Calgary,Alberta,AB,Canada,CA,T2J3C8,-7,-6,1,51.0478,-114.0585
403,278,403278,Calgary,Alberta,AB,Canada,CA,T2J3V1,-7,-6,1,51.0478,-114.0585
403,278,403278,Calgary,Alberta,AB,Canada,CA,T2J6A5,-7,-6,1,51.0478,-114.0585
403,278,403278,Calgary,Alberta,AB,Canada,CA,T2J6R5,-7,-6,1,51.0478,-114.0585
403,278,403278,Calgary,Alberta,AB,Canada,CA,T2J4H,-7,-6,1,51.0478,-114.0585
403,278,403278,Calgary,Alberta,AB,Canada,CA,T2J3P,-7,-6,1,51.0478,-114.0585
403,278,403278,Calgary,Alberta,AB,Canada,CA,T2J0N3,-7,-6,1,51.0478,-114.0585
403,278,403278,Calgary,Alberta,AB,Canada,CA,T2J5N8,-7,-6,1,51.0478,-114.0585
403,278,403278,Calgary,Alberta,AB,Canada,CA,T2J7E,-7,-6,1,51.0478,-114.0585
403,278,403278,Calgary,Alberta,AB,Canada,CA,T2J2S,-7,-6,1,51.0478,-114.0585
403,278,403278,Calgary,Alberta,AB,Canada,CA,T2J3A,-7,-6,1,51.0478,-114.0585
403,279,403279,Calgary,Alberta,AB,Canada,CA,T2P2G6,-7,-6,1,51.0478,-114.0585
403,279,403279,Calgary,Alberta,AB,Canada,CA,T2Z2K,-7,-6,1,51.0478,-114.0585
403,279,403279,Calgary,Alberta,AB,Canada,CA,T2P2G7,-7,-6,1,51.0478,-114.0585
403,279,403279,Calgary,Alberta,AB,Canada,CA,T2C4A7,-7,-6,1,51.0478,-114.0585
403,279,403279,Calgary,Alberta,AB,Canada,CA,T2Z2G,-7,-6,1,51.0478,-114.0585
403,279,403279,Calgary,Alberta,AB,Canada,CA,T2C0P5,-7,-6,1,51.0478,-114.0585
403,279,403279,Calgary,Alberta,AB,Canada,CA,T2C2W3,-7,-6,1,51.0478,-114.0585
403,279,403279,Calgary,Alberta,AB,Canada,CA,T2Z2A,-7,-6,1,51.0478,-114.0585
403,279,403279,Calgary,Alberta,AB,Canada,CA,T2C4H8,-7,-6,1,51.0478,-114.0585
403,279,403279,Calgary,Alberta,AB,Canada,CA,T2Z2H,-7,-6,1,51.0478,-114.0585
403,279,403279,Calgary,Alberta,AB,Canada,CA,T2C1H5,-7,-6,1,51.0478,-114.0585
403,279,403279,Calgary,Alberta,AB,Canada,CA,T2Z2E,-7,-6,1,51.0478,-114.0585
403,279,403279,Calgary,Alberta,AB,Canada,CA,T2C1N6,-7,-6,1,51.0478,-114.0585
403,279,403279,Calgary,Alberta,AB,Canada,CA,T2C0C6,-7,-6,1,51.0478,-114.0585
403,279,403279,Calgary,Alberta,AB,Canada,CA,T2C2C,-7,-6,1,51.0478,-114.0585
403,279,403279,Calgary,Alberta,AB,Canada,CA,T2Z2C9,-7,-6,1,51.0478,-114.0585
403,279,403279,Calgary,Alberta,AB,Canada,CA,T2C2G,-7,-6,1,51.0478,-114.0585
403,279,403279,Calgary,Alberta,AB,Canada,CA,T2C2H4,-7,-6,1,51.0478,-114.0585
403,279,403279,Calgary,Alberta,AB,Canada,CA,T2C1H6,-7,-6,1,51.0478,-114.0585
403,279,403279,Calgary,Alberta,AB,Canada,CA,T2C1X,-7,-6,1,51.0478,-114.0585
403,280,403280,Calgary,Alberta,AB,Canada,CA,T1Y3V,-7,-6,1,51.0478,-114.0585
403,280,403280,Calgary,Alberta,AB,Canada,CA,T1Y4S4,-7,-6,1,51.0478,-114.0585
403,280,403280,Calgary,Alberta,AB,Canada,CA,T1Y1P1,-7,-6,1,51.0478,-114.0585
403,280,403280,Calgary,Alberta,AB,Canada,CA,T1Y3B6,-7,-6,1,51.0478,-114.0585
403,280,403280,Calgary,Alberta,AB,Canada,CA,T2M4L5,-7,-6,1,51.0478,-114.0585
403,280,403280,Calgary,Alberta,AB,Canada,CA,T3J1A9,-7,-6,1,51.0478,-114.0585
403,280,403280,Calgary,Alberta,AB,Canada,CA,T1Y4X7,-7,-6,1,51.0478,-114.0585
403,280,403280,Calgary,Alberta,AB,Canada,CA,T1Y5T4,-7,-6,1,51.0478,-114.0585
403,280,403280,Calgary,Alberta,AB,Canada,CA,T1Y6K1,-7,-6,1,51.0478,-114.0585
403,280,403280,Calgary,Alberta,AB,Canada,CA,T1Y4R6,-7,-6,1,51.0478,-114.0585
403,280,403280,Calgary,Alberta,AB,Canada,CA,T1Y3Z,-7,-6,1,51.0478,-114.0585
403,280,403280,Calgary,Alberta,AB,Canada,CA,T1Y3Z8,-7,-6,1,51.0478,-114.0585
403,280,403280,Calgary,Alberta,AB,Canada,CA,T1Y3R7,-7,-6,1,51.0478,-114.0585
403,280,403280,Calgary,Alberta,AB,Canada,CA,T1Y6K5,-7,-6,1,51.0478,-114.0585
403,280,403280,Calgary,Alberta,AB,Canada,CA,T3J1V9,-7,-6,1,51.0478,-114.0585
403,280,403280,Calgary,Alberta,AB,Canada,CA,T1Y2M2,-7,-6,1,51.0478,-114.0585
403,280,403280,Calgary,Alberta,AB,Canada,CA,T3J1L,-7,-6,1,51.0478,-114.0585
403,280,403280,Calgary,Alberta,AB,Canada,CA,T1Y4W8,-7,-6,1,51.0478,-114.0585
403,280,403280,Calgary,Alberta,AB,Canada,CA,T1Y4M7,-7,-6,1,51.0478,-114.0585
403,280,403280,Calgary,Alberta,AB,Canada,CA,T1Y4K8,-7,-6,1,51.0478,-114.0585
403,281,403281,Calgary,Alberta,AB,Canada,CA,T2W1H,-7,-6,1,51.0478,-114.0585
403,281,403281,Calgary,Alberta,AB,Canada,CA,T2W3N,-7,-6,1,51.0478,-114.0585
403,281,403281,Calgary,Alberta,AB,Canada,CA,T2W1X6,-7,-6,1,51.0478,-114.0585
403,281,403281,Calgary,Alberta,AB,Canada,CA,T2W2G7,-7,-6,1,51.0478,-114.0585
403,281,403281,Calgary,Alberta,AB,Canada,CA,T2W1G8,-7,-6,1,51.0478,-114.0585
403,281,403281,Calgary,Alberta,AB,Canada,CA,T2W3E7,-7,-6,1,51.0478,-114.0585
403,281,403281,Calgary,Alberta,AB,Canada,CA,T2W3M,-7,-6,1,51.0478,-114.0585
403,281,403281,Calgary,Alberta,AB,Canada,CA,T2V4X8,-7,-6,1,51.0478,-114.0585
403,281,403281,Calgary,Alberta,AB,Canada,CA,T2V4N,-7,-6,1,51.0478,-114.0585
403,281,403281,Calgary,Alberta,AB,Canada,CA,T2V3N8,-7,-6,1,51.0478,-114.0585
403,281,403281,Calgary,Alberta,AB,Canada,CA,T2W3E,-7,-6,1,51.0478,-114.0585
403,281,403281,Calgary,Alberta,AB,Canada,CA,T2W5H1,-7,-6,1,51.0478,-114.0585
403,281,403281,Calgary,Alberta,AB,Canada,CA,T2V1S5,-7,-6,1,51.0478,-114.0585
403,281,403281,Calgary,Alberta,AB,Canada,CA,T2W2P,-7,-6,1,51.0478,-114.0585
403,281,403281,Calgary,Alberta,AB,Canada,CA,T2V0K6,-7,-6,1,51.0478,-114.0585
403,281,403281,Calgary,Alberta,AB,Canada,CA,T2V0X6,-7,-6,1,51.0478,-114.0585
403,281,403281,Calgary,Alberta,AB,Canada,CA,T2V0X5,-7,-6,1,51.0478,-114.0585
403,281,403281,Calgary,Alberta,AB,Canada,CA,T2W2S,-7,-6,1,51.0478,-114.0585
403,281,403281,Calgary,Alberta,AB,Canada,CA,T2V3S,-7,-6,1,51.0478,-114.0585
403,281,403281,Calgary,Alberta,AB,Canada,CA,T2W2T8,-7,-6,1,51.0478,-114.0585
403,282,403282,Calgary,Alberta,AB,Canada,CA,T2K1P1,-7,-6,1,51.0478,-114.0585
403,282,403282,Calgary,Alberta,AB,Canada,CA,T2L1Y,-7,-6,1,51.0478,-114.0585
403,282,403282,Calgary,Alberta,AB,Canada,CA,T2N4M1,-7,-6,1,51.0478,-114.0585
403,282,403282,Calgary,Alberta,AB,Canada,CA,T2L1T6,-7,-6,1,51.0478,-114.0585
403,282,403282,Calgary,Alberta,AB,Canada,CA,T2N0Z6,-7,-6,1,51.0478,-114.0585
403,282,403282,Calgary,Alberta,AB,Canada,CA,T2N4K,-7,-6,1,51.0478,-114.0585
403,282,403282,Calgary,Alberta,AB,Canada,CA,T2N4L7,-7,-6,1,51.0478,-114.0585
403,282,403282,Calgary,Alberta,AB,Canada,CA,T2L2K,-7,-6,1,51.0478,-114.0585
403,282,403282,Calgary,Alberta,AB,Canada,CA,T2L1V9,-7,-6,1,51.0478,-114.0585
403,282,403282,Calgary,Alberta,AB,Canada,CA,T3B2V3,-7,-6,1,51.0478,-114.0585
403,282,403282,Calgary,Alberta,AB,Canada,CA,T2N1C3,-7,-6,1,51.0478,-114.0585
403,282,403282,Calgary,Alberta,AB,Canada,CA,T2L2A5,-7,-6,1,51.0478,-114.0585
403,282,403282,Calgary,Alberta,AB,Canada,CA,T2L1B4,-7,-6,1,51.0478,-114.0585
403,282,403282,Calgary,Alberta,AB,Canada,CA,T2N4C,-7,-6,1,51.0478,-114.0585
403,282,403282,Calgary,Alberta,AB,Canada,CA,T2M4R7,-7,-6,1,51.0478,-114.0585
403,282,403282,Calgary,Alberta,AB,Canada,CA,T2N1M7,-7,-6,1,51.0478,-114.0585
403,282,403282,Calgary,Alberta,AB,Canada,CA,T2N1C6,-7,-6,1,51.0478,-114.0585
403,282,403282,Calgary,Alberta,AB,Canada,CA,T2K5S5,-7,-6,1,51.0478,-114.0585
403,282,403282,Calgary,Alberta,AB,Canada,CA,T2L1K8,-7,-6,1,51.0478,-114.0585
403,282,403282,Calgary,Alberta,AB,Canada,CA,T2L2A4,-7,-6,1,51.0478,-114.0585
403,283,403283,Calgary,Alberta,AB,Canada,CA,T2N1Z6,-7,-6,1,51.0478,-114.0585
403,283,403283,Calgary,Alberta,AB,Canada,CA,T2N1V5,-7,-6,1,51.0478,-114.0585
403,283,403283,Calgary,Alberta,AB,Canada,CA,T2N0E3,-7,-6,1,51.0478,-114.0585
403,283,403283,Calgary,Alberta,AB,Canada,CA,T2N2A3,-7,-6,1,51.0478,-114.0585
403,283,403283,Calgary,Alberta,AB,Canada,CA,T2N1Z2,-7,-6,1,51.0478,-114.0585
403,283,403283,Calgary,Alberta,AB,Canada,CA,T3B5B3,-7,-6,1,51.0478,-114.0585
403,283,403283,Calgary,Alberta,AB,Canada,CA,T2N3P9,-7,-6,1,51.0478,-114.0585
403,283,403283,Calgary,Alberta,AB,Canada,CA,T2N2A1,-7,-6,1,51.0478,-114.0585
403,283,403283,Calgary,Alberta,AB,Canada,CA,T2N3E,-7,-6,1,51.0478,-114.0585
403,283,403283,Calgary,Alberta,AB,Canada,CA,T2N1X7,-7,-6,1,51.0478,-114.0585
403,283,403283,Calgary,Alberta,AB,Canada,CA,T3B4W1,-7,-6,1,51.0478,-114.0585
403,283,403283,Calgary,Alberta,AB,Canada,CA,T2N0M8,-7,-6,1,51.0478,-114.0585
403,283,403283,Calgary,Alberta,AB,Canada,CA,T2N1Z3,-7,-6,1,51.0478,-114.0585
403,283,403283,Calgary,Alberta,AB,Canada,CA,T2N0J3,-7,-6,1,51.0478,-114.0585
403,283,403283,Calgary,Alberta,AB,Canada,CA,T2N0A5,-7,-6,1,51.0478,-114.0585
403,283,403283,Calgary,Alberta,AB,Canada,CA,T2N0E7,-7,-6,1,51.0478,-114.0585
403,283,403283,Calgary,Alberta,AB,Canada,CA,T2N1V9,-7,-6,1,51.0478,-114.0585
403,283,403283,Calgary,Alberta,AB,Canada,CA,T2N0J1,-7,-6,1,51.0478,-114.0585
403,283,403283,Calgary,Alberta,AB,Canada,CA,T2N0Z3,-7,-6,1,51.0478,-114.0585
403,283,403283,Calgary,Alberta,AB,Canada,CA,T2N2A4,-7,-6,1,51.0478,-114.0585
403,284,403284,Calgary,Alberta,AB,Canada,CA,T2L1Y,-7,-6,1,51.0478,-114.0585
403,284,403284,Calgary,Alberta,AB,Canada,CA,T2N1C3,-7,-6,1,51.0478,-114.0585
403,284,403284,Calgary,Alberta,AB,Canada,CA,T2K6B7,-7,-6,1,51.0478,-114.0585
403,284,403284,Calgary,Alberta,AB,Canada,CA,T2M0K5,-7,-6,1,51.0478,-114.0585
403,284,403284,Calgary,Alberta,AB,Canada,CA,T2M1L4,-7,-6,1,51.0478,-114.0585
403,284,403284,Calgary,Alberta,AB,Canada,CA,T2N1M7,-7,-6,1,51.0478,-114.0585
403,284,403284,Calgary,Alberta,AB,Canada,CA,T2L0G,-7,-6,1,51.0478,-114.0585
403,284,403284,Calgary,Alberta,AB,Canada,CA,T2N1C4,-7,-6,1,51.0478,-114.0585
403,284,403284,Calgary,Alberta,AB,Canada,CA,T2N4M5,-7,-6,1,51.0478,-114.0585
403,284,403284,Calgary,Alberta,AB,Canada,CA,T3B2V4,-7,-6,1,51.0478,-114.0585
403,284,403284,Calgary,Alberta,AB,Canada,CA,T2M4R7,-7,-6,1,51.0478,-114.0585
403,284,403284,Calgary,Alberta,AB,Canada,CA,T2N4K,-7,-6,1,51.0478,-114.0585
403,284,403284,Calgary,Alberta,AB,Canada,CA,T2L2A4,-7,-6,1,51.0478,-114.0585
403,284,403284,Calgary,Alberta,AB,Canada,CA,T3B2V3,-7,-6,1,51.0478,-114.0585
403,284,403284,Calgary,Alberta,AB,Canada,CA,T2N4C,-7,-6,1,51.0478,-114.0585
403,284,403284,Calgary,Alberta,AB,Canada,CA,T2N4M1,-7,-6,1,51.0478,-114.0585
403,284,403284,Calgary,Alberta,AB,Canada,CA,T2N1C6,-7,-6,1,51.0478,-114.0585
403,284,403284,Calgary,Alberta,AB,Canada,CA,T2K5S5,-7,-6,1,51.0478,-114.0585
403,284,403284,Calgary,Alberta,AB,Canada,CA,T2L1K8,-7,-6,1,51.0478,-114.0585
403,284,403284,Calgary,Alberta,AB,Canada,CA,T2L2A5,-7,-6,1,51.0478,-114.0585
403,285,403285,Calgary,Alberta,AB,Canada,CA,T2M4L5,-7,-6,1,51.0478,-114.0585
403,285,403285,Calgary,Alberta,AB,Canada,CA,T1Y4M7,-7,-6,1,51.0478,-114.0585
403,285,403285,Calgary,Alberta,AB,Canada,CA,T1Y6K5,-7,-6,1,51.0478,-114.0585
403,285,403285,Calgary,Alberta,AB,Canada,CA,T1Y6S3,-7,-6,1,51.0478,-114.0585
403,285,403285,Calgary,Alberta,AB,Canada,CA,T1Y3A5,-7,-6,1,51.0478,-114.0585
403,285,403285,Calgary,Alberta,AB,Canada,CA,T1Y4K8,-7,-6,1,51.0478,-114.0585
403,285,403285,Calgary,Alberta,AB,Canada,CA,T1Y1J1,-7,-6,1,51.0478,-114.0585
403,285,403285,Calgary,Alberta,AB,Canada,CA,T1Y6S2,-7,-6,1,51.0478,-114.0585
403,285,403285,Calgary,Alberta,AB,Canada,CA,T3J1X2,-7,-6,1,51.0478,-114.0585
403,285,403285,Calgary,Alberta,AB,Canada,CA,T1Y4P5,-7,-6,1,51.0478,-114.0585
403,285,403285,Calgary,Alberta,AB,Canada,CA,T1Y2X7,-7,-6,1,51.0478,-114.0585
403,285,403285,Calgary,Alberta,AB,Canada,CA,T1Y3Z8,-7,-6,1,51.0478,-114.0585
403,285,403285,Calgary,Alberta,AB,Canada,CA,T1Y6K3,-7,-6,1,51.0478,-114.0585
403,285,403285,Calgary,Alberta,AB,Canada,CA,T1Y5K3,-7,-6,1,51.0478,-114.0585
403,285,403285,Calgary,Alberta,AB,Canada,CA,T1Y2M2,-7,-6,1,51.0478,-114.0585
403,285,403285,Calgary,Alberta,AB,Canada,CA,T1Y3Z,-7,-6,1,51.0478,-114.0585
403,285,403285,Calgary,Alberta,AB,Canada,CA,T2P2G7,-7,-6,1,51.0478,-114.0585
403,285,403285,Calgary,Alberta,AB,Canada,CA,T1Y5T4,-7,-6,1,51.0478,-114.0585
403,285,403285,Calgary,Alberta,AB,Canada,CA,T3J1E,-7,-6,1,51.0478,-114.0585
403,285,403285,Calgary,Alberta,AB,Canada,CA,T1Y4S4,-7,-6,1,51.0478,-114.0585
403,286,403286,Calgary,Alberta,AB,Canada,CA,T3A2N1,-7,-6,1,51.0478,-114.0585
403,286,403286,Calgary,Alberta,AB,Canada,CA,T3A0Z,-7,-6,1,51.0478,-114.0585
403,286,403286,Calgary,Alberta,AB,Canada,CA,T3B3Y,-7,-6,1,51.0478,-114.0585
403,286,403286,Calgary,Alberta,AB,Canada,CA,T3A2E4,-7,-6,1,51.0478,-114.0585
403,286,403286,Calgary,Alberta,AB,Canada,CA,T3A2B,-7,-6,1,51.0478,-114.0585
403,286,403286,Calgary,Alberta,AB,Canada,CA,T3A2C6,-7,-6,1,51.0478,-114.0585
403,286,403286,Calgary,Alberta,AB,Canada,CA,T3A2C9,-7,-6,1,51.0478,-114.0585
403,286,403286,Calgary,Alberta,AB,Canada,CA,T3A1T6,-7,-6,1,51.0478,-114.0585
403,286,403286,Calgary,Alberta,AB,Canada,CA,T3B3C,-7,-6,1,51.0478,-114.0585
403,286,403286,Calgary,Alberta,AB,Canada,CA,T3A0E2,-7,-6,1,51.0478,-114.0585
403,286,403286,Calgary,Alberta,AB,Canada,CA,T3A2E,-7,-6,1,51.0478,-114.0585
403,286,403286,Calgary,Alberta,AB,Canada,CA,T3B4N,-7,-6,1,51.0478,-114.0585
403,286,403286,Calgary,Alberta,AB,Canada,CA,T3B5G,-7,-6,1,51.0478,-114.0585
403,286,403286,Calgary,Alberta,AB,Canada,CA,T3A3H,-7,-6,1,51.0478,-114.0585
403,286,403286,Calgary,Alberta,AB,Canada,CA,T2L2J8,-7,-6,1,51.0478,-114.0585
403,286,403286,Calgary,Alberta,AB,Canada,CA,T3B5H,-7,-6,1,51.0478,-114.0585
403,286,403286,Calgary,Alberta,AB,Canada,CA,T3B2B9,-7,-6,1,51.0478,-114.0585
403,286,403286,Calgary,Alberta,AB,Canada,CA,T3A2H4,-7,-6,1,51.0478,-114.0585
403,286,403286,Calgary,Alberta,AB,Canada,CA,T3A2M9,-7,-6,1,51.0478,-114.0585
403,286,403286,Calgary,Alberta,AB,Canada,CA,T3A2V,-7,-6,1,51.0478,-114.0585
403,287,403287,Calgary,Alberta,AB,Canada,CA,T2S0R6,-7,-6,1,51.0478,-114.0585
403,287,403287,Calgary,Alberta,AB,Canada,CA,T2S1T8,-7,-6,1,51.0478,-114.0585
403,287,403287,Calgary,Alberta,AB,Canada,CA,T2T3Y1,-7,-6,1,51.0478,-114.0585
403,287,403287,Calgary,Alberta,AB,Canada,CA,T2T2J3,-7,-6,1,51.0478,-114.0585
403,287,403287,Calgary,Alberta,AB,Canada,CA,T2G2L3,-7,-6,1,51.0478,-114.0585
403,287,403287,Calgary,Alberta,AB,Canada,CA,T2G4E6,-7,-6,1,51.0478,-114.0585
403,287,403287,Calgary,Alberta,AB,Canada,CA,T2G4C2,-7,-6,1,51.0478,-114.0585
403,287,403287,Calgary,Alberta,AB,Canada,CA,T3E5G3,-7,-6,1,51.0478,-114.0585
403,287,403287,Calgary,Alberta,AB,Canada,CA,T2G2A5,-7,-6,1,51.0478,-114.0585
403,287,403287,Calgary,Alberta,AB,Canada,CA,T2S1Z,-7,-6,1,51.0478,-114.0585
403,287,403287,Calgary,Alberta,AB,Canada,CA,T2G2R7,-7,-6,1,51.0478,-114.0585
403,287,403287,Calgary,Alberta,AB,Canada,CA,T3E1R8,-7,-6,1,51.0478,-114.0585
403,287,403287,Calgary,Alberta,AB,Canada,CA,T2G4B7,-7,-6,1,51.0478,-114.0585
403,287,403287,Calgary,Alberta,AB,Canada,CA,T2G2Y8,-7,-6,1,51.0478,-114.0585
403,287,403287,Calgary,Alberta,AB,Canada,CA,T2G4A7,-7,-6,1,51.0478,-114.0585
403,287,403287,Calgary,Alberta,AB,Canada,CA,T3E5G8,-7,-6,1,51.0478,-114.0585
403,287,403287,Calgary,Alberta,AB,Canada,CA,T2S1R3,-7,-6,1,51.0478,-114.0585
403,287,403287,Calgary,Alberta,AB,Canada,CA,T2G1X6,-7,-6,1,51.0478,-114.0585
403,287,403287,Calgary,Alberta,AB,Canada,CA,T2S2R2,-7,-6,1,51.0478,-114.0585
403,287,403287,Calgary,Alberta,AB,Canada,CA,T2G4C8,-7,-6,1,51.0478,-114.0585
403,288,403288,Calgary,Alberta,AB,Canada,CA,T3B2W,-7,-6,1,51.0478,-114.0585
403,288,403288,Calgary,Alberta,AB,Canada,CA,T3A2V,-7,-6,1,51.0478,-114.0585
403,288,403288,Calgary,Alberta,AB,Canada,CA,T3B2A6,-7,-6,1,51.0478,-114.0585
403,288,403288,Calgary,Alberta,AB,Canada,CA,T3B5H,-7,-6,1,51.0478,-114.0585
403,288,403288,Calgary,Alberta,AB,Canada,CA,T3A2H4,-7,-6,1,51.0478,-114.0585
403,288,403288,Calgary,Alberta,AB,Canada,CA,T3A1M3,-7,-6,1,51.0478,-114.0585
403,288,403288,Calgary,Alberta,AB,Canada,CA,T3A2M9,-7,-6,1,51.0478,-114.0585
403,288,403288,Calgary,Alberta,AB,Canada,CA,T3B3C,-7,-6,1,51.0478,-114.0585
403,288,403288,Calgary,Alberta,AB,Canada,CA,T3A2V9,-7,-6,1,51.0478,-114.0585
403,288,403288,Calgary,Alberta,AB,Canada,CA,T3A0E2,-7,-6,1,51.0478,-114.0585
403,288,403288,Calgary,Alberta,AB,Canada,CA,T3B2B9,-7,-6,1,51.0478,-114.0585
403,288,403288,Calgary,Alberta,AB,Canada,CA,T3A2E1,-7,-6,1,51.0478,-114.0585
403,288,403288,Calgary,Alberta,AB,Canada,CA,T2L2J8,-7,-6,1,51.0478,-114.0585
403,288,403288,Calgary,Alberta,AB,Canada,CA,T3B4N,-7,-6,1,51.0478,-114.0585
403,288,403288,Calgary,Alberta,AB,Canada,CA,T3B5G,-7,-6,1,51.0478,-114.0585
403,288,403288,Calgary,Alberta,AB,Canada,CA,T2P2G5,-7,-6,1,51.0478,-114.0585
403,288,403288,Calgary,Alberta,AB,Canada,CA,T3A2E,-7,-6,1,51.0478,-114.0585
403,288,403288,Calgary,Alberta,AB,Canada,CA,T3B1M2,-7,-6,1,51.0478,-114.0585
403,288,403288,Calgary,Alberta,AB,Canada,CA,T3B4R6,-7,-6,1,51.0478,-114.0585
403,288,403288,Calgary,Alberta,AB,Canada,CA,T3A0V2,-7,-6,1,51.0478,-114.0585
403,289,403289,Calgary,Alberta,AB,Canada,CA,T2N1C6,-7,-6,1,51.0478,-114.0585
403,289,403289,Calgary,Alberta,AB,Canada,CA,T2M4N1,-7,-6,1,51.0478,-114.0585
403,289,403289,Calgary,Alberta,AB,Canada,CA,T2M1L4,-7,-6,1,51.0478,-114.0585
403,289,403289,Calgary,Alberta,AB,Canada,CA,T2M0P7,-7,-6,1,51.0478,-114.0585
403,289,403289,Calgary,Alberta,AB,Canada,CA,T2L0G,-7,-6,1,51.0478,-114.0585
403,289,403289,Calgary,Alberta,AB,Canada,CA,T2L2A5,-7,-6,1,51.0478,-114.0585
403,289,403289,Calgary,Alberta,AB,Canada,CA,T2K1Z5,-7,-6,1,51.0478,-114.0585
403,289,403289,Calgary,Alberta,AB,Canada,CA,T2L2A4,-7,-6,1,51.0478,-114.0585
403,289,403289,Calgary,Alberta,AB,Canada,CA,T2L1Y,-7,-6,1,51.0478,-114.0585
403,289,403289,Calgary,Alberta,AB,Canada,CA,T3B2V4,-7,-6,1,51.0478,-114.0585
403,289,403289,Calgary,Alberta,AB,Canada,CA,T3B2V3,-7,-6,1,51.0478,-114.0585
403,289,403289,Calgary,Alberta,AB,Canada,CA,T2K5S5,-7,-6,1,51.0478,-114.0585
403,289,403289,Calgary,Alberta,AB,Canada,CA,T2N4M1,-7,-6,1,51.0478,-114.0585
403,289,403289,Calgary,Alberta,AB,Canada,CA,T2M4R7,-7,-6,1,51.0478,-114.0585
403,289,403289,Calgary,Alberta,AB,Canada,CA,T2L1B4,-7,-6,1,51.0478,-114.0585
403,289,403289,Calgary,Alberta,AB,Canada,CA,T2N1C3,-7,-6,1,51.0478,-114.0585
403,289,403289,Calgary,Alberta,AB,Canada,CA,T2L1K8,-7,-6,1,51.0478,-114.0585
403,289,403289,Calgary,Alberta,AB,Canada,CA,T2N1M7,-7,-6,1,51.0478,-114.0585
403,289,403289,Calgary,Alberta,AB,Canada,CA,T2N4C,-7,-6,1,51.0478,-114.0585
403,289,403289,Calgary,Alberta,AB,Canada,CA,T2N1C4,-7,-6,1,51.0478,-114.0585
403,290,403290,Calgary,Alberta,AB,Canada,CA,T2P3P7,-7,-6,1,51.0478,-114.0585
403,290,403290,Calgary,Alberta,AB,Canada,CA,T2P0T8,-7,-6,1,51.0478,-114.0585
403,290,403290,Calgary,Alberta,AB,Canada,CA,T2P1A4,-7,-6,1,51.0478,-114.0585
403,290,403290,Calgary,Alberta,AB,Canada,CA,T2P1A9,-7,-6,1,51.0478,-114.0585
403,290,403290,Calgary,Alberta,AB,Canada,CA,T2P3T8,-7,-6,1,51.0478,-114.0585
403,290,403290,Calgary,Alberta,AB,Canada,CA,T2G4Z9,-7,-6,1,51.0478,-114.0585
403,290,403290,Calgary,Alberta,AB,Canada,CA,T2P4H2,-7,-6,1,51.0478,-114.0585
403,290,403290,Calgary,Alberta,AB,Canada,CA,T2P4R5,-7,-6,1,51.0478,-114.0585
403,290,403290,Calgary,Alberta,AB,Canada,CA,T2G5E1,-7,-6,1,51.0478,-114.0585
403,290,403290,Calgary,Alberta,AB,Canada,CA,T2P3N9,-7,-6,1,51.0478,-114.0585
403,290,403290,Calgary,Alberta,AB,Canada,CA,T2R1H3,-7,-6,1,51.0478,-114.0585
403,290,403290,Calgary,Alberta,AB,Canada,CA,T2G4V3,-7,-6,1,51.0478,-114.0585
403,290,403290,Calgary,Alberta,AB,Canada,CA,T2R1L9,-7,-6,1,51.0478,-114.0585
403,290,403290,Calgary,Alberta,AB,Canada,CA,T2P3P8,-7,-6,1,51.0478,-114.0585
403,290,403290,Calgary,Alberta,AB,Canada,CA,T2R0K3,-7,-6,1,51.0478,-114.0585
403,290,403290,Calgary,Alberta,AB,Canada,CA,T2P3H7,-7,-6,1,51.0478,-114.0585
403,290,403290,Calgary,Alberta,AB,Canada,CA,T2P1C2,-7,-6,1,51.0478,-114.0585
403,290,403290,Calgary,Alberta,AB,Canada,CA,T2P3W2,-7,-6,1,51.0478,-114.0585
403,290,403290,Calgary,Alberta,AB,Canada,CA,T2P2T5,-7,-6,1,51.0478,-114.0585
403,290,403290,Calgary,Alberta,AB,Canada,CA,T2P3G8,-7,-6,1,51.0478,-114.0585
403,291,403291,Calgary,Alberta,AB,Canada,CA,T2E4Y4,-7,-6,1,51.0478,-114.0585
403,291,403291,Calgary,Alberta,AB,Canada,CA,T2E4Y5,-7,-6,1,51.0478,-114.0585
403,291,403291,Calgary,Alberta,AB,Canada,CA,T2E7E1,-7,-6,1,51.0478,-114.0585
403,291,403291,Calgary,Alberta,AB,Canada,CA,T2E6J1,-7,-6,1,51.0478,-114.0585
403,291,403291,Calgary,Alberta,AB,Canada,CA,T1Y6M6,-7,-6,1,51.0478,-114.0585
403,291,403291,Calgary,Alberta,AB,Canada,CA,T2E6S8,-7,-6,1,51.0478,-114.0585
403,291,403291,Calgary,Alberta,AB,Canada,CA,T1Y4T7,-7,-6,1,51.0478,-114.0585
403,291,403291,Calgary,Alberta,AB,Canada,CA,T1Y5R8,-7,-6,1,51.0478,-114.0585
403,291,403291,Calgary,Alberta,AB,Canada,CA,T2E7A4,-7,-6,1,51.0478,-114.0585
403,291,403291,Calgary,Alberta,AB,Canada,CA,T2E6Y9,-7,-6,1,51.0478,-114.0585
403,291,403291,Calgary,Alberta,AB,Canada,CA,T1Y6H6,-7,-6,1,51.0478,-114.0585
403,291,403291,Calgary,Alberta,AB,Canada,CA,T2E7J2,-7,-6,1,51.0478,-114.0585
403,291,403291,Calgary,Alberta,AB,Canada,CA,T2E6Z3,-7,-6,1,51.0478,-114.0585
403,291,403291,Calgary,Alberta,AB,Canada,CA,T1Y5Z6,-7,-6,1,51.0478,-114.0585
403,291,403291,Calgary,Alberta,AB,Canada,CA,T1Y5E2,-7,-6,1,51.0478,-114.0585
403,291,403291,Calgary,Alberta,AB,Canada,CA,T1Y5E4,-7,-6,1,51.0478,-114.0585
403,291,403291,Calgary,Alberta,AB,Canada,CA,T2E6V2,-7,-6,1,51.0478,-114.0585
403,291,403291,Calgary,Alberta,AB,Canada,CA,T2E7C8,-7,-6,1,51.0478,-114.0585
403,291,403291,Calgary,Alberta,AB,Canada,CA,T2E6H1,-7,-6,1,51.0478,-114.0585
403,291,403291,Calgary,Alberta,AB,Canada,CA,T2E6L1,-7,-6,1,51.0478,-114.0585
403,292,403292,Calgary,Alberta,AB,Canada,CA,T2G4X3,-7,-6,1,51.0478,-114.0585
403,292,403292,Calgary,Alberta,AB,Canada,CA,T2P3H2,-7,-6,1,51.0478,-114.0585
403,292,403292,Calgary,Alberta,AB,Canada,CA,T2G3Z7,-7,-6,1,51.0478,-114.0585
403,292,403292,Calgary,Alberta,AB,Canada,CA,T2E5T1,-7,-6,1,51.0478,-114.0585
403,292,403292,Calgary,Alberta,AB,Canada,CA,T2H1J1,-7,-6,1,51.0478,-114.0585
403,292,403292,Calgary,Alberta,AB,Canada,CA,T2R0E4,-7,-6,1,51.0478,-114.0585
403,292,403292,Calgary,Alberta,AB,Canada,CA,T2H2C2,-7,-6,1,51.0478,-114.0585
403,292,403292,Calgary,Alberta,AB,Canada,CA,T2L2A7,-7,-6,1,51.0478,-114.0585
403,292,403292,Calgary,Alberta,AB,Canada,CA,T3E1T9,-7,-6,1,51.0478,-114.0585
403,292,403292,Calgary,Alberta,AB,Canada,CA,T2H2H5,-7,-6,1,51.0478,-114.0585
403,292,403292,Calgary,Alberta,AB,Canada,CA,T2P3S2,-7,-6,1,51.0478,-114.0585
403,292,403292,Calgary,Alberta,AB,Canada,CA,T2R1L9,-7,-6,1,51.0478,-114.0585
403,292,403292,Calgary,Alberta,AB,Canada,CA,T2R0Y6,-7,-6,1,51.0478,-114.0585
403,292,403292,Calgary,Alberta,AB,Canada,CA,T2P3M3,-7,-6,1,51.0478,-114.0585
403,292,403292,Tsuu Tina,Alberta,AB,Canada,CA,T2W6H6,-7,-6,1,51.0478,-114.0585
403,292,403292,Calgary,Alberta,AB,Canada,CA,T2R0X5,-7,-6,1,51.0478,-114.0585
403,292,403292,Calgary,Alberta,AB,Canada,CA,T2P2Z2,-7,-6,1,51.0478,-114.0585
403,292,403292,Calgary,Alberta,AB,Canada,CA,T2P3N9,-7,-6,1,51.0478,-114.0585
403,292,403292,Calgary,Alberta,AB,Canada,CA,T2P3G3,-7,-6,1,51.0478,-114.0585
403,292,403292,Calgary,Alberta,AB,Canada,CA,T2P3E6,-7,-6,1,51.0478,-114.0585
403,293,403293,Calgary,Alberta,AB,Canada,CA,T1Y5T4,-7,-6,1,51.0478,-114.0585
403,293,403293,Calgary,Alberta,AB,Canada,CA,T1Y6S8,-7,-6,1,51.0478,-114.0585
403,293,403293,Calgary,Alberta,AB,Canada,CA,T1Y5V8,-7,-6,1,51.0478,-114.0585
403,293,403293,Calgary,Alberta,AB,Canada,CA,T2M4L5,-7,-6,1,51.0478,-114.0585
403,293,403293,Calgary,Alberta,AB,Canada,CA,T1Y3S8,-7,-6,1,51.0478,-114.0585
403,293,403293,Calgary,Alberta,AB,Canada,CA,T1Y6K3,-7,-6,1,51.0478,-114.0585
403,293,403293,Calgary,Alberta,AB,Canada,CA,T3J2C5,-7,-6,1,51.0478,-114.0585
403,293,403293,Calgary,Alberta,AB,Canada,CA,T3J1E,-7,-6,1,51.0478,-114.0585
403,293,403293,Calgary,Alberta,AB,Canada,CA,T1Y5V1,-7,-6,1,51.0478,-114.0585
403,293,403293,Calgary,Alberta,AB,Canada,CA,T1Y6V1,-7,-6,1,51.0478,-114.0585
403,293,403293,Calgary,Alberta,AB,Canada,CA,T3J2G,-7,-6,1,51.0478,-114.0585
403,293,403293,Calgary,Alberta,AB,Canada,CA,T1Y3V,-7,-6,1,51.0478,-114.0585
403,293,403293,Calgary,Alberta,AB,Canada,CA,T1Y4W8,-7,-6,1,51.0478,-114.0585
403,293,403293,Calgary,Alberta,AB,Canada,CA,T1Y6K5,-7,-6,1,51.0478,-114.0585
403,293,403293,Calgary,Alberta,AB,Canada,CA,T3J1V9,-7,-6,1,51.0478,-114.0585
403,293,403293,Calgary,Alberta,AB,Canada,CA,T1Y3Z8,-7,-6,1,51.0478,-114.0585
403,293,403293,Calgary,Alberta,AB,Canada,CA,T1Y4S4,-7,-6,1,51.0478,-114.0585
403,293,403293,Calgary,Alberta,AB,Canada,CA,T1Y3Z,-7,-6,1,51.0478,-114.0585
403,293,403293,Calgary,Alberta,AB,Canada,CA,T3J2A4,-7,-6,1,51.0478,-114.0585
403,293,403293,Calgary,Alberta,AB,Canada,CA,T1Y4M7,-7,-6,1,51.0478,-114.0585
403,294,403294,Calgary,Alberta,AB,Canada,CA,T2R0M4,-7,-6,1,51.0478,-114.0585
403,294,403294,Calgary,Alberta,AB,Canada,CA,T2G4T5,-7,-6,1,51.0478,-114.0585
403,294,403294,Calgary,Alberta,AB,Canada,CA,T2P2A6,-7,-6,1,51.0478,-114.0585
403,294,403294,Calgary,Alberta,AB,Canada,CA,T2P2B3,-7,-6,1,51.0478,-114.0585
403,294,403294,Calgary,Alberta,AB,Canada,CA,T2P1C2,-7,-6,1,51.0478,-114.0585
403,294,403294,Calgary,Alberta,AB,Canada,CA,T2P3N3,-7,-6,1,51.0478,-114.0585
403,294,403294,Calgary,Alberta,AB,Canada,CA,T2P1H5,-7,-6,1,51.0478,-114.0585
403,294,403294,Calgary,Alberta,AB,Canada,CA,T2P1A4,-7,-6,1,51.0478,-114.0585
403,294,403294,Calgary,Alberta,AB,Canada,CA,T2G5K3,-7,-6,1,51.0478,-114.0585
403,294,403294,Calgary,Alberta,AB,Canada,CA,T2P2Y3,-7,-6,1,51.0478,-114.0585
403,294,403294,Calgary,Alberta,AB,Canada,CA,T2R0K6,-7,-6,1,51.0478,-114.0585
403,294,403294,Calgary,Alberta,AB,Canada,CA,T2P2T9,-7,-6,1,51.0478,-114.0585
403,294,403294,Calgary,Alberta,AB,Canada,CA,T2P3R7,-7,-6,1,51.0478,-114.0585
403,294,403294,Calgary,Alberta,AB,Canada,CA,T2R1H3,-7,-6,1,51.0478,-114.0585
403,294,403294,Calgary,Alberta,AB,Canada,CA,T2P4K9,-7,-6,1,51.0478,-114.0585
403,294,403294,Calgary,Alberta,AB,Canada,CA,T2R1K8,-7,-6,1,51.0478,-114.0585
403,294,403294,Calgary,Alberta,AB,Canada,CA,T2G5A8,-7,-6,1,51.0478,-114.0585
403,294,403294,Calgary,Alberta,AB,Canada,CA,T2P3G8,-7,-6,1,51.0478,-114.0585
403,294,403294,Calgary,Alberta,AB,Canada,CA,T2P4R5,-7,-6,1,51.0478,-114.0585
403,294,403294,Calgary,Alberta,AB,Canada,CA,T2P0N4,-7,-6,1,51.0478,-114.0585
403,295,403295,Calgary,Alberta,AB,Canada,CA,T3K3Z1,-7,-6,1,51.0478,-114.0585
403,295,403295,Calgary,Alberta,AB,Canada,CA,T3K1P6,-7,-6,1,51.0478,-114.0585
403,295,403295,Calgary,Alberta,AB,Canada,CA,T3K3V5,-7,-6,1,51.0478,-114.0585
403,295,403295,Calgary,Alberta,AB,Canada,CA,T2K5J4,-7,-6,1,51.0478,-114.0585
403,295,403295,Calgary,Alberta,AB,Canada,CA,T3K1M6,-7,-6,1,51.0478,-114.0585
403,295,403295,Calgary,Alberta,AB,Canada,CA,T2K5E6,-7,-6,1,51.0478,-114.0585
403,295,403295,Calgary,Alberta,AB,Canada,CA,T2E7P4,-7,-6,1,51.0478,-114.0585
403,295,403295,Calgary,Alberta,AB,Canada,CA,T3K2A8,-7,-6,1,51.0478,-114.0585
403,295,403295,Calgary,Alberta,AB,Canada,CA,T2K3T,-7,-6,1,51.0478,-114.0585
403,295,403295,Calgary,Alberta,AB,Canada,CA,T2K1B8,-7,-6,1,51.0478,-114.0585
403,295,403295,Calgary,Alberta,AB,Canada,CA,T2K5S3,-7,-6,1,51.0478,-114.0585
403,295,403295,Calgary,Alberta,AB,Canada,CA,T3K1P2,-7,-6,1,51.0478,-114.0585
403,295,403295,Calgary,Alberta,AB,Canada,CA,T2K5C,-7,-6,1,51.0478,-114.0585
403,295,403295,Calgary,Alberta,AB,Canada,CA,T3K1Y,-7,-6,1,51.0478,-114.0585
403,295,403295,Calgary,Alberta,AB,Canada,CA,T2K5S4,-7,-6,1,51.0478,-114.0585
403,295,403295,Calgary,Alberta,AB,Canada,CA,T2K5X,-7,-6,1,51.0478,-114.0585
403,295,403295,Calgary,Alberta,AB,Canada,CA,T2E7H7,-7,-6,1,51.0478,-114.0585
403,295,403295,Calgary,Alberta,AB,Canada,CA,T3K2K1,-7,-6,1,51.0478,-114.0585
403,295,403295,Calgary,Alberta,AB,Canada,CA,T3K4E,-7,-6,1,51.0478,-114.0585
403,295,403295,Calgary,Alberta,AB,Canada,CA,T3K4L7,-7,-6,1,51.0478,-114.0585
403,296,403296,Calgary,Alberta,AB,Canada,CA,T2P2Y5,-7,-6,1,51.0478,-114.0585
403,296,403296,Calgary,Alberta,AB,Canada,CA,T2P3M3,-7,-6,1,51.0478,-114.0585
403,296,403296,Calgary,Alberta,AB,Canada,CA,T2A6A3,-7,-6,1,51.0478,-114.0585
403,296,403296,Calgary,Alberta,AB,Canada,CA,T3C0M5,-7,-6,1,51.0478,-114.0585
403,296,403296,Calgary,Alberta,AB,Canada,CA,T3A0Z9,-7,-6,1,51.0478,-114.0585
403,296,403296,Calgary,Alberta,AB,Canada,CA,T2W5C2,-7,-6,1,51.0478,-114.0585
403,296,403296,Calgary,Alberta,AB,Canada,CA,T2V5A8,-7,-6,1,51.0478,-114.0585
403,296,403296,Calgary,Alberta,AB,Canada,CA,T2P4K8,-7,-6,1,51.0478,-114.0585
403,296,403296,Calgary,Alberta,AB,Canada,CA,T2P4H2,-7,-6,1,51.0478,-114.0585
403,296,403296,Calgary,Alberta,AB,Canada,CA,T2E7W6,-7,-6,1,51.0478,-114.0585
403,296,403296,Calgary,Alberta,AB,Canada,CA,T2P3C5,-7,-6,1,51.0478,-114.0585
403,296,403296,Calgary,Alberta,AB,Canada,CA,T2E8J8,-7,-6,1,51.0478,-114.0585
403,296,403296,Calgary,Alberta,AB,Canada,CA,T2J6Z8,-7,-6,1,51.0478,-114.0585
403,296,403296,Calgary,Alberta,AB,Canada,CA,T2P3H3,-7,-6,1,51.0478,-114.0585
403,296,403296,Calgary,Alberta,AB,Canada,CA,T2E1J8,-7,-6,1,51.0478,-114.0585
403,296,403296,Calgary,Alberta,AB,Canada,CA,T2C1N6,-7,-6,1,51.0478,-114.0585
403,296,403296,Calgary,Alberta,AB,Canada,CA,T2C2P3,-7,-6,1,51.0478,-114.0585
403,296,403296,Calgary,Alberta,AB,Canada,CA,T2N2B1,-7,-6,1,51.0478,-114.0585
403,296,403296,Calgary,Alberta,AB,Canada,CA,T2N4M7,-7,-6,1,51.0478,-114.0585
403,296,403296,Calgary,Alberta,AB,Canada,CA,T2P1G3,-7,-6,1,51.0478,-114.0585
403,297,403297,Calgary,Alberta,AB,Canada,CA,T2P3G4,-7,-6,1,51.0478,-114.0585
403,297,403297,Calgary,Alberta,AB,Canada,CA,T2M2Z8,-7,-6,1,51.0478,-114.0585
403,297,403297,Calgary,Alberta,AB,Canada,CA,T2H2S3,-7,-6,1,51.0478,-114.0585
403,297,403297,Calgary,Alberta,AB,Canada,CA,T2H2L2,-7,-6,1,51.0478,-114.0585
403,297,403297,Calgary,Alberta,AB,Canada,CA,T2P0Y8,-7,-6,1,51.0478,-114.0585
403,297,403297,Calgary,Alberta,AB,Canada,CA,T2G4S6,-7,-6,1,51.0478,-114.0585
403,297,403297,Calgary,Alberta,AB,Canada,CA,T2V4R6,-7,-6,1,51.0478,-114.0585
403,297,403297,Calgary,Alberta,AB,Canada,CA,T2P0T3,-7,-6,1,51.0478,-114.0585
403,297,403297,Calgary,Alberta,AB,Canada,CA,T2P1T5,-7,-6,1,51.0478,-114.0585
403,297,403297,Calgary,Alberta,AB,Canada,CA,T2P2Y3,-7,-6,1,51.0478,-114.0585
403,297,403297,Calgary,Alberta,AB,Canada,CA,T2P2Y5,-7,-6,1,51.0478,-114.0585
403,297,403297,Calgary,Alberta,AB,Canada,CA,T2H1K7,-7,-6,1,51.0478,-114.0585
403,297,403297,Calgary,Alberta,AB,Canada,CA,T2E7S8,-7,-6,1,51.0478,-114.0585
403,297,403297,Calgary,Alberta,AB,Canada,CA,T2W4Y1,-7,-6,1,51.0478,-114.0585
403,297,403297,Calgary,Alberta,AB,Canada,CA,T2T5V3,-7,-6,1,51.0478,-114.0585
403,297,403297,Calgary,Alberta,AB,Canada,CA,T3B0M6,-7,-6,1,51.0478,-114.0585
403,297,403297,Calgary,Alberta,AB,Canada,CA,T2P0T9,-7,-6,1,51.0478,-114.0585
403,297,403297,Calgary,Alberta,AB,Canada,CA,T2P3T5,-7,-6,1,51.0478,-114.0585
403,297,403297,Calgary,Alberta,AB,Canada,CA,T2P3P1,-7,-6,1,51.0478,-114.0585
403,297,403297,Calgary,Alberta,AB,Canada,CA,T2M3N4,-7,-6,1,51.0478,-114.0585
403,298,403298,Calgary,Alberta,AB,Canada,CA,T2P2P9,-7,-6,1,51.0478,-114.0585
403,298,403298,Calgary,Alberta,AB,Canada,CA,T2P3H5,-7,-6,1,51.0478,-114.0585
403,298,403298,Calgary,Alberta,AB,Canada,CA,T2P3L8,-7,-6,1,51.0478,-114.0585
403,298,403298,Calgary,Alberta,AB,Canada,CA,T2P0M7,-7,-6,1,51.0478,-114.0585
403,298,403298,Calgary,Alberta,AB,Canada,CA,T2P3N9,-7,-6,1,51.0478,-114.0585
403,298,403298,Calgary,Alberta,AB,Canada,CA,T2P1H5,-7,-6,1,51.0478,-114.0585
403,298,403298,Calgary,Alberta,AB,Canada,CA,T2P4K7,-7,-6,1,51.0478,-114.0585
403,298,403298,Calgary,Alberta,AB,Canada,CA,T2P3W3,-7,-6,1,51.0478,-114.0585
403,298,403298,Calgary,Alberta,AB,Canada,CA,T2P3T6,-7,-6,1,51.0478,-114.0585
403,298,403298,Calgary,Alberta,AB,Canada,CA,T2P4B3,-7,-6,1,51.0478,-114.0585
403,298,403298,Calgary,Alberta,AB,Canada,CA,T2P2V7,-7,-6,1,51.0478,-114.0585
403,298,403298,Calgary,Alberta,AB,Canada,CA,T2P4H9,-7,-6,1,51.0478,-114.0585
403,298,403298,Calgary,Alberta,AB,Canada,CA,T2P3N4,-7,-6,1,51.0478,-114.0585
403,298,403298,Calgary,Alberta,AB,Canada,CA,T2P3C5,-7,-6,1,51.0478,-114.0585
403,298,403298,Calgary,Alberta,AB,Canada,CA,T2P4V5,-7,-6,1,51.0478,-114.0585
403,298,403298,Calgary,Alberta,AB,Canada,CA,T2P3R5,-7,-6,1,51.0478,-114.0585
403,298,403298,Calgary,Alberta,AB,Canada,CA,T2P3Y6,-7,-6,1,51.0478,-114.0585
403,298,403298,Calgary,Alberta,AB,Canada,CA,T2P4G8,-7,-6,1,51.0478,-114.0585
403,298,403298,Calgary,Alberta,AB,Canada,CA,T2P2W1,-7,-6,1,51.0478,-114.0585
403,298,403298,Calgary,Alberta,AB,Canada,CA,T2P2W2,-7,-6,1,51.0478,-114.0585
403,299,403299,Calgary,Alberta,AB,Canada,CA,T2P3J4,-7,-6,1,51.0478,-114.0585
403,299,403299,Calgary,Alberta,AB,Canada,CA,T2P3T8,-7,-6,1,51.0478,-114.0585
403,299,403299,Calgary,Alberta,AB,Canada,CA,T2G0X7,-7,-6,1,51.0478,-114.0585
403,299,403299,Calgary,Alberta,AB,Canada,CA,T2S2T8,-7,-6,1,51.0478,-114.0585
403,299,403299,Calgary,Alberta,AB,Canada,CA,T2A0P9,-7,-6,1,51.0478,-114.0585
403,299,403299,Calgary,Alberta,AB,Canada,CA,T2N1X7,-7,-6,1,51.0478,-114.0585
403,299,403299,Calgary,Alberta,AB,Canada,CA,T1Y5R8,-7,-6,1,51.0478,-114.0585
403,299,403299,Calgary,Alberta,AB,Canada,CA,T2P3L8,-7,-6,1,51.0478,-114.0585
403,299,403299,Calgary,Alberta,AB,Canada,CA,T1Y6Y7,-7,-6,1,51.0478,-114.0585
403,299,403299,Calgary,Alberta,AB,Canada,CA,T3E6K4,-7,-6,1,51.0478,-114.0585
403,299,403299,Calgary,Alberta,AB,Canada,CA,T3G2L4,-7,-6,1,51.0478,-114.0585
403,299,403299,Calgary,Alberta,AB,Canada,CA,T2R0H6,-7,-6,1,51.0478,-114.0585
403,299,403299,Calgary,Alberta,AB,Canada,CA,T2Y2Z7,-7,-6,1,51.0478,-114.0585
403,299,403299,Calgary,Alberta,AB,Canada,CA,T2G0P6,-7,-6,1,51.0478,-114.0585
403,299,403299,Calgary,Alberta,AB,Canada,CA,T2S2T4,-7,-6,1,51.0478,-114.0585
403,299,403299,Calgary,Alberta,AB,Canada,CA,T2A1X2,-7,-6,1,51.0478,-114.0585
403,299,403299,Calgary,Alberta,AB,Canada,CA,T2P3H7,-7,-6,1,51.0478,-114.0585
403,299,403299,Calgary,Alberta,AB,Canada,CA,T2L1K8,-7,-6,1,51.0478,-114.0585
403,299,403299,Calgary,Alberta,AB,Canada,CA,T2S3B3,-7,-6,1,51.0478,-114.0585
403,299,403299,Calgary,Alberta,AB,Canada,CA,T3K1J7,-7,-6,1,51.0478,-114.0585
403,308,403308,Lethbridge,Alberta,AB,Canada,CA,T1J4P4,-7,-6,1,49.7018,-112.8326
403,309,403309,Red Deer,Alberta,AB,Canada,CA,T4N6K7,-7,-6,1,52.2724,-113.8034
403,309,403309,Red Deer,Alberta,AB,Canada,CA,T4N2J1,-7,-6,1,52.2724,-113.8034
403,309,403309,Red Deer,Alberta,AB,Canada,CA,T4P2Z6,-7,-6,1,52.2724,-113.8034
403,309,403309,Red Deer,Alberta,AB,Canada,CA,T4P2H7,-7,-6,1,52.2724,-113.8034
403,309,403309,Red Deer,Alberta,AB,Canada,CA,T4P2A9,-7,-6,1,52.2724,-113.8034
403,309,403309,Red Deer,Alberta,AB,Canada,CA,T4P1M9,-7,-6,1,52.2724,-113.8034
403,309,403309,Red Deer,Alberta,AB,Canada,CA,T4N6B9,-7,-6,1,52.2724,-113.8034
403,309,403309,Red Deer,Alberta,AB,Canada,CA,T4N5Z8,-7,-6,1,52.2724,-113.8034
403,309,403309,Red Deer,Alberta,AB,Canada,CA,T4N1C1,-7,-6,1,52.2724,-113.8034
403,309,403309,Red Deer,Alberta,AB,Canada,CA,T4N6N2,-7,-6,1,52.2724,-113.8034
403,309,403309,Red Deer,Alberta,AB,Canada,CA,T4N6L6,-7,-6,1,52.2724,-113.8034
403,309,403309,Red Deer,Alberta,AB,Canada,CA,T4R1L4,-7,-6,1,52.2724,-113.8034
403,309,403309,Red Deer,Alberta,AB,Canada,CA,T4N4J5,-7,-6,1,52.2724,-113.8034
403,309,403309,Red Deer,Alberta,AB,Canada,CA,T4P1C9,-7,-6,1,52.2724,-113.8034
403,309,403309,Red Deer,Alberta,AB,Canada,CA,T4P1H8,-7,-6,1,52.2724,-113.8034
403,309,403309,Red Deer,Alberta,AB,Canada,CA,T4N6N7,-7,-6,1,52.2724,-113.8034
403,309,403309,Red Deer,Alberta,AB,Canada,CA,T4N3Z1,-7,-6,1,52.2724,-113.8034
403,309,403309,Red Deer,Alberta,AB,Canada,CA,T4N6M7,-7,-6,1,52.2724,-113.8034
403,309,403309,Red Deer,Alberta,AB,Canada,CA,T4N0V9,-7,-6,1,52.2724,-113.8034
403,309,403309,Red Deer,Alberta,AB,Canada,CA,T4N6M9,-7,-6,1,52.2724,-113.8034
403,317,403317,Lethbridge,Alberta,AB,Canada,CA,T1H5E3,-7,-6,1,49.7018,-112.8326
403,320,403320,Lethbridge,Alberta,AB,Canada,CA,T1K5R8,-7,-6,1,49.7018,-112.8326
403,320,403320,Lethbridge,Alberta,AB,Canada,CA,T1J2J9,-7,-6,1,49.7018,-112.8326
403,320,403320,Lethbridge,Alberta,AB,Canada,CA,T1J0P3,-7,-6,1,49.7018,-112.8326
403,320,403320,Lethbridge,Alberta,AB,Canada,CA,T1K4J7,-7,-6,1,49.7018,-112.8326
403,320,403320,Lethbridge,Alberta,AB,Canada,CA,T1K5H9,-7,-6,1,49.7018,-112.8326
403,320,403320,Lethbridge,Alberta,AB,Canada,CA,T1J4C9,-7,-6,1,49.7018,-112.8326
403,320,403320,Lethbridge,Alberta,AB,Canada,CA,T1K4C1,-7,-6,1,49.7018,-112.8326
403,320,403320,Lethbridge,Alberta,AB,Canada,CA,T1K5A9,-7,-6,1,49.7018,-112.8326
403,320,403320,Lethbridge,Alberta,AB,Canada,CA,T1K1L6,-7,-6,1,49.7018,-112.8326
403,320,403320,Lethbridge,Alberta,AB,Canada,CA,T1K4W1,-7,-6,1,49.7018,-112.8326
403,320,403320,Lethbridge,Alberta,AB,Canada,CA,T1K5N1,-7,-6,1,49.7018,-112.8326
403,320,403320,Lethbridge,Alberta,AB,Canada,CA,T1J4J6,-7,-6,1,49.7018,-112.8326
403,320,403320,Lethbridge,Alberta,AB,Canada,CA,T1K4K4,-7,-6,1,49.7018,-112.8326
403,320,403320,Lethbridge,Alberta,AB,Canada,CA,T1K1N4,-7,-6,1,49.7018,-112.8326
403,320,403320,Lethbridge,Alberta,AB,Canada,CA,T1K6T5,-7,-6,1,49.7018,-112.8326
403,320,403320,Lethbridge,Alberta,AB,Canada,CA,T1J4L9,-7,-6,1,49.7018,-112.8326
403,320,403320,Lethbridge,Alberta,AB,Canada,CA,T1K6T4,-7,-6,1,49.7018,-112.8326
403,320,403320,Lethbridge,Alberta,AB,Canada,CA,T1K3M4,-7,-6,1,49.7018,-112.8326
403,320,403320,Lethbridge,Alberta,AB,Canada,CA,T1K3M9,-7,-6,1,49.7018,-112.8326
403,320,403320,Lethbridge,Alberta,AB,Canada,CA,T1H3T6,-7,-6,1,49.7018,-112.8326
403,321,403321,Chateh,Alberta,AB,Canada,CA,T0H0S0,-7,-6,1,51.466,-112.701
403,322,403322,Peace River,Alberta,AB,Canada,CA,T8S1S4,-7,-6,1,52.3661,-114.9124
403,322,403322,Peace River,Alberta,AB,Canada,CA,T8S1S5,-7,-6,1,52.3661,-114.9124
403,322,403322,Peace River,Alberta,AB,Canada,CA,T8S1R8,-7,-6,1,52.3661,-114.9124
403,322,403322,Girouxville,Alberta,AB,Canada,CA,T0H1S0,-7,-6,1,52.3661,-114.9124
403,322,403322,Peace River,Alberta,AB,Canada,CA,T8S1R7,-7,-6,1,52.3661,-114.9124
403,322,403322,Peace River,Alberta,AB,Canada,CA,T8S1S9,-7,-6,1,52.3661,-114.9124
403,322,403322,Nampa,Alberta,AB,Canada,CA,T0H2R0,-7,-6,1,52.3661,-114.9124
403,322,403322,Peace River,Alberta,AB,Canada,CA,T8S1S3,-7,-6,1,52.3661,-114.9124
403,322,403322,Falher,Alberta,AB,Canada,CA,T0H1M0,-7,-6,1,52.3661,-114.9124
403,322,403322,Marie Reine,Alberta,AB,Canada,CA,T0H2N0,-7,-6,1,52.3661,-114.9124
403,322,403322,Peace River,Alberta,AB,Canada,CA,T8S1T1,-7,-6,1,52.3661,-114.9124
403,322,403322,Jean Cote,Alberta,AB,Canada,CA,T0H2E0,-7,-6,1,52.3661,-114.9124
403,322,403322,Peace River,Alberta,AB,Canada,CA,T8S1S2,-7,-6,1,52.3661,-114.9124
403,322,403322,Peace River,Alberta,AB,Canada,CA,T8S1S6,-7,-6,1,52.3661,-114.9124
403,322,403322,Peace River,Alberta,AB,Canada,CA,T8S1S7,-7,-6,1,52.3661,-114.9124
403,322,403322,Peace River,Alberta,AB,Canada,CA,T8S1S8,-7,-6,1,52.3661,-114.9124
403,322,403322,Peace River,Alberta,AB,Canada,CA,T8S1S1,-7,-6,1,52.3661,-114.9124
403,323,403323,Falher,Alberta,AB,Canada,CA,T0H1M0,-7,-6,1,52.3239,-112.708
403,323,403323,Watino,Alberta,AB,Canada,CA,T0H3R0,-7,-6,1,52.3239,-112.708
403,323,403323,Girouxville,Alberta,AB,Canada,CA,T0H1S0,-7,-6,1,52.3239,-112.708
403,323,403323,Jean Cote,Alberta,AB,Canada,CA,T0H2E0,-7,-6,1,52.3239,-112.708
403,326,403326,Hanna,Alberta,AB,Canada,CA,T0J1P0,-7,-6,1,51.4155,-110.7932
403,326,403326,Cereal,Alberta,AB,Canada,CA,T0J0N0,-7,-6,1,51.4155,-110.7932
403,326,403326,Cereal,Alberta,AB,Canada,CA,T2P2P5,-7,-6,1,51.4155,-110.7932
403,326,403326,Oyen,Alberta,AB,Canada,CA,T0J2J0,-7,-6,1,51.4155,-110.7932
403,326,403326,Chinook,Alberta,AB,Canada,CA,T0J0R0,-7,-6,1,51.4155,-110.7932
403,326,403326,Sedalia,Alberta,AB,Canada,CA,T0J3C0,-7,-6,1,51.4155,-110.7932
403,327,403327,Lethbridge,Alberta,AB,Canada,CA,T1J0S9,-7,-6,1,49.7018,-112.8326
403,327,403327,Lethbridge,Alberta,AB,Canada,CA,T1K4J9,-7,-6,1,49.7018,-112.8326
403,327,403327,Lethbridge,Alberta,AB,Canada,CA,T1K5H9,-7,-6,1,49.7018,-112.8326
403,327,403327,Lethbridge,Alberta,AB,Canada,CA,T1H4E8,-7,-6,1,49.7018,-112.8326
403,327,403327,Lethbridge,Alberta,AB,Canada,CA,T1K5A9,-7,-6,1,49.7018,-112.8326
403,327,403327,Lethbridge,Alberta,AB,Canada,CA,T1J1X8,-7,-6,1,49.7018,-112.8326
403,327,403327,Lethbridge,Alberta,AB,Canada,CA,T1K3S5,-7,-6,1,49.7018,-112.8326
403,327,403327,Lethbridge,Alberta,AB,Canada,CA,T1J4J1,-7,-6,1,49.7018,-112.8326
403,327,403327,Lethbridge,Alberta,AB,Canada,CA,T1H4B9,-7,-6,1,49.7018,-112.8326
403,327,403327,Lethbridge,Alberta,AB,Canada,CA,T1K3M4,-7,-6,1,49.7018,-112.8326
403,327,403327,Lethbridge,Alberta,AB,Canada,CA,T1J2E4,-7,-6,1,49.7018,-112.8326
403,327,403327,Lethbridge,Alberta,AB,Canada,CA,T1J0P9,-7,-6,1,49.7018,-112.8326
403,327,403327,Lethbridge,Alberta,AB,Canada,CA,T1H3T6,-7,-6,1,49.7018,-112.8326
403,327,403327,Lethbridge,Alberta,AB,Canada,CA,T1J4P1,-7,-6,1,49.7018,-112.8326
403,327,403327,Lethbridge,Alberta,AB,Canada,CA,T1J4R2,-7,-6,1,49.7018,-112.8326
403,327,403327,Lethbridge,Alberta,AB,Canada,CA,T1J4J6,-7,-6,1,49.7018,-112.8326
403,327,403327,Lethbridge,Alberta,AB,Canada,CA,T1K1L6,-7,-6,1,49.7018,-112.8326
403,327,403327,Lethbridge,Alberta,AB,Canada,CA,T1J4N7,-7,-6,1,49.7018,-112.8326
403,327,403327,Lethbridge,Alberta,AB,Canada,CA,T1J2J9,-7,-6,1,49.7018,-112.8326
403,327,403327,Lethbridge,Alberta,AB,Canada,CA,T1J0V4,-7,-6,1,49.7018,-112.8326
403,328,403328,Lethbridge,Alberta,AB,Canada,CA,T1J0P9,-7,-6,1,49.7018,-112.8326
403,328,403328,Lethbridge,Alberta,AB,Canada,CA,T1H4K8,-7,-6,1,49.7018,-112.8326
403,328,403328,Lethbridge,Alberta,AB,Canada,CA,T1K3S5,-7,-6,1,49.7018,-112.8326
403,328,403328,Lethbridge,Alberta,AB,Canada,CA,T1K5H9,-7,-6,1,49.7018,-112.8326
403,328,403328,Lethbridge,Alberta,AB,Canada,CA,T1H5T4,-7,-6,1,49.7018,-112.8326
403,328,403328,Lethbridge,Alberta,AB,Canada,CA,T1J2E4,-7,-6,1,49.7018,-112.8326
403,328,403328,Lethbridge,Alberta,AB,Canada,CA,T1K1N4,-7,-6,1,49.7018,-112.8326
403,328,403328,Lethbridge,Alberta,AB,Canada,CA,T1J4J7,-7,-6,1,49.7018,-112.8326
403,328,403328,Lethbridge,Alberta,AB,Canada,CA,T1J2G8,-7,-6,1,49.7018,-112.8326
403,328,403328,Lethbridge,Alberta,AB,Canada,CA,T1K3M5,-7,-6,1,49.7018,-112.8326
403,328,403328,Lethbridge,Alberta,AB,Canada,CA,T1J4J6,-7,-6,1,49.7018,-112.8326
403,328,403328,Lethbridge,Alberta,AB,Canada,CA,T1J0V4,-7,-6,1,49.7018,-112.8326
403,328,403328,Lethbridge,Alberta,AB,Canada,CA,T1J4R2,-7,-6,1,49.7018,-112.8326
403,328,403328,Lethbridge,Alberta,AB,Canada,CA,T1K4K4,-7,-6,1,49.7018,-112.8326
403,328,403328,Lethbridge,Alberta,AB,Canada,CA,T1K5A9,-7,-6,1,49.7018,-112.8326
403,328,403328,Lethbridge,Alberta,AB,Canada,CA,T1J2J9,-7,-6,1,49.7018,-112.8326
403,328,403328,Lethbridge,Alberta,AB,Canada,CA,T1H3T6,-7,-6,1,49.7018,-112.8326
403,328,403328,Lethbridge,Alberta,AB,Canada,CA,T1J4N7,-7,-6,1,49.7018,-112.8326
403,328,403328,Lethbridge,Alberta,AB,Canada,CA,T1J4P1,-7,-6,1,49.7018,-112.8326
403,328,403328,Lethbridge,Alberta,AB,Canada,CA,T1J4B3,-7,-6,1,49.7018,-112.8326
403,329,403329,Lethbridge,Alberta,AB,Canada,CA,T1K3M9,-7,-6,1,49.7018,-112.8326
403,329,403329,Lethbridge,Alberta,AB,Canada,CA,T1J2G8,-7,-6,1,49.7018,-112.8326
403,329,403329,Lethbridge,Alberta,AB,Canada,CA,T1H5T4,-7,-6,1,49.7018,-112.8326
403,329,403329,Lethbridge,Alberta,AB,Canada,CA,T1H4S6,-7,-6,1,49.7018,-112.8326
403,329,403329,Lethbridge,Alberta,AB,Canada,CA,T1K1N4,-7,-6,1,49.7018,-112.8326
403,329,403329,Lethbridge,Alberta,AB,Canada,CA,T1H4E8,-7,-6,1,49.7018,-112.8326
403,329,403329,Lethbridge,Alberta,AB,Canada,CA,T1J4E1,-7,-6,1,49.7018,-112.8326
403,329,403329,Lethbridge,Alberta,AB,Canada,CA,T1J4P1,-7,-6,1,49.7018,-112.8326
403,329,403329,Lethbridge,Alberta,AB,Canada,CA,T1K4W1,-7,-6,1,49.7018,-112.8326
403,329,403329,Lethbridge,Alberta,AB,Canada,CA,T1J0J9,-7,-6,1,49.7018,-112.8326
403,329,403329,Lethbridge,Alberta,AB,Canada,CA,T1K5A9,-7,-6,1,49.7018,-112.8326
403,329,403329,Lethbridge,Alberta,AB,Canada,CA,T1K4K4,-7,-6,1,49.7018,-112.8326
403,329,403329,Lethbridge,Alberta,AB,Canada,CA,T1J4C9,-7,-6,1,49.7018,-112.8326
403,329,403329,Lethbridge,Alberta,AB,Canada,CA,T1K5H9,-7,-6,1,49.7018,-112.8326
403,329,403329,Lethbridge,Alberta,AB,Canada,CA,T1J0P9,-7,-6,1,49.7018,-112.8326
403,329,403329,Lethbridge,Alberta,AB,Canada,CA,T1J2J9,-7,-6,1,49.7018,-112.8326
403,329,403329,Lethbridge,Alberta,AB,Canada,CA,T1J4L9,-7,-6,1,49.7018,-112.8326
403,329,403329,Lethbridge,Alberta,AB,Canada,CA,T1J4J6,-7,-6,1,49.7018,-112.8326
403,329,403329,Lethbridge,Alberta,AB,Canada,CA,T1H3T6,-7,-6,1,49.7018,-112.8326
403,329,403329,Lethbridge,Alberta,AB,Canada,CA,T1H4K8,-7,-6,1,49.7018,-112.8326
403,330,403330,Coaldale,Alberta,AB,Canada,CA,T1M1M7,-7,-6,1,49.7018,-112.8326
403,330,403330,Lethbridge,Alberta,AB,Canada,CA,T1H5H1,-7,-6,1,49.7018,-112.8326
403,330,403330,Lethbridge,Alberta,AB,Canada,CA,T1J3L9,-7,-6,1,49.7018,-112.8326
403,330,403330,Lethbridge,Alberta,AB,Canada,CA,T1J4J1,-7,-6,1,49.7018,-112.8326
403,331,403331,Smith,Alberta,AB,Canada,CA,T0G2B0,-7,-6,1,49.7018,-112.8326
403,331,403331,Edmonton,Alberta,AB,Canada,CA,T6H1T4,-7,-6,1,49.7018,-112.8326
403,331,403331,Athabasca,Alberta,AB,Canada,CA,T9S1C5,-7,-6,1,49.7018,-112.8326
403,331,403331,Athabasca,Alberta,AB,Canada,CA,T9S2B4,-7,-6,1,49.7018,-112.8326
403,331,403331,Calling Lake,Alberta,AB,Canada,CA,T0G0K0,-7,-6,1,49.7018,-112.8326
403,333,403333,Swan Hills,Alberta,AB,Canada,CA,T0G2C0,-7,-6,1,51.0478,-114.0585
403,335,403335,Olds,Alberta,AB,Canada,CA,T4H1V2,-7,-6,1,51.6588,-114.1299
403,335,403335,Didsbury,Alberta,AB,Canada,CA,T0M0W0,-7,-6,1,51.6588,-114.1299
403,335,403335,Caroline,Alberta,AB,Canada,CA,T0M0M0,-7,-6,1,51.6588,-114.1299
403,335,403335,Olds,Alberta,AB,Canada,CA,T4H1P2,-7,-6,1,51.6588,-114.1299
403,335,403335,Carstairs,Alberta,AB,Canada,CA,T0M0N0,-7,-6,1,51.6588,-114.1299
403,335,403335,Cremona,Alberta,AB,Canada,CA,T0M0R0,-7,-6,1,51.6588,-114.1299
403,335,403335,Sundre,Alberta,AB,Canada,CA,T0M1X0,-7,-6,1,51.6588,-114.1299
403,335,403335,Olds,Alberta,AB,Canada,CA,T4H1P3,-7,-6,1,51.6588,-114.1299
403,335,403335,Didsbury,Alberta,AB,Canada,CA,T0M0W,-7,-6,1,51.6588,-114.1299
403,337,403337,Carstairs,Alberta,AB,Canada,CA,T0M0N0,-7,-6,1,51.5676,-114.1015
403,337,403337,Cremona,Alberta,AB,Canada,CA,T0M0R0,-7,-6,1,51.5676,-114.1015
403,337,403337,Didsbury,Alberta,AB,Canada,CA,T0M0W0,-7,-6,1,51.5676,-114.1015
403,337,403337,Crossfield,Alberta,AB,Canada,CA,T0M0S0,-7,-6,1,51.5676,-114.1015
403,337,403337,Madden,Alberta,AB,Canada,CA,T0M1L0,-7,-6,1,51.5676,-114.1015
403,337,403337,Red Deer,Alberta,AB,Canada,CA,T4N1S8,-7,-6,1,51.5676,-114.1015
403,338,403338,Grimshaw,Alberta,AB,Canada,CA,T0H1W0,-7,-6,1,51.0478,-114.0585
403,338,403338,Berwyn,Alberta,AB,Canada,CA,T0H0E0,-7,-6,1,51.0478,-114.0585
403,340,403340,Red Deer,Alberta,AB,Canada,CA,T4P2A6,-7,-6,1,52.2724,-113.8034
403,340,403340,Red Deer,Alberta,AB,Canada,CA,T4P1H8,-7,-6,1,52.2724,-113.8034
403,340,403340,Red Deer,Alberta,AB,Canada,CA,T4P1C9,-7,-6,1,52.2724,-113.8034
403,340,403340,Red Deer,Alberta,AB,Canada,CA,T4N6N2,-7,-6,1,52.2724,-113.8034
403,340,403340,Red Deer,Alberta,AB,Canada,CA,T4N4C6,-7,-6,1,52.2724,-113.8034
403,340,403340,Red Deer,Alberta,AB,Canada,CA,T4N5E4,-7,-6,1,52.2724,-113.8034
403,340,403340,Red Deer,Alberta,AB,Canada,CA,T4R1N9,-7,-6,1,52.2724,-113.8034
403,340,403340,Red Deer,Alberta,AB,Canada,CA,T4N6N7,-7,-6,1,52.2724,-113.8034
403,340,403340,Red Deer,Alberta,AB,Canada,CA,T4N6M9,-7,-6,1,52.2724,-113.8034
403,340,403340,Red Deer,Alberta,AB,Canada,CA,T4N6K7,-7,-6,1,52.2724,-113.8034
403,340,403340,Red Deer,Alberta,AB,Canada,CA,T4N4J5,-7,-6,1,52.2724,-113.8034
403,340,403340,Red Deer,Alberta,AB,Canada,CA,T4P1M9,-7,-6,1,52.2724,-113.8034
403,340,403340,Red Deer,Alberta,AB,Canada,CA,T4N5E1,-7,-6,1,52.2724,-113.8034
403,340,403340,Red Deer,Alberta,AB,Canada,CA,T4N6M7,-7,-6,1,52.2724,-113.8034
403,340,403340,Red Deer,Alberta,AB,Canada,CA,T4N6H3,-7,-6,1,52.2724,-113.8034
403,340,403340,Red Deer,Alberta,AB,Canada,CA,T4N0P2,-7,-6,1,52.2724,-113.8034
403,340,403340,Red Deer,Alberta,AB,Canada,CA,T4P1K1,-7,-6,1,52.2724,-113.8034
403,340,403340,Red Deer,Alberta,AB,Canada,CA,T4N6R3,-7,-6,1,52.2724,-113.8034
403,340,403340,Red Deer,Alberta,AB,Canada,CA,T4R1M8,-7,-6,1,52.2724,-113.8034
403,340,403340,Red Deer,Alberta,AB,Canada,CA,T4N0N5,-7,-6,1,52.2724,-113.8034
403,341,403341,Red Deer,Alberta,AB,Canada,CA,T4N2H9,-7,-6,1,52.2724,-113.8034
403,341,403341,Red Deer,Alberta,AB,Canada,CA,T4R1M8,-7,-6,1,52.2724,-113.8034
403,341,403341,Red Deer,Alberta,AB,Canada,CA,T4R1V3,-7,-6,1,52.2724,-113.8034
403,341,403341,Red Deer,Alberta,AB,Canada,CA,T4N2K8,-7,-6,1,52.2724,-113.8034
403,341,403341,Red Deer,Alberta,AB,Canada,CA,T4N3Z1,-7,-6,1,52.2724,-113.8034
403,341,403341,Red Deer,Alberta,AB,Canada,CA,T4N0N5,-7,-6,1,52.2724,-113.8034
403,341,403341,Red Deer,Alberta,AB,Canada,CA,T4P1K1,-7,-6,1,52.2724,-113.8034
403,341,403341,Red Deer,Alberta,AB,Canada,CA,T4N6A2,-7,-6,1,52.2724,-113.8034
403,341,403341,Red Deer,Alberta,AB,Canada,CA,T4P2A6,-7,-6,1,52.2724,-113.8034
403,341,403341,Red Deer,Alberta,AB,Canada,CA,T4P2C7,-7,-6,1,52.2724,-113.8034
403,341,403341,Red Deer,Alberta,AB,Canada,CA,T4P1H8,-7,-6,1,52.2724,-113.8034
403,341,403341,Red Deer,Alberta,AB,Canada,CA,T4N5H8,-7,-6,1,52.2724,-113.8034
403,341,403341,Red Deer,Alberta,AB,Canada,CA,T4N2J1,-7,-6,1,52.2724,-113.8034
403,341,403341,Red Deer,Alberta,AB,Canada,CA,T4P2Z6,-7,-6,1,52.2724,-113.8034
403,341,403341,Red Deer,Alberta,AB,Canada,CA,T4N4J5,-7,-6,1,52.2724,-113.8034
403,341,403341,Red Deer,Alberta,AB,Canada,CA,T4N6M7,-7,-6,1,52.2724,-113.8034
403,341,403341,Red Deer,Alberta,AB,Canada,CA,T4P1M9,-7,-6,1,52.2724,-113.8034
403,341,403341,Red Deer,Alberta,AB,Canada,CA,T4N6N2,-7,-6,1,52.2724,-113.8034
403,341,403341,Red Deer,Alberta,AB,Canada,CA,T4N6H3,-7,-6,1,52.2724,-113.8034
403,341,403341,Red Deer,Alberta,AB,Canada,CA,T4N6M9,-7,-6,1,52.2724,-113.8034
403,342,403342,Red Deer,Alberta,AB,Canada,CA,T4N1C7,-7,-6,1,52.2724,-113.8034
403,342,403342,Red Deer,Alberta,AB,Canada,CA,T4R1M8,-7,-6,1,52.2724,-113.8034
403,342,403342,Red Deer,Alberta,AB,Canada,CA,T4N6K7,-7,-6,1,52.2724,-113.8034
403,342,403342,Red Deer,Alberta,AB,Canada,CA,T4N6L6,-7,-6,1,52.2724,-113.8034
403,342,403342,Red Deer,Alberta,AB,Canada,CA,T4N3P2,-7,-6,1,52.2724,-113.8034
403,342,403342,Red Deer,Alberta,AB,Canada,CA,T4R1V3,-7,-6,1,52.2724,-113.8034
403,342,403342,Red Deer,Alberta,AB,Canada,CA,T4P2B4,-7,-6,1,52.2724,-113.8034
403,342,403342,Red Deer,Alberta,AB,Canada,CA,T4P1K1,-7,-6,1,52.2724,-113.8034
403,342,403342,Red Deer,Alberta,AB,Canada,CA,T4N2K8,-7,-6,1,52.2724,-113.8034
403,342,403342,Red Deer,Alberta,AB,Canada,CA,T4N1S6,-7,-6,1,52.2724,-113.8034
403,342,403342,Red Deer,Alberta,AB,Canada,CA,T4N6H3,-7,-6,1,52.2724,-113.8034
403,342,403342,Red Deer,Alberta,AB,Canada,CA,T4P2A6,-7,-6,1,52.2724,-113.8034
403,342,403342,Red Deer,Alberta,AB,Canada,CA,T4P1M9,-7,-6,1,52.2724,-113.8034
403,342,403342,Red Deer,Alberta,AB,Canada,CA,T4P1C9,-7,-6,1,52.2724,-113.8034
403,342,403342,Red Deer,Alberta,AB,Canada,CA,T4N2J1,-7,-6,1,52.2724,-113.8034
403,342,403342,Red Deer,Alberta,AB,Canada,CA,T4N4J5,-7,-6,1,52.2724,-113.8034
403,342,403342,Red Deer,Alberta,AB,Canada,CA,T4N6H2,-7,-6,1,52.2724,-113.8034
403,342,403342,Red Deer,Alberta,AB,Canada,CA,T4R1N9,-7,-6,1,52.2724,-113.8034
403,342,403342,Red Deer,Alberta,AB,Canada,CA,T4N6N2,-7,-6,1,52.2724,-113.8034
403,342,403342,Red Deer,Alberta,AB,Canada,CA,T4N6N7,-7,-6,1,52.2724,-113.8034
403,343,403343,Red Deer,Alberta,AB,Canada,CA,T4N6H3,-7,-6,1,52.2724,-113.8034
403,343,403343,Red Deer,Alberta,AB,Canada,CA,T4N5E1,-7,-6,1,52.2724,-113.8034
403,343,403343,Red Deer,Alberta,AB,Canada,CA,T4N6M4,-7,-6,1,52.2724,-113.8034
403,343,403343,Red Deer,Alberta,AB,Canada,CA,T4R1N9,-7,-6,1,52.2724,-113.8034
403,343,403343,Red Deer,Alberta,AB,Canada,CA,T4N6V4,-7,-6,1,52.2724,-113.8034
403,343,403343,Red Deer,Alberta,AB,Canada,CA,T4N1X5,-7,-6,1,52.2724,-113.8034
403,343,403343,Red Deer,Alberta,AB,Canada,CA,T4N6M7,-7,-6,1,52.2724,-113.8034
403,343,403343,Red Deer,Alberta,AB,Canada,CA,T4P1C9,-7,-6,1,52.2724,-113.8034
403,343,403343,Red Deer,Alberta,AB,Canada,CA,T4N0P2,-7,-6,1,52.2724,-113.8034
403,343,403343,Red Deer,Alberta,AB,Canada,CA,T4P2A6,-7,-6,1,52.2724,-113.8034
403,343,403343,Red Deer,Alberta,AB,Canada,CA,T4R1V3,-7,-6,1,52.2724,-113.8034
403,343,403343,Red Deer,Alberta,AB,Canada,CA,T4N6R3,-7,-6,1,52.2724,-113.8034
403,343,403343,Red Deer,Alberta,AB,Canada,CA,T4P1M9,-7,-6,1,52.2724,-113.8034
403,343,403343,Red Deer,Alberta,AB,Canada,CA,T4P1H8,-7,-6,1,52.2724,-113.8034
403,343,403343,Red Deer,Alberta,AB,Canada,CA,T4R1M8,-7,-6,1,52.2724,-113.8034
403,343,403343,Red Deer,Alberta,AB,Canada,CA,T4P1K1,-7,-6,1,52.2724,-113.8034
403,343,403343,Red Deer,Alberta,AB,Canada,CA,T4N1X4,-7,-6,1,52.2724,-113.8034
403,343,403343,Red Deer,Alberta,AB,Canada,CA,T4N6M9,-7,-6,1,52.2724,-113.8034
403,343,403343,Red Deer,Alberta,AB,Canada,CA,T4N6C9,-7,-6,1,52.2724,-113.8034
403,343,403343,Red Deer,Alberta,AB,Canada,CA,T4N4J5,-7,-6,1,52.2724,-113.8034
403,344,403344,Aden,Alberta,AB,Canada,CA,T0K0A0,-7,-6,1,49.0022,-111.9507
403,344,403344,Milk River,Alberta,AB,Canada,CA,T0K1M0,-7,-6,1,49.0022,-111.9507
403,344,403344,Coutts,Alberta,AB,Canada,CA,T0K0N0,-7,-6,1,49.0022,-111.9507
403,345,403345,Coaldale,Alberta,AB,Canada,CA,T1M1C1,-7,-6,1,49.7266,-112.6244
403,345,403345,Coaldale,Alberta,AB,Canada,CA,T1M1B1,-7,-6,1,49.7266,-112.6244
403,345,403345,Coaldale,Alberta,AB,Canada,CA,T0K0L0,-7,-6,1,49.7266,-112.6244
403,345,403345,Coaldale,Alberta,AB,Canada,CA,T1M1M3,-7,-6,1,49.7266,-112.6244
403,345,403345,Coaldale,Alberta,AB,Canada,CA,T1M1J8,-7,-6,1,49.7266,-112.6244
403,345,403345,Coaldale,Alberta,AB,Canada,CA,T1M1M7,-7,-6,1,49.7266,-112.6244
403,345,403345,Coaldale,Alberta,AB,Canada,CA,T1M1K6,-7,-6,1,49.7266,-112.6244
403,345,403345,Coaldale,Alberta,AB,Canada,CA,T1M1B4,-7,-6,1,49.7266,-112.6244
403,345,403345,Coaldale,Alberta,AB,Canada,CA,T1M1H6,-7,-6,1,49.7266,-112.6244
403,345,403345,Coaldale,Alberta,AB,Canada,CA,T1M1C3,-7,-6,1,49.7266,-112.6244
403,345,403345,Coaldale,Alberta,AB,Canada,CA,T1M1M2,-7,-6,1,49.7266,-112.6244
403,345,403345,Coaldale,Alberta,AB,Canada,CA,T1M1J7,-7,-6,1,49.7266,-112.6244
403,345,403345,Coaldale,Alberta,AB,Canada,CA,T1M1G8,-7,-6,1,49.7266,-112.6244
403,345,403345,Coaldale,Alberta,AB,Canada,CA,T1M1E1,-7,-6,1,49.7266,-112.6244
403,345,403345,Coaldale,Alberta,AB,Canada,CA,T1M1M6,-7,-6,1,49.7266,-112.6244
403,345,403345,Coaldale,Alberta,AB,Canada,CA,T1M1G3,-7,-6,1,49.7266,-112.6244
403,345,403345,Coaldale,Alberta,AB,Canada,CA,T1M1B7,-7,-6,1,49.7266,-112.6244
403,345,403345,Coaldale,Alberta,AB,Canada,CA,T1M1M8,-7,-6,1,49.7266,-112.6244
403,345,403345,Coaldale,Alberta,AB,Canada,CA,T1M1N3,-7,-6,1,49.7266,-112.6244
403,345,403345,Coaldale,Alberta,AB,Canada,CA,T1M1H7,-7,-6,1,49.7266,-112.6244
403,346,403346,Red Deer,Alberta,AB,Canada,CA,T4N0W,-7,-6,1,52.2724,-113.8034
403,346,403346,Red Deer,Alberta,AB,Canada,CA,T4N1X5,-7,-6,1,52.2724,-113.8034
403,346,403346,Red Deer,Alberta,AB,Canada,CA,T4P1M9,-7,-6,1,52.2724,-113.8034
403,346,403346,Red Deer,Alberta,AB,Canada,CA,T4N1X2,-7,-6,1,52.2724,-113.8034
403,346,403346,Red Deer,Alberta,AB,Canada,CA,T4N3P2,-7,-6,1,52.2724,-113.8034
403,346,403346,Red Deer,Alberta,AB,Canada,CA,T4R1M8,-7,-6,1,52.2724,-113.8034
403,346,403346,Red Deer,Alberta,AB,Canada,CA,T4N5E4,-7,-6,1,52.2724,-113.8034
403,346,403346,Red Deer,Alberta,AB,Canada,CA,T4P1C9,-7,-6,1,52.2724,-113.8034
403,346,403346,Red Deer,Alberta,AB,Canada,CA,T4N0P2,-7,-6,1,52.2724,-113.8034
403,346,403346,Red Deer,Alberta,AB,Canada,CA,T4P1J,-7,-6,1,52.2724,-113.8034
403,346,403346,Red Deer,Alberta,AB,Canada,CA,T4N6M9,-7,-6,1,52.2724,-113.8034
403,346,403346,Red Deer,Alberta,AB,Canada,CA,T4N6R3,-7,-6,1,52.2724,-113.8034
403,346,403346,Red Deer,Alberta,AB,Canada,CA,T4N0N5,-7,-6,1,52.2724,-113.8034
403,346,403346,Red Deer,Alberta,AB,Canada,CA,T4N6H3,-7,-6,1,52.2724,-113.8034
403,346,403346,Red Deer,Alberta,AB,Canada,CA,T4N5E2,-7,-6,1,52.2724,-113.8034
403,346,403346,Red Deer,Alberta,AB,Canada,CA,T4P2A6,-7,-6,1,52.2724,-113.8034
403,346,403346,Red Deer,Alberta,AB,Canada,CA,T4N5E1,-7,-6,1,52.2724,-113.8034
403,346,403346,Red Deer,Alberta,AB,Canada,CA,T4P1H8,-7,-6,1,52.2724,-113.8034
403,346,403346,Red Deer,Alberta,AB,Canada,CA,T4N2K8,-7,-6,1,52.2724,-113.8034
403,346,403346,Red Deer,Alberta,AB,Canada,CA,T4N3T1,-7,-6,1,52.2724,-113.8034
403,347,403347,Red Deer,Alberta,AB,Canada,CA,T4N1V8,-7,-6,1,52.2724,-113.8034
403,347,403347,Red Deer,Alberta,AB,Canada,CA,T4N5E2,-7,-6,1,52.2724,-113.8034
403,347,403347,Red Deer,Alberta,AB,Canada,CA,T4N0N5,-7,-6,1,52.2724,-113.8034
403,347,403347,Red Deer,Alberta,AB,Canada,CA,T4N2K8,-7,-6,1,52.2724,-113.8034
403,347,403347,Red Deer,Alberta,AB,Canada,CA,T4N3P2,-7,-6,1,52.2724,-113.8034
403,347,403347,Red Deer,Alberta,AB,Canada,CA,T4N0A,-7,-6,1,52.2724,-113.8034
403,347,403347,Red Deer,Alberta,AB,Canada,CA,T4N6H3,-7,-6,1,52.2724,-113.8034
403,347,403347,Red Deer,Alberta,AB,Canada,CA,T4N2J1,-7,-6,1,52.2724,-113.8034
403,347,403347,Red Deer,Alberta,AB,Canada,CA,T4P1C9,-7,-6,1,52.2724,-113.8034
403,347,403347,Red Deer,Alberta,AB,Canada,CA,T4N5S6,-7,-6,1,52.2724,-113.8034
403,347,403347,Red Deer,Alberta,AB,Canada,CA,T4N5E3,-7,-6,1,52.2724,-113.8034
403,347,403347,Red Deer,Alberta,AB,Canada,CA,T4P1K1,-7,-6,1,52.2724,-113.8034
403,347,403347,Red Deer,Alberta,AB,Canada,CA,T4N0P2,-7,-6,1,52.2724,-113.8034
403,347,403347,Red Deer,Alberta,AB,Canada,CA,T4P1H8,-7,-6,1,52.2724,-113.8034
403,347,403347,Red Deer,Alberta,AB,Canada,CA,T4R1N9,-7,-6,1,52.2724,-113.8034
403,347,403347,Red Deer,Alberta,AB,Canada,CA,T4P2A6,-7,-6,1,52.2724,-113.8034
403,347,403347,Red Deer,Alberta,AB,Canada,CA,T4N5E4,-7,-6,1,52.2724,-113.8034
403,347,403347,Red Deer,Alberta,AB,Canada,CA,T4N5E1,-7,-6,1,52.2724,-113.8034
403,347,403347,Red Deer,Alberta,AB,Canada,CA,T0C1S0,-7,-6,1,52.2724,-113.8034
403,347,403347,Red Deer,Alberta,AB,Canada,CA,T4N6K7,-7,-6,1,52.2724,-113.8034
403,348,403348,Tawatinaw,Alberta,AB,Canada,CA,T0G2E0,-7,-6,1,52.2724,-113.8034
403,348,403348,Clyde,Alberta,AB,Canada,CA,T0G0P0,-7,-6,1,52.2724,-113.8034
403,348,403348,Westlock,Alberta,AB,Canada,CA,T7P2P5,-7,-6,1,52.2724,-113.8034
403,348,403348,Westlock,Alberta,AB,Canada,CA,T7P2K3,-7,-6,1,52.2724,-113.8034
403,348,403348,Red Deer,Alberta,AB,Canada,CA,T0B4M0,-7,-6,1,52.2724,-113.8034
403,348,403348,Thorhild,Alberta,AB,Canada,CA,T0A3J0,-7,-6,1,52.2724,-113.8034
403,348,403348,Nestow,Alberta,AB,Canada,CA,T0G1S0,-7,-6,1,52.2724,-113.8034
403,348,403348,Red Deer,Alberta,AB,Canada,CA,T0G2L0,-7,-6,1,52.2724,-113.8034
403,348,403348,Vimy,Alberta,AB,Canada,CA,T0G2J0,-7,-6,1,52.2724,-113.8034
403,350,403350,Red Deer,Alberta,AB,Canada,CA,T4N5E2,-7,-6,1,52.2724,-113.8034
403,350,403350,Rimbey,Alberta,AB,Canada,CA,T0C2J0,-7,-6,1,52.2724,-113.8034
403,350,403350,Sylvan Lake,Alberta,AB,Canada,CA,T4S1N5,-7,-6,1,52.2724,-113.8034
403,350,403350,Red Deer,Alberta,AB,Canada,CA,T4P2V3,-7,-6,1,52.2724,-113.8034
403,350,403350,Red Deer,Alberta,AB,Canada,CA,T4P1C9,-7,-6,1,52.2724,-113.8034
403,350,403350,Red Deer,Alberta,AB,Canada,CA,T4N6S6,-7,-6,1,52.2724,-113.8034
403,350,403350,Eckville,Alberta,AB,Canada,CA,T0M0X0,-7,-6,1,52.2724,-113.8034
403,350,403350,Red Deer,Alberta,AB,Canada,CA,T4N6H2,-7,-6,1,52.2724,-113.8034
403,350,403350,Red Deer,Alberta,AB,Canada,CA,T4N5E8,-7,-6,1,52.2724,-113.8034
403,350,403350,Red Deer,Alberta,AB,Canada,CA,T4N4H5,-7,-6,1,52.2724,-113.8034
403,350,403350,Red Deer,Alberta,AB,Canada,CA,T4N1V8,-7,-6,1,52.2724,-113.8034
403,350,403350,Lacombe,Alberta,AB,Canada,CA,T4L1W7,-7,-6,1,52.2724,-113.8034
403,350,403350,Lacombe,Alberta,AB,Canada,CA,T4L1R8,-7,-6,1,52.2724,-113.8034
403,350,403350,Red Deer,Alberta,AB,Canada,CA,T4N4M2,-7,-6,1,52.2724,-113.8034
403,350,403350,Red Deer,Alberta,AB,Canada,CA,T4N0M8,-7,-6,1,52.2724,-113.8034
403,352,403352,Wetaskiwin,Alberta,AB,Canada,CA,T9A2V6,-7,-6,1,52.2724,-113.8034
403,352,403352,Gwynne,Alberta,AB,Canada,CA,T0C1L0,-7,-6,1,52.2724,-113.8034
403,352,403352,Wetaskiwin,Alberta,AB,Canada,CA,T9A1R6,-7,-6,1,52.2724,-113.8034
403,352,403352,Wetaskiwin,Alberta,AB,Canada,CA,T9A1A3,-7,-6,1,52.2724,-113.8034
403,352,403352,Wetaskiwin,Alberta,AB,Canada,CA,T9A2J6,-7,-6,1,52.2724,-113.8034
403,352,403352,Wetaskiwin,Alberta,AB,Canada,CA,T9A0V5,-7,-6,1,52.2724,-113.8034
403,352,403352,Wetaskiwin,Alberta,AB,Canada,CA,T9A0T6,-7,-6,1,52.2724,-113.8034
403,352,403352,Wetaskiwin,Alberta,AB,Canada,CA,T9A0S6,-7,-6,1,52.2724,-113.8034
403,352,403352,Wetaskiwin,Alberta,AB,Canada,CA,T9A2W6,-7,-6,1,52.2724,-113.8034
403,352,403352,Wetaskiwin,Alberta,AB,Canada,CA,T9A2S3,-7,-6,1,52.2724,-113.8034
403,352,403352,Wetaskiwin,Alberta,AB,Canada,CA,T9A3M4,-7,-6,1,52.2724,-113.8034
403,352,403352,Wetaskiwin,Alberta,AB,Canada,CA,T9A1X1,-7,-6,1,52.2724,-113.8034
403,352,403352,Wetaskiwin,Alberta,AB,Canada,CA,T9A3A6,-7,-6,1,52.2724,-113.8034
403,352,403352,Wetaskiwin,Alberta,AB,Canada,CA,T9A0X9,-7,-6,1,52.2724,-113.8034
403,352,403352,Falun,Alberta,AB,Canada,CA,T0C1H0,-7,-6,1,52.2724,-113.8034
403,352,403352,Wetaskiwin,Alberta,AB,Canada,CA,T9A1X2,-7,-6,1,52.2724,-113.8034
403,352,403352,Wetaskiwin,Alberta,AB,Canada,CA,T9A1W8,-7,-6,1,52.2724,-113.8034
403,352,403352,Wetaskiwin,Alberta,AB,Canada,CA,T9A1W9,-7,-6,1,52.2724,-113.8034
403,352,403352,Millet,Alberta,AB,Canada,CA,T0C1Z0,-7,-6,1,52.2724,-113.8034