ISO;Country;Region;Locality;Postcode;Street;Latitude;Longitude;Elevation
NL;Netherlands;Drenthe;Aa en Hunze;9465TL;'t Loeg;53.002115;6.686958;
NL;Netherlands;Drenthe;Aa en Hunze;9465TM;'t Loeg;53.000982;6.685509;
NL;Netherlands;Drenthe;Aa en Hunze;9468GR;'t Veld;53.061221;6.713308;
NL;Netherlands;Drenthe;Aa en Hunze;9468GS;'t Veld;53.061531;6.713542;
NL;Netherlands;Drenthe;Aa en Hunze;9514EC;'t Wad;52.986027;6.850429;
NL;Netherlands;Drenthe;Aa en Hunze;9463TD;'t Wit;53.043985;6.761555;
NL;Netherlands;Drenthe;Aa en Hunze;9463PA;'t Witzand;53.025880;6.737741;
NL;Netherlands;Drenthe;Aa en Hunze;9461TH;Achter 't Hout;52.998386;6.795082;
NL;Netherlands;Drenthe;Aa en Hunze;9461TJ;Achter 't Hout;52.998606;6.794365;
NL;Netherlands;Drenthe;Aa en Hunze;9462RE;Achter de Brinken;52.970512;6.792234;
NL;Netherlands;Drenthe;Aa en Hunze;9462RG;Achter de Brinken;52.972244;6.800106;
NL;Netherlands;Drenthe;Aa en Hunze;9462RH;Achter de Brinken;52.971773;6.800389;
NL;Netherlands;Drenthe;Aa en Hunze;9469PR;Achterhaven;53.074454;6.673458;
NL;Netherlands;Drenthe;Aa en Hunze;9469PT;Achterhaven;53.074314;6.672964;
NL;Netherlands;Drenthe;Aa en Hunze;9462TM;Achterweg;52.993356;6.803842;
NL;Netherlands;Drenthe;Aa en Hunze;9451GP;Adolph van Ansenlaan;52.981674;6.653960;
NL;Netherlands;Drenthe;Aa en Hunze;9451GR;Adolph van Ansenlaan;52.981709;6.655807;
NL;Netherlands;Drenthe;Aa en Hunze;9461HR;Altena;52.995668;6.770482;
NL;Netherlands;Drenthe;Aa en Hunze;9451JE;Alterakker;52.978391;6.653589;
NL;Netherlands;Drenthe;Aa en Hunze;9451JG;Alterakker;52.978079;6.653155;
NL;Netherlands;Drenthe;Aa en Hunze;9461AJ;Ambachtsstraat;53.007720;6.765872;
NL;Netherlands;Drenthe;Aa en Hunze;9461AK;Ambachtsstraat;53.008192;6.766354;
NL;Netherlands;Drenthe;Aa en Hunze;9446PA;Amen;52.944016;6.613603;
NL;Netherlands;Drenthe;Aa en Hunze;9446PB;Amen;52.944433;6.607724;
NL;Netherlands;Drenthe;Aa en Hunze;9446PC;Amen;52.945760;6.613637;
NL;Netherlands;Drenthe;Aa en Hunze;9446PD;Amen;52.945866;6.612143;
NL;Netherlands;Drenthe;Aa en Hunze;9446TE;Amen;52.938066;6.604941;
NL;Netherlands;Drenthe;Aa en Hunze;9444PC;Amerweg;52.936681;6.671379;
NL;Netherlands;Drenthe;Aa en Hunze;9444PD;Amerweg;52.937056;6.671302;
NL;Netherlands;Drenthe;Aa en Hunze;9444TG;Amerweg;52.939667;6.658073;
NL;Netherlands;Drenthe;Aa en Hunze;9463RN;Anderenseweg;53.014535;6.730345;
NL;Netherlands;Drenthe;Aa en Hunze;9463TL;Anderenseweg;53.013027;6.726013;
NL;Netherlands;Drenthe;Aa en Hunze;9467PG;Anderenseweg;53.041864;6.699325;
NL;Netherlands;Drenthe;Aa en Hunze;9468CN;Anlooërweg;53.052813;6.724637;
NL;Netherlands;Drenthe;Aa en Hunze;9468TC;Annermoeras;53.076188;6.750804;
NL;Netherlands;Drenthe;Aa en Hunze;9468AK;Annerstreek;53.068659;6.718574;
NL;Netherlands;Drenthe;Aa en Hunze;9468AL;Annerstreek;53.061901;6.719890;
NL;Netherlands;Drenthe;Aa en Hunze;9468AM;Annerstreek;53.059751;6.722053;
NL;Netherlands;Drenthe;Aa en Hunze;9468AN;Annerstreek;53.069901;6.714965;
NL;Netherlands;Drenthe;Aa en Hunze;9468AP;Annerstreek;53.065886;6.717431;
NL;Netherlands;Drenthe;Aa en Hunze;9468AR;Annerstreek;53.062127;6.719580;
NL;Netherlands;Drenthe;Aa en Hunze;9468AS;Annerstreek;53.060710;6.721002;
NL;Netherlands;Drenthe;Aa en Hunze;9463TA;Annerweg;53.038704;6.741547;
NL;Netherlands;Drenthe;Aa en Hunze;9463TB;Annerweg;53.030437;6.739269;
NL;Netherlands;Drenthe;Aa en Hunze;9467PA;Annerweg;53.044827;6.703222;
NL;Netherlands;Drenthe;Aa en Hunze;9467PB;Annerweg;53.048495;6.711924;
NL;Netherlands;Drenthe;Aa en Hunze;9467PC;Annerweg;53.045926;6.706119;
NL;Netherlands;Drenthe;Aa en Hunze;9468GJ;Appelakkers;53.058685;6.712973;
NL;Netherlands;Drenthe;Aa en Hunze;9451AA;Asserstraat;52.988505;6.642764;
NL;Netherlands;Drenthe;Aa en Hunze;9451AB;Asserstraat;52.989811;6.632170;
NL;Netherlands;Drenthe;Aa en Hunze;9451AC;Asserstraat;52.989132;6.639858;
NL;Netherlands;Drenthe;Aa en Hunze;9451AD;Asserstraat;52.989684;6.637607;
NL;Netherlands;Drenthe;Aa en Hunze;9451AE;Asserstraat;52.990121;6.634210;
NL;Netherlands;Drenthe;Aa en Hunze;9451TA;Asserstraat;52.990210;6.620208;
NL;Netherlands;Drenthe;Aa en Hunze;9461GA;Asserstraat;53.003959;6.763234;
NL;Netherlands;Drenthe;Aa en Hunze;9461GB;Asserstraat;53.003626;6.758797;
NL;Netherlands;Drenthe;Aa en Hunze;9461GC;Asserstraat;53.004333;6.762769;
NL;Netherlands;Drenthe;Aa en Hunze;9461GD;Asserstraat;53.003911;6.757198;
NL;Netherlands;Drenthe;Aa en Hunze;9461TV;Asserstraat;53.002215;6.752288;
NL;Netherlands;Drenthe;Aa en Hunze;9453VC;Baarveldweg;52.966126;6.615237;
NL;Netherlands;Drenthe;Aa en Hunze;9451AK;Balloërstraat;52.992746;6.641745;
NL;Netherlands;Drenthe;Aa en Hunze;9459TA;Balloërveld;53.024450;6.640628;
NL;Netherlands;Drenthe;Aa en Hunze;9458TA;Balloo;52.999529;6.634800;
NL;Netherlands;Drenthe;Aa en Hunze;9458TB;Balloo;52.998882;6.633710;
NL;Netherlands;Drenthe;Aa en Hunze;9458TC;Balloo;52.994934;6.628771;
NL;Netherlands;Drenthe;Aa en Hunze;9458TD;Balloo;52.995774;6.634265;
NL;Netherlands;Drenthe;Aa en Hunze;9451KH;Banderschulte;52.982772;6.648446;
NL;Netherlands;Drenthe;Aa en Hunze;9451KJ;Banderschulte;52.982003;6.648548;
NL;Netherlands;Drenthe;Aa en Hunze;9514AH;Baptistenkade;52.987997;6.862004;
NL;Netherlands;Drenthe;Aa en Hunze;9512SB;Bareveld;53.052061;6.845819;
NL;Netherlands;Drenthe;Aa en Hunze;9468CJ;Bartelaar;53.054736;6.739696;
NL;Netherlands;Drenthe;Aa en Hunze;9468CK;Bartelaar;53.054470;6.735008;
NL;Netherlands;Drenthe;Aa en Hunze;9511PZ;Bentpollen;53.027373;6.837599;
NL;Netherlands;Drenthe;Aa en Hunze;9451JH;Bergakker;52.978727;6.654866;
NL;Netherlands;Drenthe;Aa en Hunze;9462RK;Bergweg;52.970267;6.790805;
NL;Netherlands;Drenthe;Aa en Hunze;9462RJ;Berkenlaan;52.970100;6.789489;
NL;Netherlands;Drenthe;Aa en Hunze;9462SM;Bernhard Fabritiuslaan;52.974519;6.799041;
NL;Netherlands;Drenthe;Aa en Hunze;9462SN;Bernhard Fabritiuslaan;52.974108;6.798147;
NL;Netherlands;Drenthe;Aa en Hunze;9461GX;Bloemakkers;52.999140;6.767678;
NL;Netherlands;Drenthe;Aa en Hunze;9461JA;Boddeveld;53.005274;6.773302;
NL;Netherlands;Drenthe;Aa en Hunze;9461JB;Boddeveld;53.004627;6.773833;
NL;Netherlands;Drenthe;Aa en Hunze;9514AX;Boerdijk;52.985161;6.846968;
NL;Netherlands;Drenthe;Aa en Hunze;9511PE;Boerendijk;53.023966;6.857886;
NL;Netherlands;Drenthe;Aa en Hunze;9444TS;Boerhaarsweg;52.931867;6.697459;
NL;Netherlands;Drenthe;Aa en Hunze;9468GG;Boerhoorn;53.060259;6.716165;
NL;Netherlands;Drenthe;Aa en Hunze;9468GH;Boerhoorn;53.060478;6.716546;
NL;Netherlands;Drenthe;Aa en Hunze;9461AC;Bonnen;53.006652;6.776134;
NL;Netherlands;Drenthe;Aa en Hunze;9461AD;Bonnen;53.006189;6.773616;
NL;Netherlands;Drenthe;Aa en Hunze;9461TC;Bonnen;53.004760;6.791064;
NL;Netherlands;Drenthe;Aa en Hunze;9461TD;Bonnen;53.004648;6.789302;
NL;Netherlands;Drenthe;Aa en Hunze;9461TE;Bonnerdijk;53.006932;6.787423;
NL;Netherlands;Drenthe;Aa en Hunze;9461AG;Bonnerhoek;53.005961;6.770870;
NL;Netherlands;Drenthe;Aa en Hunze;9461AH;Bonnerhoek;53.005951;6.771332;
NL;Netherlands;Drenthe;Aa en Hunze;9511PM;Bonnerveen;53.024678;6.835142;
NL;Netherlands;Drenthe;Aa en Hunze;9511PN;Bonnerveen;53.024834;6.834019;
NL;Netherlands;Drenthe;Aa en Hunze;9511PP;Bonnerveen;53.014747;6.832320;
NL;Netherlands;Drenthe;Aa en Hunze;9468GV;Borckerveld;53.061447;6.709681;
NL;Netherlands;Drenthe;Aa en Hunze;9449PA;Borgerderstraat;52.978128;6.667295;
NL;Netherlands;Drenthe;Aa en Hunze;9449TX;Borgerderstraat;52.970307;6.688910;
NL;Netherlands;Drenthe;Aa en Hunze;9462RA;Borgerweg;52.968630;6.789800;